{"type": "FeatureCollection", "source": "JRC Africa Knowledge Platform (akp GeoServer WFS)", "citation": "Macgregor, D. (2014) history of the development of the East African Rift System \u2014 active faults; craton outlines as compiled by the EC JRC Africa Knowledge Platform", "terms": "European Commission reuse policy (Decision 2011/833/EU), reuse permitted with attribution", "landing": "https://africa-knowledge-platform.ec.europa.eu/", "accessed": "2026-08-13", "notice": "Craton margins, derived as the boundary linework of the AKP craton polygons. The interiors are deliberately not shipped: only the edge has measured skill (2.9x on DRC gold visits at 25 km); 'on a craton' is true of 60% of the ground and means nothing.", "features": [{"type": "Feature", "geometry": {"type": "MultiLineString", "coordinates": [[[31.6069, -2.8347], [32.4092, -1.1353], [32.916, -0.0301], [33.296, 0.3525], [33.9294, 0.5226], [34.6895, 0.5226], [35.323, 0.31], [35.5763, -0.2426], [35.6608, -1.2203], [35.703, -2.2402], [35.7452, -3.0046], [35.7452, -3.8957], [35.9986, -4.8282], [36.0831, -5.6748], [36.2097, -6.478], [36.2097, -7.0689], [36.0831, -7.5327], [35.8678, -7.5273], [35.6374, -7.5437], [35.2261, -7.7079], [34.749, -7.8555], [34.2225, -7.8555], [33.7289, -7.8063], [33.515, -7.7571], [32.8315, -7.0689], [32.0292, -6.309], [31.6491, -5.7594], [31.3113, -5.294], [30.9735, -4.8706], [30.7623, -4.574], [30.7623, -4.2773], [30.7623, -3.8533], [30.9313, -3.5563], [31.6069, -2.8347]]]}, "properties": {"name": "Tanzanian", "source": "Macgregor, 2020"}}, {"type": "Feature", "geometry": {"type": "MultiLineString", "coordinates": [[[29.5377, -6.9845], [29.8333, -6.9845], [30.5512, -8.2064], [30.7623, -8.6269], [31.0579, -9.0469], [31.2268, -8.9629], [31.3535, -8.5428], [31.3535, -8.2064], [31.7758, -8.2905], [31.9447, -8.6269], [32.2825, -9.0889], [32.6626, -9.3406], [32.916, -9.6341], [32.6626, -10.011], [32.0714, -10.2202], [31.2268, -10.4293], [30.6357, -10.7218], [30.3401, -11.1391], [30.1712, -11.6807], [29.96, -12.0966], [29.6644, -12.4288], [29.1577, -12.4703], [28.5243, -12.3043], [28.3554, -12.1381], [28.2287, -11.5974], [28.2709, -11.1391], [28.482, -10.6382], [28.5665, -10.1366], [28.5665, -9.6341], [28.7354, -9.2987], [29.0732, -8.6269], [29.0732, -8.3747], [29.1155, -8.0381], [29.5377, -6.9845]]]}, "properties": {"name": "Bangweulu", "source": "Macgregor, 2020"}}, {"type": "Feature", "geometry": {"type": "MultiLineString", "coordinates": [[[29.2844, -18.2853], [29.8333, -17.5577], [29.7911, -16.9897], [29.7911, -16.6236], [29.9178, -16.4607], [30.0867, -16.3384], [30.889, -16.4199], [31.9025, -16.5422], [32.2825, -16.705], [32.4515, -16.9084], [32.5781, -17.0709], [32.7048, -17.841], [32.7893, -18.3256], [32.8737, -18.8089], [33.0004, -19.3309], [33.0004, -19.5712], [32.6626, -20.1306], [32.2825, -20.1705], [31.1424, -20.1705], [30.5934, -20.4095], [30.0445, -20.6084], [29.7489, -20.8865], [29.3688, -21.1244], [28.8621, -21.2828], [28.3131, -21.2828], [27.8486, -21.0055], [27.3419, -20.4095], [27.0885, -20.4095], [26.6662, -20.1705], [27.2574, -19.8911], [27.7642, -19.2908], [28.3554, -19.0099], [28.7354, -18.8491], [29.2844, -18.2853]]]}, "properties": {"name": "Zimbabwe", "source": "Macgregor, 2020"}}, {"type": "Feature", "geometry": {"type": "MultiLineString", "coordinates": [[[25.6206, -23.3512], [26.5553, -23.2149], [27.5952, -23.4429], [28.6509, -22.9745], [29.6222, -22.6613], [30.3823, -22.5437], [30.7201, -22.5437], [31.5729, -22.5616], [31.8681, -23.1543], [31.9173, -24.091], [31.9993, -25.0208], [31.9993, -25.9288], [32.1796, -26.7708], [32.442, -27.5774], [32.5076, -27.9712], [32.1796, -28.3345], [31.1138, -28.3055], [30.0151, -28.2475], [29.1297, -28.262], [28.605, -28.2765], [28.3262, -28.291], [28.0146, -28.291], [27.6375, -28.3345], [27.1948, -28.3636], [26.752, -28.4361], [26.3749, -28.5375], [25.9322, -28.6388], [25.2271, -28.8988], [24.5126, -29.334], [23.8989, -29.4601], [23.3085, -29.3078], [22.7182, -29.2359], [22.3247, -28.919], [22.1443, -28.3694], [21.9311, -27.8897], [21.7016, -27.3258], [21.554, -26.7384], [21.6833, -26.1409], [21.9475, -26.0295], [22.6526, -25.5545], [22.9924, -24.7993], [23.2458, -24.3359], [23.3725, -24.1035], [24.5384, -24.0157], [25.1451, -23.9102], [25.6206, -23.3512]]]}, "properties": {"name": "Kaapvaal", "source": "Macgregor, 2020"}}, {"type": "Feature", "geometry": {"type": "MultiLineString", "coordinates": [[[-15.15, 23.0973], [-12.682, 25.7334], [-11.3658, 26.5502], [-8.8155, 27.0669], [-6.9234, 27.1405], [-5.9362, 27.1405], [-4.2909, 27.2876], [-2.0697, 25.6589], [-0.918, 24.2339], [-1.1648, 21.5667], [-1.4116, 20.0973], [-1.4116, 18.5353], [-1.2471, 17.4332], [-1.0826, 16.7211], [0.5628, 15.608], [1.4677, 14.8892], [1.879, 14.0877], [1.879, 12.8801], [1.6322, 11.9908], [0.8096, 11.0172], [-1.2471, 10.4477], [-1.4939, 9.469], [-1.4939, 8.2418], [-1.0826, 7.5035], [-0.5067, 7.0106], [0.1514, 6.2703], [0.3982, 5.6938], [-0.589, 5.1166], [-1.4939, 4.6215], [-2.3988, 4.6215], [-4.0441, 4.7866], [-5.0313, 4.7866], [-6.3476, 4.539], [-7.7461, 4.539], [-9.885, 5.3641], [-11.448, 6.3526], [-12.4352, 7.9138], [-13.1756, 9.2239], [-13.6692, 10.4477], [-13.6692, 11.8287], [-13.5869, 13.1221], [-13.0111, 14.4087], [-12.5998, 15.5283], [-12.9288, 16.6418], [-13.916, 18.2211], [-14.8209, 19.24], [-15.3968, 20.0195], [-15.9727, 20.6403], [-16.3017, 21.1042], [-16.384, 21.1814], [-15.15, 23.0973]]]}, "properties": {"name": "West African", "source": "Macgregor, 2020"}}, {"type": "Feature", "geometry": {"type": "MultiLineString", "coordinates": [[[23.6213, 23.6649], [26.432, 26.0416], [27.5974, 25.5451], [28.3515, 24.232], [27.8031, 22.7779], [27.3918, 21.3722], [25.815, 19.4333], [24.1697, 18.1929], [23.347, 17.5365], [22.1258, 17.4248], [20.125, 17.9306], [20.6048, 18.9122], [22.0445, 21.1151], [23.6213, 23.6649]]]}, "properties": {"name": "Nile", "source": "Macgregor, 2020"}}, {"type": "Feature", "geometry": {"type": "MultiLineString", "coordinates": [[[49.109, -12.6685], [49.7671, -12.453], [49.9865, -13.0989], [50.3155, -14.2787], [50.2058, -15.2393], [49.5477, -15.5585], [49.438, -16.8304], [49.438, -18.6173], [49.109, -19.5559], [48.5605, -21.5189], [47.7927, -23.3542], [47.2443, -24.5638], [46.4765, -24.5638], [45.599, -24.2625], [45.1602, -24.0612], [44.9408, -23.2529], [45.1602, -22.6434], [45.599, -21.5189], [45.599, -20.3855], [45.599, -18.9308], [45.8183, -17.8837], [46.0377, -17.2524], [47.4637, -15.7711], [49.109, -12.6685]]]}, "properties": {"name": "Madagascar", "source": "Macgregor, 2020"}}, {"type": "Feature", "geometry": {"type": "MultiLineString", "coordinates": [[[25.0874, 5.6576], [27.0618, 4.3376], [31.0105, 3.7868], [31.5589, 3.346], [31.1202, 2.905], [30.3524, 1.8017], [29.5846, 0.3664], [29.2996, 0.3869], [26.9589, -3.2235], [27.0001, -4.6693], [25.8483, -7.2225], [24.7789, -10.1283], [24.1208, -11.673], [22.5577, -12.9269], [20.0486, -14.9756], [17.3343, -16.5044], [15.9358, -16.98], [15.0308, -17.2173], [13.7146, -17.3754], [13.056, -17.3604], [12.5624, -16.7274], [12.439, -16.1319], [12.4801, -15.3351], [12.6447, -14.6955], [13.056, -13.6922], [13.5907, -12.9269], [14.0843, -11.8757], [15.1949, -10.2912], [15.4417, -9.5572], [15.6474, -8.8215], [15.9353, -8.3302], [15.853, -7.7562], [15.4417, -6.976], [15.0304, -6.5237], [14.9893, -6.1945], [15.1949, -5.7827], [15.1949, -5.2056], [14.9481, -4.5868], [14.2077, -4.0913], [12.5624, -2.9341], [11.4518, -1.8584], [10.588, -0.989], [10.0122, 0.4603], [9.7242, 1.04], [9.7242, 1.4953], [9.8065, 2.0334], [10.1356, 2.7368], [10.4235, 3.233], [10.9171, 3.233], [12.6858, 3.1503], [13.8787, 2.9849], [15.7391, 3.3099], [17.549, 4.7968], [17.6268, 4.7588], [17.4092, 5.1079], [17.848, 5.5477], [19.603, 6.3165], [21.9064, 6.6456], [23.3324, 6.6456], [25.0874, 5.6576]]]}, "properties": {"name": "Congo", "source": "Macgregor, 2020"}}, {"type": "Feature", "geometry": {"type": "MultiLineString", "coordinates": [[[8.4706, 23.1588], [8.7449, 26.1654], [9.4304, 27.5183], [9.7732, 27.6405], [11.2128, 26.0416], [12.6525, 22.3322], [13.6808, 19.4983], [13.6808, 18.4548], [13.4066, 17.2073], [12.8582, 16.3488], [12.5154, 15.2869], [11.9669, 15.4199], [11.0072, 16.9436], [9.5675, 18.7163], [8.6078, 20.4705], [8.1964, 21.3722], [8.4706, 23.1588]]]}, "properties": {"name": "East Saharan", "source": "Macgregor, 2020"}}]}