{"type": "FeatureCollection", "features": [{"type": "Feature", "properties": {"uid": 4, "seed": "Libu (1930s)", "seed_kind": "conservancy", "area_km2": 1188.0, "area_ha": 118800, "country": "SSD", "in_zones": "[]", "overlaps": "[\"PLAN Wau-Wilderness_30,329km2 37%\", \"PLAN Southern-NP-Wilderness_41'590km2 11%\"]", "km_to_park": 2.0, "clusters": 5, "population_est": 3057, "pop_per_km2": 2.573, "new_since_2015": 1, "camps": 1, "built_km2": 0.01, "built_2000_km2": 0.0, "built_2015_km2": 0.01, "towns": "[\"Libu (1930s) 1,192\", \"Bo River* 1,076\"]", "fire_det_2024_25": 9217, "fire_per_1000km2_yr": 3879, "fire_nov_feb_share": 0.95, "fronts": 722, "fronts_per_1000km2": 607.7, "fronts_transhumance_pct": 97, "fronts_long": 501, "fronts_long_per_1000km2": 421.72, "front_dirs": "{\"N\": 132, \"S\": 114, \"NE\": 96}", "clearing_events": 37, "clearing_km2": 6.41, "clearing_since_2020_km2": 1.58, "clearing_encroach_slash": 6, "mine_reported": 0, "mine_candidates": 0, "mine_top05_cells": 7, "mine_watchlist": 0, "cropland_2003_pct": 0.0, "cropland_2019_pct": 0.0, "boundary_legibility": 0.51, "built_growth_x": null, "cls": "community", "boundary": "[\"Bo River on the SW/N (92 km)\", \"Nahr al Jur on the NE/SE (44 km)\", \"Islands (1930s sheet) on the E/SE (6 km)\", \"Rapids (1930s sheet) on the NE (4 km)\"]", "perimeter_km": 202, "unattributed_pct": 28, "park_sector": "SE"}, "geometry": {"type": "Polygon", "coordinates": [[[27.868116466277627, 6.6657503007800445], [27.90435707188255, 6.6657503007800445], [27.90435707188255, 6.647698156187535], [27.94059767748748, 6.647698156187535], [27.94059767748748, 6.6115958012322995], [27.958717980289943, 6.6115958012322995], [27.958717980289943, 6.575496013150397], [27.94059767748748, 6.575496013150397], [27.94059767748748, 6.539398777430352], [27.922477374685016, 6.539398777430352], [27.922477374685016, 6.46721190507637], [27.868116466277627, 6.46721190507637], [27.868116466277627, 6.449166759565559], [27.84999616347516, 6.449166759565559], [27.84999616347516, 6.431122239465738], [27.8318758606727, 6.431122239465738], [27.8318758606727, 6.413078342967868], [27.813755557870234, 6.413078342967868], [27.813755557870234, 6.37699241354463], [27.90435707188255, 6.37699241354463], [27.90435707188255, 6.413078342967868], [27.922477374685016, 6.413078342967868], [27.922477374685016, 6.358950377004004], [27.90435707188255, 6.358950377004004], [27.90435707188255, 6.322868151230804], [27.88623676908009, 6.322868151230804], [27.88623676908009, 6.304827958386333], [27.868116466277627, 6.304827958386333], [27.868116466277627, 6.286788376496282], [27.84999616347516, 6.286788376496282], [27.84999616347516, 6.250711038361766], [27.8318758606727, 6.250711038361766], [27.8318758606727, 6.23267327850984], [27.84999616347516, 6.23267327850984], [27.84999616347516, 6.214636122397419], [27.8318758606727, 6.214636122397419], [27.8318758606727, 6.196599568222144], [27.79563525506777, 6.196599568222144], [27.79563525506777, 6.214636122397419], [27.723154043857914, 6.214636122397419], [27.723154043857914, 6.23267327850984], [27.705033741055455, 6.23267327850984], [27.705033741055455, 6.250711038361766], [27.614432227043135, 6.250711038361766], [27.614432227043135, 6.214636122397419], [27.560071318635746, 6.214636122397419], [27.560071318635746, 6.286788376496282], [27.523830713030815, 6.286788376496282], [27.523830713030815, 6.268749403756095], [27.505710410228353, 6.268749403756095], [27.505710410228353, 6.250711038361766], [27.487590107425888, 6.250711038361766], [27.487590107425888, 6.23267327850984], [27.469469804623426, 6.23267327850984], [27.469469804623426, 6.142493499303824], [27.451349501820964, 6.142493499303824], [27.451349501820964, 6.196599568222144], [27.4332291990185, 6.196599568222144], [27.4332291990185, 6.214636122397419], [27.451349501820964, 6.214636122397419], [27.451349501820964, 6.304827958386333], [27.560071318635746, 6.304827958386333], [27.560071318635746, 6.322868151230804], [27.578191621438208, 6.322868151230804], [27.578191621438208, 6.358950377004004], [27.59631192424067, 6.358950377004004], [27.59631192424067, 6.37699241354463], [27.65067283264806, 6.37699241354463], [27.65067283264806, 6.431122239465738], [27.668793135450525, 6.431122239465738], [27.668793135450525, 6.449166759565559], [27.68691343825299, 6.449166759565559], [27.68691343825299, 6.46721190507637], [27.759394649462845, 6.46721190507637], [27.759394649462845, 6.503304079569989], [27.74127434666038, 6.503304079569989], [27.74127434666038, 6.557447077151746], [27.759394649462845, 6.557447077151746], [27.759394649462845, 6.575496013150397], [27.79563525506777, 6.575496013150397], [27.79563525506777, 6.557447077151746], [27.8318758606727, 6.557447077151746], [27.8318758606727, 6.6115958012322995], [27.84999616347516, 6.6115958012322995], [27.84999616347516, 6.647698156187535], [27.868116466277627, 6.647698156187535], [27.868116466277627, 6.6657503007800445]]]}}, {"type": "Feature", "properties": {"uid": 3465, "seed": "unit 3465", "seed_kind": "conservancy", "area_km2": 2224.0, "area_ha": 222400, "country": "SSD", "in_zones": "[\"PLAN Wau-Wilderness_30,329km2\"]", "overlaps": "[\"PLAN Wau-Wilderness_30,329km2 53%\", \"PLAN zone-p\\u00e2turage-durable_Numatina_15'000km2 32%\"]", "km_to_park": 4.0, "clusters": 18, "population_est": 2205, "pop_per_km2": 0.991, "new_since_2015": 0, "camps": 15, "built_km2": 0.01, "built_2000_km2": 0.01, "built_2015_km2": 0.01, "towns": "[]", "fire_det_2024_25": 22177, "fire_per_1000km2_yr": 4986, "fire_nov_feb_share": 0.97, "fronts": 1063, "fronts_per_1000km2": 478.0, "fronts_transhumance_pct": 98, "fronts_long": 708, "fronts_long_per_1000km2": 318.35, "front_dirs": "{\"N\": 221, \"S\": 149, \"NW\": 139}", "clearing_events": 33, "clearing_km2": 1.35, "clearing_since_2020_km2": 0.66, "clearing_encroach_slash": 14, "mine_reported": 0, "mine_candidates": 2, "mine_top05_cells": 19, "mine_watchlist": 1, "cropland_2003_pct": 0.0, "cropland_2019_pct": 0.0, "boundary_legibility": 0.31, "built_growth_x": null, "cls": "community", "boundary": "[\"Bo River on the NE/N (32 km)\", \"Nahr al Jur on the E/NE (26 km)\", \"R. Imatima (1930s sheet) on the W (24 km)\", \"unnamed river (order 4) on the NW/W (14 km)\", \"R. Duma (1930s sheet) on the S/SE (14 km)\", \"R. Yabo (1930s sheet) on the SE/E (10 km)\"]", "perimeter_km": 348, "unattributed_pct": 63, "park_sector": "SE"}, "geometry": {"type": "Polygon", "coordinates": [[[27.523830713030815, 6.286788376496282], [27.560071318635746, 6.286788376496282], [27.560071318635746, 6.214636122397419], [27.614432227043135, 6.214636122397419], [27.614432227043135, 6.250711038361766], [27.705033741055455, 6.250711038361766], [27.705033741055455, 6.23267327850984], [27.723154043857914, 6.23267327850984], [27.723154043857914, 6.214636122397419], [27.79563525506777, 6.214636122397419], [27.79563525506777, 6.196599568222144], [27.813755557870234, 6.196599568222144], [27.813755557870234, 6.178563614182206], [27.79563525506777, 6.178563614182206], [27.79563525506777, 6.142493499303824], [27.813755557870234, 6.142493499303824], [27.813755557870234, 6.124459334864475], [27.705033741055455, 6.124459334864475], [27.705033741055455, 6.106425763358651], [27.8318758606727, 6.106425763358651], [27.8318758606727, 6.070360391951696], [27.813755557870234, 6.070360391951696], [27.813755557870234, 5.9982366852152476], [27.777514952265307, 5.9982366852152476], [27.777514952265307, 5.980207213899033], [27.74127434666038, 5.980207213899033], [27.74127434666038, 5.9982366852152476], [27.723154043857914, 5.9982366852152476], [27.723154043857914, 6.016266736882443], [27.705033741055455, 6.016266736882443], [27.705033741055455, 6.034297370696531], [27.6325525298456, 6.034297370696531], [27.6325525298456, 6.016266736882443], [27.68691343825299, 6.016266736882443], [27.68691343825299, 5.9982366852152476], [27.705033741055455, 5.9982366852152476], [27.705033741055455, 5.980207213899033], [27.723154043857914, 5.980207213899033], [27.723154043857914, 5.9441500051384875], [27.6325525298456, 5.9441500051384875], [27.6325525298456, 5.854017013765743], [27.59631192424067, 5.854017013765743], [27.59631192424067, 5.872042472866882], [27.578191621438208, 5.872042472866882], [27.578191621438208, 5.890068499762194], [27.54195101583328, 5.890068499762194], [27.54195101583328, 5.9982366852152476], [27.523830713030815, 5.9982366852152476], [27.523830713030815, 5.9441500051384875], [27.451349501820964, 5.9441500051384875], [27.451349501820964, 5.872042472866882], [27.4332291990185, 5.872042472866882], [27.4332291990185, 5.854017013765743], [27.37886829061111, 5.854017013765743], [27.37886829061111, 5.9441500051384875], [27.360747987808644, 5.9441500051384875], [27.360747987808644, 5.872042472866882], [27.34262768500618, 5.872042472866882], [27.34262768500618, 5.890068499762194], [27.306387079401254, 5.890068499762194], [27.306387079401254, 5.908095096243951], [27.28826677659879, 5.908095096243951], [27.28826677659879, 5.9441500051384875], [27.2339058681914, 5.9441500051384875], [27.2339058681914, 5.962178321138402], [27.215785565388934, 5.962178321138402], [27.215785565388934, 6.016266736882443], [27.37886829061111, 6.016266736882443], [27.37886829061111, 6.034297370696531], [27.215785565388934, 6.034297370696531], [27.215785565388934, 6.214636122397419], [27.197665262586472, 6.214636122397419], [27.197665262586472, 6.268749403756095], [27.34262768500618, 6.268749403756095], [27.34262768500618, 6.250711038361766], [27.4332291990185, 6.250711038361766], [27.4332291990185, 6.23267327850984], [27.451349501820964, 6.23267327850984], [27.451349501820964, 6.214636122397419], [27.4332291990185, 6.214636122397419], [27.4332291990185, 6.196599568222144], [27.451349501820964, 6.196599568222144], [27.451349501820964, 6.142493499303824], [27.469469804623426, 6.142493499303824], [27.469469804623426, 6.23267327850984], [27.487590107425888, 6.23267327850984], [27.487590107425888, 6.250711038361766], [27.505710410228353, 6.250711038361766], [27.505710410228353, 6.268749403756095], [27.523830713030815, 6.268749403756095], [27.523830713030815, 6.286788376496282]]]}}, {"type": "Feature", "properties": {"uid": 2026, "seed": "Ndogo (1930s)", "seed_kind": "conservancy", "area_km2": 1172.0, "area_ha": 117200, "country": "SSD", "in_zones": "[]", "overlaps": "[]", "km_to_park": 33.9, "clusters": 23, "population_est": 642, "pop_per_km2": 0.548, "new_since_2015": 3, "camps": 18, "built_km2": 0.15, "built_2000_km2": 0.05, "built_2015_km2": 0.06, "towns": "[]", "fire_det_2024_25": 9288, "fire_per_1000km2_yr": 3962, "fire_nov_feb_share": 0.84, "fronts": 1292, "fronts_per_1000km2": 1102.4, "fronts_transhumance_pct": 98, "fronts_long": 887, "fronts_long_per_1000km2": 756.83, "front_dirs": "{\"SE\": 224, \"NW\": 199, \"W\": 174}", "clearing_events": 64, "clearing_km2": 4.48, "clearing_since_2020_km2": 0.5, "clearing_encroach_slash": 1, "mine_reported": 0, "mine_candidates": 0, "mine_top05_cells": 0, "mine_watchlist": 2, "cropland_2003_pct": 0.0, "cropland_2019_pct": 0.0, "boundary_legibility": null, "built_growth_x": 3.0, "cls": "corridor", "boundary": "[\"Busseri River on the SE/E (26 km)\", \"K. Megwalima (1930s sheet) on the NE/E (18 km)\", \"K. Ngoko (1930s sheet) on the N (16 km)\", \"K. Getti (1930s sheet) on the NW (14 km)\", \"K. Ngombara (1930s sheet) on the SW/S (14 km)\", \"K. Ungoa (1930s sheet) on the S/SE (10 km)\"]", "perimeter_km": 162, "unattributed_pct": 32, "park_sector": "NE"}, "geometry": {"type": "Polygon", "coordinates": [[[27.705033741055455, 7.786319680447201], [27.723154043857914, 7.786319680447201], [27.723154043857914, 7.732034774068742], [27.777514952265307, 7.732034774068742], [27.777514952265307, 7.713941318574386], [27.79563525506777, 7.713941318574386], [27.79563525506777, 7.659665466032585], [27.84999616347516, 7.659665466032585], [27.84999616347516, 7.60539634550797], [27.8318758606727, 7.60539634550797], [27.8318758606727, 7.533047903824164], [27.813755557870234, 7.533047903824164], [27.813755557870234, 7.514962635666978], [27.8318758606727, 7.514962635666978], [27.8318758606727, 7.496878100721639], [27.84999616347516, 7.496878100721639], [27.84999616347516, 7.460711223084615], [27.868116466277627, 7.460711223084615], [27.868116466277627, 7.478794297142507], [27.90435707188255, 7.478794297142507], [27.90435707188255, 7.496878100721639], [27.958717980289943, 7.496878100721639], [27.958717980289943, 7.334149976436806], [27.922477374685016, 7.334149976436806], [27.922477374685016, 7.31607267220997], [27.90435707188255, 7.31607267220997], [27.90435707188255, 7.2979960809295985], [27.84999616347516, 7.2979960809295985], [27.84999616347516, 7.31607267220997], [27.8318758606727, 7.31607267220997], [27.8318758606727, 7.334149976436806], [27.813755557870234, 7.334149976436806], [27.813755557870234, 7.370306731086544], [27.79563525506777, 7.370306731086544], [27.79563525506777, 7.4245472561559955], [27.813755557870234, 7.4245472561559955], [27.813755557870234, 7.442628876703652], [27.79563525506777, 7.442628876703652], [27.79563525506777, 7.460711223084615], [27.777514952265307, 7.460711223084615], [27.777514952265307, 7.478794297142507], [27.74127434666038, 7.478794297142507], [27.74127434666038, 7.496878100721639], [27.705033741055455, 7.496878100721639], [27.705033741055455, 7.460711223084615], [27.54195101583328, 7.460711223084615], [27.54195101583328, 7.5511339070395245], [27.560071318635746, 7.5511339070395245], [27.560071318635746, 7.659665466032585], [27.578191621438208, 7.659665466032585], [27.578191621438208, 7.677756666409125], [27.59631192424067, 7.677756666409125], [27.59631192424067, 7.695848616638902], [27.614432227043135, 7.695848616638902], [27.614432227043135, 7.713941318574386], [27.6325525298456, 7.713941318574386], [27.6325525298456, 7.732034774068742], [27.65067283264806, 7.732034774068742], [27.65067283264806, 7.750128984975846], [27.668793135450525, 7.750128984975846], [27.668793135450525, 7.768223953150242], [27.705033741055455, 7.768223953150242], [27.705033741055455, 7.786319680447201]]]}}, {"type": "Feature", "properties": {"uid": 5, "seed": "Bandala", "seed_kind": "conservancy", "area_km2": 24.0, "area_ha": 2400, "country": "SSD", "in_zones": "[]", "overlaps": "[\"PLAN Southern-NP-Wilderness_41'590km2 50%\"]", "km_to_park": 41.2, "clusters": 1, "population_est": 466, "pop_per_km2": 19.417, "new_since_2015": 0, "camps": 0, "built_km2": 0.0, "built_2000_km2": 0.0, "built_2015_km2": 0.0, "towns": "[]", "fire_det_2024_25": 0, "fire_per_1000km2_yr": 0, "fire_nov_feb_share": null, "fronts": 168, "fronts_per_1000km2": 7000.0, "fronts_transhumance_pct": 97, "fronts_long": 125, "fronts_long_per_1000km2": 5208.33, "front_dirs": "{\"N\": 51, \"S\": 34, \"SW\": 29}", "clearing_events": 9, "clearing_km2": 0.16, "clearing_since_2020_km2": 0.03, "clearing_encroach_slash": 2, "mine_reported": 0, "mine_candidates": 0, "mine_top05_cells": 0, "mine_watchlist": 0, "cropland_2003_pct": 0.0, "cropland_2019_pct": 0.0, "boundary_legibility": 0.34, "built_growth_x": null, "cls": "community", "boundary": "[\"Nahr al Jur on the E (4 km)\"]", "perimeter_km": 12, "unattributed_pct": 67, "park_sector": "SE"}, "geometry": {"type": "Polygon", "coordinates": [[[27.705033741055455, 6.124459334864475], [27.813755557870234, 6.124459334864475], [27.813755557870234, 6.106425763358651], [27.705033741055455, 6.106425763358651], [27.705033741055455, 6.124459334864475]]]}}]}