<?xml version="1.0" encoding="UTF-8"?><kml xmlns="http://www.opengis.net/kml/2.2"><Document><Style id="core"><LineStyle><color>ff00a000</color><width>1.5</width></LineStyle><PolyStyle><color>7f00a000</color></PolyStyle></Style><Style id="wilderness"><LineStyle><color>ff00d0d0</color><width>1.5</width></LineStyle><PolyStyle><color>7f00d0d0</color></PolyStyle></Style><Style id="community"><LineStyle><color>ff0080ff</color><width>1.5</width></LineStyle><PolyStyle><color>7f0080ff</color></PolyStyle></Style><Style id="corridor"><LineStyle><color>ffd000d0</color><width>1.5</width></LineStyle><PolyStyle><color>7fd000d0</color></PolyStyle></Style><Placemark><name>SE Nahr (118,800 ha, 3,057 ppl)</name><description><![CDATA[community · 118,800 ha · 5 clusters, 3,057 people (GHSL lower bound), 1 new since 2015<br/>fire 3,879/1000km2/yr, 722 fronts (97% transhumance, 501 ≥150 km)<br/>clearing since 2020 1.58 km2; cropland 0.0→0.0%; mining reported/candidates/top5% 0/0/7<br/>boundary: Bo River on the SW/N (92 km); Nahr al Jur on the NE/SE (44 km); Islands (1930s sheet) on the E/SE (6 km); Rapids (1930s sheet) on the NE (4 km) — 28% follows no nameable feature]]></description><styleUrl>#community</styleUrl><Polygon><outerBoundaryIs><LinearRing><coordinates>27.86812,6.66575,0 27.90436,6.66575,0 27.90436,6.64770,0 27.94060,6.64770,0 27.94060,6.61160,0 27.95872,6.61160,0 27.95872,6.57550,0 27.94060,6.57550,0 27.94060,6.53940,0 27.92248,6.53940,0 27.92248,6.46721,0 27.86812,6.46721,0 27.86812,6.44917,0 27.85000,6.44917,0 27.85000,6.43112,0 27.83188,6.43112,0 27.83188,6.41308,0 27.81376,6.41308,0 27.81376,6.37699,0 27.90436,6.37699,0 27.90436,6.41308,0 27.92248,6.41308,0 27.92248,6.35895,0 27.90436,6.35895,0 27.90436,6.32287,0 27.88624,6.32287,0 27.88624,6.30483,0 27.86812,6.30483,0 27.86812,6.28679,0 27.85000,6.28679,0 27.85000,6.25071,0 27.83188,6.25071,0 27.83188,6.23267,0 27.85000,6.23267,0 27.85000,6.21464,0 27.83188,6.21464,0 27.83188,6.19660,0 27.79564,6.19660,0 27.79564,6.21464,0 27.72315,6.21464,0 27.72315,6.23267,0 27.70503,6.23267,0 27.70503,6.25071,0 27.61443,6.25071,0 27.61443,6.21464,0 27.56007,6.21464,0 27.56007,6.28679,0 27.52383,6.28679,0 27.52383,6.26875,0 27.50571,6.26875,0 27.50571,6.25071,0 27.48759,6.25071,0 27.48759,6.23267,0 27.46947,6.23267,0 27.46947,6.14249,0 27.45135,6.14249,0 27.45135,6.19660,0 27.43323,6.19660,0 27.43323,6.21464,0 27.45135,6.21464,0 27.45135,6.30483,0 27.56007,6.30483,0 27.56007,6.32287,0 27.57819,6.32287,0 27.57819,6.35895,0 27.59631,6.35895,0 27.59631,6.37699,0 27.65067,6.37699,0 27.65067,6.43112,0 27.66879,6.43112,0 27.66879,6.44917,0 27.68691,6.44917,0 27.68691,6.46721,0 27.75939,6.46721,0 27.75939,6.50330,0 27.74127,6.50330,0 27.74127,6.55745,0 27.75939,6.55745,0 27.75939,6.57550,0 27.79564,6.57550,0 27.79564,6.55745,0 27.83188,6.55745,0 27.83188,6.61160,0 27.85000,6.61160,0 27.85000,6.64770,0 27.86812,6.64770,0 27.86812,6.66575,0</coordinates></LinearRing></outerBoundaryIs></Polygon></Placemark><Placemark><name>SE unit 3463 (222,800 ha, 2,671 ppl)</name><description><![CDATA[community · 222,800 ha · 19 clusters, 2,671 people (GHSL lower bound), 0 new since 2015<br/>fire 4,977/1000km2/yr, 1063 fronts (98% transhumance, 708 ≥150 km)<br/>clearing since 2020 0.66 km2; cropland 0.0→0.0%; mining reported/candidates/top5% 0/2/19<br/>boundary: Bo River on the NE/N (32 km); Nahr al Jur on the E/NE (26 km); R. Imatima (1930s sheet) on the W (24 km); unnamed river (order 4) on the NW/W (14 km); R. Duma (1930s sheet) on the S/SE (14 km); R. Yabo (1930s sheet) on the SE/E (10 km) — 62% follows no nameable feature]]></description><styleUrl>#community</styleUrl><Polygon><outerBoundaryIs><LinearRing><coordinates>27.52383,6.28679,0 27.56007,6.28679,0 27.56007,6.21464,0 27.61443,6.21464,0 27.61443,6.25071,0 27.70503,6.25071,0 27.70503,6.23267,0 27.72315,6.23267,0 27.72315,6.21464,0 27.79564,6.21464,0 27.79564,6.19660,0 27.81376,6.19660,0 27.81376,6.17856,0 27.79564,6.17856,0 27.79564,6.14249,0 27.81376,6.14249,0 27.81376,6.12446,0 27.72315,6.12446,0 27.72315,6.10643,0 27.83188,6.10643,0 27.83188,6.07036,0 27.81376,6.07036,0 27.81376,5.99824,0 27.77751,5.99824,0 27.77751,5.98021,0 27.74127,5.98021,0 27.74127,5.99824,0 27.72315,5.99824,0 27.72315,6.01627,0 27.70503,6.01627,0 27.70503,6.03430,0 27.63255,6.03430,0 27.63255,6.01627,0 27.68691,6.01627,0 27.68691,5.99824,0 27.70503,5.99824,0 27.70503,5.98021,0 27.72315,5.98021,0 27.72315,5.94415,0 27.63255,5.94415,0 27.63255,5.85402,0 27.59631,5.85402,0 27.59631,5.87204,0 27.57819,5.87204,0 27.57819,5.89007,0 27.54195,5.89007,0 27.54195,5.99824,0 27.52383,5.99824,0 27.52383,5.94415,0 27.45135,5.94415,0 27.45135,5.87204,0 27.43323,5.87204,0 27.43323,5.85402,0 27.37887,5.85402,0 27.37887,5.94415,0 27.36075,5.94415,0 27.36075,5.87204,0 27.34263,5.87204,0 27.34263,5.89007,0 27.30639,5.89007,0 27.30639,5.90810,0 27.28827,5.90810,0 27.28827,5.94415,0 27.23391,5.94415,0 27.23391,5.96218,0 27.21579,5.96218,0 27.21579,6.01627,0 27.37887,6.01627,0 27.37887,6.03430,0 27.21579,6.03430,0 27.21579,6.21464,0 27.19767,6.21464,0 27.19767,6.26875,0 27.34263,6.26875,0 27.34263,6.25071,0 27.43323,6.25071,0 27.43323,6.23267,0 27.45135,6.23267,0 27.45135,6.21464,0 27.43323,6.21464,0 27.43323,6.19660,0 27.45135,6.19660,0 27.45135,6.14249,0 27.46947,6.14249,0 27.46947,6.23267,0 27.48759,6.23267,0 27.48759,6.25071,0 27.50571,6.25071,0 27.50571,6.26875,0 27.52383,6.26875,0 27.52383,6.28679,0</coordinates></LinearRing></outerBoundaryIs></Polygon></Placemark><Placemark><name>S unit 3462 (3,600 ha, 115 ppl)</name><description><![CDATA[community · 3,600 ha · 1 clusters, 115 people (GHSL lower bound), 0 new since 2015<br/>fire 0/1000km2/yr, 220 fronts (100% transhumance, 152 ≥150 km)<br/>clearing since 2020 0.06 km2; cropland 0.0→0.0%; mining reported/candidates/top5% 0/0/0<br/>boundary: R. Imatima (1930s sheet) on the W (4 km) — 78% follows no nameable feature]]></description><styleUrl>#community</styleUrl><Polygon><outerBoundaryIs><LinearRing><coordinates>27.21579,6.03430,0 27.37887,6.03430,0 27.37887,6.01627,0 27.21579,6.01627,0 27.21579,6.03430,0</coordinates></LinearRing></outerBoundaryIs></Polygon></Placemark></Document></kml>