<?xml version="1.0" encoding="UTF-8"?><kml xmlns="http://www.opengis.net/kml/2.2"><Document><Style id="core"><LineStyle><color>ff00a000</color><width>1.5</width></LineStyle><PolyStyle><color>7f00a000</color></PolyStyle></Style><Style id="wilderness"><LineStyle><color>ff00d0d0</color><width>1.5</width></LineStyle><PolyStyle><color>7f00d0d0</color></PolyStyle></Style><Style id="community"><LineStyle><color>ff0080ff</color><width>1.5</width></LineStyle><PolyStyle><color>7f0080ff</color></PolyStyle></Style><Style id="corridor"><LineStyle><color>ffd000d0</color><width>1.5</width></LineStyle><PolyStyle><color>7fd000d0</color></PolyStyle></Style><Placemark><name>NE Nahr (144,400 ha, 140,214 ppl)</name><description><![CDATA[community · 144,400 ha · 34 clusters, 140,214 people (GHSL lower bound), 9 new since 2015<br/>fire 4,772/1000km2/yr, 1719 fronts (98% transhumance, 1137 ≥150 km)<br/>clearing since 2020 0.36 km2; cropland 0.01→0.82%; mining reported/candidates/top5% 0/1/28<br/>boundary: Nahr al Jur on the NE/SE (46 km); Busseri River on the S/SE (32 km); K. Megwalima (1930s sheet) on the S/SW (20 km); R. Asetti (1930s sheet) on the N (16 km); K. Ngoko (1930s sheet) on the SW/W (10 km); unnamed river (order 4) on the W/NE (8 km) — 14% follows no nameable feature]]></description><styleUrl>#community</styleUrl><Polygon><outerBoundaryIs><LinearRing><coordinates>27.85000,8.09406,0 27.86812,8.09406,0 27.86812,7.98542,0 27.88624,7.98542,0 27.88624,7.96732,0 27.90436,7.96732,0 27.90436,7.98542,0 27.94060,7.98542,0 27.94060,8.09406,0 28.04932,8.09406,0 28.04932,8.07596,0 28.03120,8.07596,0 28.03120,8.03974,0 28.01308,8.03974,0 28.01308,8.00353,0 27.99496,8.00353,0 27.99496,7.98542,0 28.03120,7.98542,0 28.03120,7.94922,0 28.01308,7.94922,0 28.01308,7.87681,0 27.99496,7.87681,0 27.99496,7.82251,0 28.01308,7.82251,0 28.01308,7.80442,0 28.03120,7.80442,0 28.03120,7.78632,0 28.01308,7.78632,0 28.01308,7.69585,0 28.03120,7.69585,0 28.03120,7.67776,0 28.04932,7.67776,0 28.04932,7.65967,0 28.03120,7.65967,0 28.03120,7.60540,0 28.01308,7.60540,0 28.01308,7.58731,0 27.99496,7.58731,0 27.99496,7.55113,0 27.97684,7.55113,0 27.97684,7.49688,0 27.90436,7.49688,0 27.90436,7.47879,0 27.86812,7.47879,0 27.86812,7.46071,0 27.85000,7.46071,0 27.85000,7.49688,0 27.83188,7.49688,0 27.83188,7.56922,0 27.85000,7.56922,0 27.85000,7.58731,0 27.83188,7.58731,0 27.83188,7.60540,0 27.85000,7.60540,0 27.85000,7.65967,0 27.79564,7.65967,0 27.79564,7.69585,0 27.77751,7.69585,0 27.77751,7.75013,0 27.75939,7.75013,0 27.75939,7.76822,0 27.74127,7.76822,0 27.74127,7.80442,0 27.72315,7.80442,0 27.72315,7.89491,0 27.74127,7.89491,0 27.74127,7.91301,0 27.77751,7.91301,0 27.77751,7.89491,0 27.79564,7.89491,0 27.79564,7.91301,0 27.83188,7.91301,0 27.83188,7.98542,0 27.85000,7.98542,0 27.85000,8.09406,0</coordinates></LinearRing></outerBoundaryIs></Polygon></Placemark><Placemark><name>NE Busseri (246,800 ha, 40,898 ppl)</name><description><![CDATA[community · 246,800 ha · 22 clusters, 40,898 people (GHSL lower bound), 3 new since 2015<br/>fire 3,201/1000km2/yr, 2003 fronts (98% transhumance, 1141 ≥150 km)<br/>clearing since 2020 0.16 km2; cropland 0.0→0.65%; mining reported/candidates/top5% 0/1/13<br/>boundary: Nahr al Jur on the E/SE (36 km); unnamed river (order 4) on the W/NW (28 km); R. Pongo (1930s sheet) on the NW/N (26 km); 1930s Boundary (Northern) (Central) on the N (24 km); R. K. (1930s sheet) on the SW/W (20 km); R. Asetti (1930s sheet) on the S/SE (10 km) — 58% follows no nameable feature]]></description><styleUrl>#community</styleUrl><Polygon><outerBoundaryIs><LinearRing><coordinates>27.63255,8.63771,0 27.77751,8.63771,0 27.77751,8.61958,0 27.79564,8.61958,0 27.79564,8.60144,0 27.81376,8.60144,0 27.81376,8.56518,0 27.72315,8.56518,0 27.72315,8.54705,0 27.81376,8.54705,0 27.81376,8.52892,0 27.79564,8.52892,0 27.79564,8.47454,0 27.77751,8.47454,0 27.77751,8.45641,0 27.81376,8.45641,0 27.81376,8.43829,0 27.90436,8.43829,0 27.90436,8.42016,0 28.04932,8.42016,0 28.04932,8.40204,0 28.03120,8.40204,0 28.03120,8.38392,0 27.90436,8.38392,0 27.90436,8.36579,0 28.03120,8.36579,0 28.03120,8.29332,0 27.90436,8.29332,0 27.90436,8.27520,0 28.03120,8.27520,0 28.03120,8.23897,0 28.04932,8.23897,0 28.04932,8.20274,0 27.90436,8.20274,0 27.90436,8.18462,0 27.85000,8.18462,0 27.85000,8.16651,0 28.04932,8.16651,0 28.04932,8.09406,0 27.94060,8.09406,0 27.94060,7.98542,0 27.90436,7.98542,0 27.90436,7.96732,0 27.88624,7.96732,0 27.88624,7.98542,0 27.86812,7.98542,0 27.86812,8.09406,0 27.85000,8.09406,0 27.85000,7.98542,0 27.83188,7.98542,0 27.83188,7.91301,0 27.79564,7.91301,0 27.79564,7.89491,0 27.77751,7.89491,0 27.77751,7.98542,0 27.75939,7.98542,0 27.75939,8.00353,0 27.74127,8.00353,0 27.74127,8.07596,0 27.66879,8.07596,0 27.66879,8.09406,0 27.65067,8.09406,0 27.65067,8.20274,0 27.63255,8.20274,0 27.63255,8.22085,0 27.61443,8.22085,0 27.61443,8.20274,0 27.57819,8.20274,0 27.57819,8.25708,0 27.56007,8.25708,0 27.56007,8.32955,0 27.54195,8.32955,0 27.54195,8.34767,0 27.56007,8.34767,0 27.56007,8.36579,0 27.65067,8.36579,0 27.65067,8.38392,0 27.52383,8.38392,0 27.52383,8.42016,0 27.54195,8.42016,0 27.54195,8.45641,0 27.57819,8.45641,0 27.57819,8.51079,0 27.59631,8.51079,0 27.59631,8.56518,0 27.61443,8.56518,0 27.61443,8.61958,0 27.63255,8.61958,0 27.63255,8.63771,0</coordinates></LinearRing></outerBoundaryIs></Polygon></Placemark><Placemark><name>S Tambura (139,200 ha, 36,615 ppl)</name><description><![CDATA[community · 139,200 ha · 20 clusters, 36,615 people (GHSL lower bound), 0 new since 2015<br/>fire 4,709/1000km2/yr, 1292 fronts (98% transhumance, 817 ≥150 km)<br/>clearing since 2020 2.32 km2; cropland 0.0→0.01%; mining reported/candidates/top5% 1/0/14<br/>boundary: unnamed river (order 4) on the S/E (44 km); Tambura - Yubo Road on the W/NW (28 km); K. Barange (1930s sheet) on the N/NE (12 km); L. Mbanga (1930s sheet) on the E/SE (12 km); CAF border on the SW/W (8 km); primary road on the SW/W (8 km) — 16% follows no nameable feature]]></description><styleUrl>#community</styleUrl><Polygon><outerBoundaryIs><LinearRing><coordinates>27.66879,5.70983,0 27.70503,5.70983,0 27.70503,5.69181,0 27.72315,5.69181,0 27.72315,5.65577,0 27.74127,5.65577,0 27.74127,5.61974,0 27.72315,5.61974,0 27.72315,5.58370,0 27.70503,5.58370,0 27.70503,5.56569,0 27.72315,5.56569,0 27.72315,5.54767,0 27.70503,5.54767,0 27.70503,5.49362,0 27.68691,5.49362,0 27.68691,5.47561,0 27.65067,5.47561,0 27.65067,5.43958,0 27.61443,5.43958,0 27.61443,5.42157,0 27.59631,5.42157,0 27.59631,5.40356,0 27.57819,5.40356,0 27.57819,5.36754,0 27.56007,5.36754,0 27.56007,5.34953,0 27.48759,5.34953,0 27.48759,5.33152,0 27.37887,5.33152,0 27.37887,5.31351,0 27.36075,5.31351,0 27.36075,5.29550,0 27.34263,5.29550,0 27.34263,5.27749,0 27.30639,5.27749,0 27.30639,5.25948,0 27.27015,5.25948,0 27.27015,5.29550,0 27.17954,5.29550,0 27.17954,5.34953,0 27.19767,5.34953,0 27.19767,5.36754,0 27.21579,5.36754,0 27.21579,5.38555,0 27.23391,5.38555,0 27.23391,5.40356,0 27.25203,5.40356,0 27.25203,5.42157,0 27.32451,5.42157,0 27.32451,5.43958,0 27.34263,5.43958,0 27.34263,5.47561,0 27.36075,5.47561,0 27.36075,5.49362,0 27.37887,5.49362,0 27.37887,5.52965,0 27.39699,5.52965,0 27.39699,5.54767,0 27.41511,5.54767,0 27.41511,5.56569,0 27.45135,5.56569,0 27.45135,5.60172,0 27.46947,5.60172,0 27.46947,5.63776,0 27.48759,5.63776,0 27.48759,5.69181,0 27.50571,5.69181,0 27.50571,5.67379,0 27.57819,5.67379,0 27.57819,5.65577,0 27.65067,5.65577,0 27.65067,5.69181,0 27.66879,5.69181,0 27.66879,5.70983,0</coordinates></LinearRing></outerBoundaryIs></Polygon></Placemark><Placemark><name>E Ibba (146,800 ha, 17,578 ppl)</name><description><![CDATA[community · 146,800 ha · 29 clusters, 17,578 people (GHSL lower bound), 2 new since 2015<br/>fire 3,991/1000km2/yr, 1735 fronts (98% transhumance, 1038 ≥150 km)<br/>clearing since 2020 0.45 km2; cropland 0.01→0.28%; mining reported/candidates/top5% 0/1/11<br/>boundary: Pools (1930s sheet) on the NE/S (28 km); Nahr al Jur on the W (26 km); Ibba on the E (18 km); A. Lingi (1930s sheet) on the W/SW (16 km); K. Nuduk (1930s sheet) on the W/NW (12 km); K. Fagol (1930s sheet) on the NE (10 km) — 38% follows no nameable feature]]></description><styleUrl>#community</styleUrl><Polygon><outerBoundaryIs><LinearRing><coordinates>28.53857,7.56922,0 28.61105,7.56922,0 28.61105,7.55113,0 28.59293,7.55113,0 28.59293,7.53305,0 28.61105,7.53305,0 28.61105,7.51496,0 28.70165,7.51496,0 28.70165,7.46071,0 28.73789,7.46071,0 28.73789,7.44263,0 28.75601,7.44263,0 28.75601,7.42455,0 28.77413,7.42455,0 28.77413,7.33415,0 28.75601,7.33415,0 28.75601,7.29800,0 28.71977,7.29800,0 28.71977,7.27992,0 28.68353,7.27992,0 28.68353,7.26185,0 28.64729,7.26185,0 28.64729,7.27992,0 28.55669,7.27992,0 28.55669,7.31607,0 28.50233,7.31607,0 28.50233,7.33415,0 28.48421,7.33415,0 28.48421,7.35223,0 28.42985,7.35223,0 28.42985,7.33415,0 28.35736,7.33415,0 28.35736,7.31607,0 28.33924,7.31607,0 28.33924,7.29800,0 28.28488,7.29800,0 28.28488,7.27992,0 28.19428,7.27992,0 28.19428,7.29800,0 28.08556,7.29800,0 28.08556,7.31607,0 28.10368,7.31607,0 28.10368,7.35223,0 28.12180,7.35223,0 28.12180,7.38839,0 28.10368,7.38839,0 28.10368,7.40647,0 28.12180,7.40647,0 28.12180,7.44263,0 28.13992,7.44263,0 28.13992,7.47879,0 28.15804,7.47879,0 28.15804,7.49688,0 28.13992,7.49688,0 28.13992,7.51496,0 28.19428,7.51496,0 28.19428,7.47879,0 28.21240,7.47879,0 28.21240,7.46071,0 28.23052,7.46071,0 28.23052,7.47879,0 28.35736,7.47879,0 28.35736,7.44263,0 28.44797,7.44263,0 28.44797,7.42455,0 28.48421,7.42455,0 28.48421,7.46071,0 28.50233,7.46071,0 28.50233,7.51496,0 28.53857,7.51496,0 28.53857,7.56922,0</coordinates></LinearRing></outerBoundaryIs></Polygon></Placemark><Placemark><name>S Obo (26,400 ha, 17,518 ppl)</name><description><![CDATA[community · 26,400 ha · 8 clusters, 17,518 people (GHSL lower bound), 0 new since 2015<br/>fire 2,044/1000km2/yr, 381 fronts (97% transhumance, 224 ≥150 km)<br/>clearing since 2020 13.49 km2; cropland 0.0→0.0%; mining reported/candidates/top5% 1/0/0<br/>boundary: primary road on the S/SE (22 km); Gari (1930s sheet) on the NE/E (18 km); Ouarra River on the NW/N (14 km); tertiary road on the NW (8 km) — 16% follows no nameable feature]]></description><styleUrl>#community</styleUrl><Polygon><outerBoundaryIs><LinearRing><coordinates>26.45473,5.49362,0 26.47285,5.49362,0 26.47285,5.43958,0 26.49097,5.43958,0 26.49097,5.42157,0 26.50909,5.42157,0 26.50909,5.43958,0 26.52721,5.43958,0 26.52721,5.45760,0 26.54533,5.45760,0 26.54533,5.43958,0 26.58157,5.43958,0 26.58157,5.40356,0 26.59970,5.40356,0 26.59970,5.27749,0 26.58157,5.27749,0 26.58157,5.25948,0 26.59970,5.25948,0 26.59970,5.24148,0 26.61782,5.24148,0 26.61782,5.22347,0 26.59970,5.22347,0 26.59970,5.20546,0 26.54533,5.20546,0 26.54533,5.31351,0 26.52721,5.31351,0 26.52721,5.33152,0 26.50909,5.33152,0 26.50909,5.36754,0 26.45473,5.36754,0 26.45473,5.38555,0 26.43661,5.38555,0 26.43661,5.40356,0 26.45473,5.40356,0 26.45473,5.49362,0</coordinates></LinearRing></outerBoundaryIs></Polygon></Placemark><Placemark><name>E Ibba (135,600 ha, 8,448 ppl)</name><description><![CDATA[community · 135,600 ha · 28 clusters, 8,448 people (GHSL lower bound), 1 new since 2015<br/>fire 4,326/1000km2/yr, 1666 fronts (99% transhumance, 1020 ≥150 km)<br/>clearing since 2020 0.34 km2; cropland 0.0→0.02%; mining reported/candidates/top5% 0/1/16<br/>boundary: Ibba on the E/SE (22 km); K. Ateir (1930s sheet) on the W/SW (20 km); A. Lingi (1930s sheet) on the NW/W (18 km); Nahr al Jur on the W (16 km); Pools (1930s sheet) on the NE (4 km); unnamed river (order 4) on the E (4 km) — 47% follows no nameable feature]]></description><styleUrl>#community</styleUrl><Polygon><outerBoundaryIs><LinearRing><coordinates>28.42985,7.35223,0 28.48421,7.35223,0 28.48421,7.33415,0 28.50233,7.33415,0 28.50233,7.31607,0 28.55669,7.31607,0 28.55669,7.27992,0 28.64729,7.27992,0 28.64729,7.26185,0 28.66541,7.26185,0 28.66541,7.22570,0 28.64729,7.22570,0 28.64729,7.15341,0 28.62917,7.15341,0 28.62917,7.13534,0 28.61105,7.13534,0 28.61105,7.11727,0 28.53857,7.11727,0 28.53857,7.02693,0 28.52045,7.02693,0 28.52045,7.00887,0 28.50233,7.00887,0 28.50233,7.04500,0 28.48421,7.04500,0 28.48421,7.06306,0 28.37548,7.06306,0 28.37548,7.08113,0 28.32112,7.08113,0 28.32112,7.09920,0 28.37548,7.09920,0 28.37548,7.11727,0 28.26676,7.11727,0 28.26676,7.13534,0 28.23052,7.13534,0 28.23052,7.15341,0 28.17616,7.15341,0 28.17616,7.17148,0 28.10368,7.17148,0 28.10368,7.18955,0 28.08556,7.18955,0 28.08556,7.20762,0 27.99496,7.20762,0 27.99496,7.22570,0 28.08556,7.22570,0 28.08556,7.29800,0 28.19428,7.29800,0 28.19428,7.27992,0 28.28488,7.27992,0 28.28488,7.29800,0 28.33924,7.29800,0 28.33924,7.31607,0 28.35736,7.31607,0 28.35736,7.33415,0 28.42985,7.33415,0 28.42985,7.35223,0</coordinates></LinearRing></outerBoundaryIs></Polygon></Placemark><Placemark><name>NE Busseri (4,400 ha, 4,456 ppl)</name><description><![CDATA[community · 4,400 ha · 3 clusters, 4,456 people (GHSL lower bound), 2 new since 2015<br/>fire 0/1000km2/yr, 243 fronts (100% transhumance, 171 ≥150 km)<br/>clearing since 2020 0.0 km2; cropland 0.0→2.13%; mining reported/candidates/top5% 0/0/0<br/>boundary: Nahr al Jur on the E (4 km) — 82% follows no nameable feature]]></description><styleUrl>#community</styleUrl><Polygon><outerBoundaryIs><LinearRing><coordinates>27.85000,8.18462,0 28.04932,8.18462,0 28.04932,8.16651,0 27.85000,8.16651,0 27.85000,8.18462,0</coordinates></LinearRing></outerBoundaryIs></Polygon></Placemark><Placemark><name>NE unit 20 (139,600 ha, 3,642 ppl)</name><description><![CDATA[community · 139,600 ha · 29 clusters, 3,642 people (GHSL lower bound), 0 new since 2015<br/>fire 4,995/1000km2/yr, 1609 fronts (98% transhumance, 1031 ≥150 km)<br/>clearing since 2020 0.37 km2; cropland 0.0→0.0%; mining reported/candidates/top5% 0/1/16<br/>boundary: K Akali (1930s sheet) on the SE/S (24 km); unnamed river (order 4) on the N/SW (22 km); R.Keetar (1930s sheet) on the W/NW (20 km); R. K. (1930s sheet) on the NE (16 km); Gandu (1930s sheet) on the SW (12 km); K. Relleh (1930s sheet) on the E (10 km) — 20% follows no nameable feature]]></description><styleUrl>#community</styleUrl><Polygon><outerBoundaryIs><LinearRing><coordinates>27.61443,8.22085,0 27.63255,8.22085,0 27.63255,8.20274,0 27.65067,8.20274,0 27.65067,8.09406,0 27.66879,8.09406,0 27.66879,8.07596,0 27.74127,8.07596,0 27.74127,8.00353,0 27.75939,8.00353,0 27.75939,7.98542,0 27.77751,7.98542,0 27.77751,7.91301,0 27.74127,7.91301,0 27.74127,7.89491,0 27.70503,7.89491,0 27.70503,7.91301,0 27.68691,7.91301,0 27.68691,7.93111,0 27.66879,7.93111,0 27.66879,7.91301,0 27.61443,7.91301,0 27.61443,7.89491,0 27.59631,7.89491,0 27.59631,7.87681,0 27.56007,7.87681,0 27.56007,7.85871,0 27.54195,7.85871,0 27.54195,7.84061,0 27.52383,7.84061,0 27.52383,7.82251,0 27.39699,7.82251,0 27.39699,7.85871,0 27.37887,7.85871,0 27.37887,7.87681,0 27.36075,7.87681,0 27.36075,7.89491,0 27.37887,7.89491,0 27.37887,7.91301,0 27.46947,7.91301,0 27.46947,7.93111,0 27.37887,7.93111,0 27.37887,7.94922,0 27.30639,7.94922,0 27.30639,7.96732,0 27.25203,7.96732,0 27.25203,8.03974,0 27.27015,8.03974,0 27.27015,8.05785,0 27.30639,8.05785,0 27.30639,8.07596,0 27.39699,8.07596,0 27.39699,8.11217,0 27.41511,8.11217,0 27.41511,8.13029,0 27.46947,8.13029,0 27.46947,8.14840,0 27.52383,8.14840,0 27.52383,8.16651,0 27.54195,8.16651,0 27.54195,8.18462,0 27.56007,8.18462,0 27.56007,8.20274,0 27.61443,8.20274,0 27.61443,8.22085,0</coordinates></LinearRing></outerBoundaryIs></Polygon></Placemark><Placemark><name>S Senekpuro (110,000 ha, 3,498 ppl)</name><description><![CDATA[community · 110,000 ha · 16 clusters, 3,498 people (GHSL lower bound), 0 new since 2015<br/>fire 3,532/1000km2/yr, 1223 fronts (99% transhumance, 794 ≥150 km)<br/>clearing since 2020 13.98 km2; cropland 0.0→0.02%; mining reported/candidates/top5% 1/0/16<br/>boundary: Tambura - Yubo Road on the SW/S (24 km); R. Chamika (1930s sheet) on the NE/N (18 km); R. Yangali (1930s sheet) on the NE/E (14 km); K. Barange (1930s sheet) on the E/SE (14 km); CAF border on the SW/W (14 km); R. Duma (1930s sheet) on the NE (12 km) — 8% follows no nameable feature]]></description><styleUrl>#community</styleUrl><Polygon><outerBoundaryIs><LinearRing><coordinates>27.63255,5.94415,0 27.70503,5.94415,0 27.70503,5.89007,0 27.68691,5.89007,0 27.68691,5.83599,0 27.66879,5.83599,0 27.66879,5.76390,0 27.63255,5.76390,0 27.63255,5.74588,0 27.61443,5.74588,0 27.61443,5.70983,0 27.59631,5.70983,0 27.59631,5.67379,0 27.50571,5.67379,0 27.50571,5.69181,0 27.48759,5.69181,0 27.48759,5.63776,0 27.46947,5.63776,0 27.46947,5.60172,0 27.45135,5.60172,0 27.45135,5.56569,0 27.41511,5.56569,0 27.41511,5.54767,0 27.39699,5.54767,0 27.39699,5.52965,0 27.37887,5.52965,0 27.37887,5.49362,0 27.36075,5.49362,0 27.36075,5.47561,0 27.34263,5.47561,0 27.34263,5.43958,0 27.32451,5.43958,0 27.32451,5.42157,0 27.23391,5.42157,0 27.23391,5.56569,0 27.21579,5.56569,0 27.21579,5.63776,0 27.19767,5.63776,0 27.19767,5.65577,0 27.25203,5.65577,0 27.25203,5.67379,0 27.28827,5.67379,0 27.28827,5.69181,0 27.30639,5.69181,0 27.30639,5.70983,0 27.32451,5.70983,0 27.32451,5.72785,0 27.34263,5.72785,0 27.34263,5.74588,0 27.36075,5.74588,0 27.36075,5.76390,0 27.39699,5.76390,0 27.39699,5.78192,0 27.41511,5.78192,0 27.41511,5.76390,0 27.45135,5.76390,0 27.45135,5.78192,0 27.50571,5.78192,0 27.50571,5.79994,0 27.56007,5.79994,0 27.56007,5.81797,0 27.57819,5.81797,0 27.57819,5.83599,0 27.61443,5.83599,0 27.61443,5.85402,0 27.63255,5.85402,0 27.63255,5.94415,0</coordinates></LinearRing></outerBoundaryIs></Polygon></Placemark><Placemark><name>SE Nahr (118,800 ha, 3,057 ppl)</name><description><![CDATA[community · 118,800 ha · 5 clusters, 3,057 people (GHSL lower bound), 1 new since 2015<br/>fire 3,879/1000km2/yr, 722 fronts (97% transhumance, 501 ≥150 km)<br/>clearing since 2020 1.58 km2; cropland 0.0→0.0%; mining reported/candidates/top5% 0/0/7<br/>boundary: Bo River on the SW/N (92 km); Nahr al Jur on the NE/SE (44 km); Islands (1930s sheet) on the E/SE (6 km); Rapids (1930s sheet) on the NE (4 km) — 28% follows no nameable feature]]></description><styleUrl>#community</styleUrl><Polygon><outerBoundaryIs><LinearRing><coordinates>27.86812,6.66575,0 27.90436,6.66575,0 27.90436,6.64770,0 27.94060,6.64770,0 27.94060,6.61160,0 27.95872,6.61160,0 27.95872,6.57550,0 27.94060,6.57550,0 27.94060,6.53940,0 27.92248,6.53940,0 27.92248,6.46721,0 27.86812,6.46721,0 27.86812,6.44917,0 27.85000,6.44917,0 27.85000,6.43112,0 27.83188,6.43112,0 27.83188,6.41308,0 27.81376,6.41308,0 27.81376,6.37699,0 27.90436,6.37699,0 27.90436,6.41308,0 27.92248,6.41308,0 27.92248,6.35895,0 27.90436,6.35895,0 27.90436,6.32287,0 27.88624,6.32287,0 27.88624,6.30483,0 27.86812,6.30483,0 27.86812,6.28679,0 27.85000,6.28679,0 27.85000,6.25071,0 27.83188,6.25071,0 27.83188,6.23267,0 27.85000,6.23267,0 27.85000,6.21464,0 27.83188,6.21464,0 27.83188,6.19660,0 27.79564,6.19660,0 27.79564,6.21464,0 27.72315,6.21464,0 27.72315,6.23267,0 27.70503,6.23267,0 27.70503,6.25071,0 27.61443,6.25071,0 27.61443,6.21464,0 27.56007,6.21464,0 27.56007,6.28679,0 27.52383,6.28679,0 27.52383,6.26875,0 27.50571,6.26875,0 27.50571,6.25071,0 27.48759,6.25071,0 27.48759,6.23267,0 27.46947,6.23267,0 27.46947,6.14249,0 27.45135,6.14249,0 27.45135,6.19660,0 27.43323,6.19660,0 27.43323,6.21464,0 27.45135,6.21464,0 27.45135,6.30483,0 27.56007,6.30483,0 27.56007,6.32287,0 27.57819,6.32287,0 27.57819,6.35895,0 27.59631,6.35895,0 27.59631,6.37699,0 27.65067,6.37699,0 27.65067,6.43112,0 27.66879,6.43112,0 27.66879,6.44917,0 27.68691,6.44917,0 27.68691,6.46721,0 27.75939,6.46721,0 27.75939,6.50330,0 27.74127,6.50330,0 27.74127,6.55745,0 27.75939,6.55745,0 27.75939,6.57550,0 27.79564,6.57550,0 27.79564,6.55745,0 27.83188,6.55745,0 27.83188,6.61160,0 27.85000,6.61160,0 27.85000,6.64770,0 27.86812,6.64770,0 27.86812,6.66575,0</coordinates></LinearRing></outerBoundaryIs></Polygon></Placemark><Placemark><name>NE Nahr (148,400 ha, 2,339 ppl)</name><description><![CDATA[community · 148,400 ha · 39 clusters, 2,339 people (GHSL lower bound), 1 new since 2015<br/>fire 3,254/1000km2/yr, 1536 fronts (98% transhumance, 888 ≥150 km)<br/>clearing since 2020 0.25 km2; cropland 0.0→0.16%; mining reported/candidates/top5% 0/1/7<br/>boundary: Pools (1930s sheet) on the SE/E (22 km); 1930s Sub-tribal Boundary on the NE/N (20 km); Nahr al Jur on the W/SW (18 km); 1930s W. District Boundary on the NW/N (16 km); K. Nuduk (1930s sheet) on the SW/W (16 km); K. Fagol (1930s sheet) on the E/SE (12 km) — 51% follows no nameable feature]]></description><styleUrl>#community</styleUrl><Polygon><outerBoundaryIs><LinearRing><coordinates>28.10368,7.80442,0 28.17616,7.80442,0 28.17616,7.73203,0 28.19428,7.73203,0 28.19428,7.80442,0 28.28488,7.80442,0 28.28488,7.76822,0 28.30300,7.76822,0 28.30300,7.75013,0 28.33924,7.75013,0 28.33924,7.76822,0 28.35736,7.76822,0 28.35736,7.64158,0 28.37548,7.64158,0 28.37548,7.78632,0 28.41173,7.78632,0 28.41173,7.80442,0 28.44797,7.80442,0 28.44797,7.64158,0 28.59293,7.64158,0 28.59293,7.60540,0 28.61105,7.60540,0 28.61105,7.56922,0 28.53857,7.56922,0 28.53857,7.51496,0 28.50233,7.51496,0 28.50233,7.46071,0 28.48421,7.46071,0 28.48421,7.42455,0 28.44797,7.42455,0 28.44797,7.44263,0 28.35736,7.44263,0 28.35736,7.47879,0 28.23052,7.47879,0 28.23052,7.46071,0 28.21240,7.46071,0 28.21240,7.47879,0 28.19428,7.47879,0 28.19428,7.51496,0 28.13992,7.51496,0 28.13992,7.58731,0 28.15804,7.58731,0 28.15804,7.62349,0 28.17616,7.62349,0 28.17616,7.69585,0 28.04932,7.69585,0 28.04932,7.67776,0 28.03120,7.67776,0 28.03120,7.69585,0 28.01308,7.69585,0 28.01308,7.76822,0 28.10368,7.76822,0 28.10368,7.80442,0</coordinates></LinearRing></outerBoundaryIs></Polygon></Placemark><Placemark><name>SE unit 3498 (222,400 ha, 2,205 ppl)</name><description><![CDATA[community · 222,400 ha · 18 clusters, 2,205 people (GHSL lower bound), 0 new since 2015<br/>fire 4,986/1000km2/yr, 1063 fronts (98% transhumance, 708 ≥150 km)<br/>clearing since 2020 0.66 km2; cropland 0.0→0.0%; mining reported/candidates/top5% 0/2/19<br/>boundary: Bo River on the NE/N (32 km); Nahr al Jur on the E/NE (26 km); R. Imatima (1930s sheet) on the W (24 km); unnamed river (order 4) on the NW/W (14 km); R. Duma (1930s sheet) on the S/SE (14 km); R. Yabo (1930s sheet) on the SE/E (10 km) — 63% follows no nameable feature]]></description><styleUrl>#community</styleUrl><Polygon><outerBoundaryIs><LinearRing><coordinates>27.52383,6.28679,0 27.56007,6.28679,0 27.56007,6.21464,0 27.61443,6.21464,0 27.61443,6.25071,0 27.70503,6.25071,0 27.70503,6.23267,0 27.72315,6.23267,0 27.72315,6.21464,0 27.79564,6.21464,0 27.79564,6.19660,0 27.81376,6.19660,0 27.81376,6.17856,0 27.79564,6.17856,0 27.79564,6.14249,0 27.81376,6.14249,0 27.81376,6.12446,0 27.70503,6.12446,0 27.70503,6.10643,0 27.83188,6.10643,0 27.83188,6.07036,0 27.81376,6.07036,0 27.81376,5.99824,0 27.77751,5.99824,0 27.77751,5.98021,0 27.74127,5.98021,0 27.74127,5.99824,0 27.72315,5.99824,0 27.72315,6.01627,0 27.70503,6.01627,0 27.70503,6.03430,0 27.63255,6.03430,0 27.63255,6.01627,0 27.68691,6.01627,0 27.68691,5.99824,0 27.70503,5.99824,0 27.70503,5.98021,0 27.72315,5.98021,0 27.72315,5.94415,0 27.63255,5.94415,0 27.63255,5.85402,0 27.59631,5.85402,0 27.59631,5.87204,0 27.57819,5.87204,0 27.57819,5.89007,0 27.54195,5.89007,0 27.54195,5.99824,0 27.52383,5.99824,0 27.52383,5.94415,0 27.45135,5.94415,0 27.45135,5.87204,0 27.43323,5.87204,0 27.43323,5.85402,0 27.37887,5.85402,0 27.37887,5.94415,0 27.36075,5.94415,0 27.36075,5.87204,0 27.34263,5.87204,0 27.34263,5.89007,0 27.30639,5.89007,0 27.30639,5.90810,0 27.28827,5.90810,0 27.28827,5.94415,0 27.23391,5.94415,0 27.23391,5.96218,0 27.21579,5.96218,0 27.21579,6.01627,0 27.37887,6.01627,0 27.37887,6.03430,0 27.21579,6.03430,0 27.21579,6.21464,0 27.19767,6.21464,0 27.19767,6.26875,0 27.34263,6.26875,0 27.34263,6.25071,0 27.43323,6.25071,0 27.43323,6.23267,0 27.45135,6.23267,0 27.45135,6.21464,0 27.43323,6.21464,0 27.43323,6.19660,0 27.45135,6.19660,0 27.45135,6.14249,0 27.46947,6.14249,0 27.46947,6.23267,0 27.48759,6.23267,0 27.48759,6.25071,0 27.50571,6.25071,0 27.50571,6.26875,0 27.52383,6.26875,0 27.52383,6.28679,0</coordinates></LinearRing></outerBoundaryIs></Polygon></Placemark><Placemark><name>NE unit 21 (101,200 ha, 2,068 ppl)</name><description><![CDATA[community · 101,200 ha · 24 clusters, 2,068 people (GHSL lower bound), 0 new since 2015<br/>fire 4,663/1000km2/yr, 1382 fronts (99% transhumance, 927 ≥150 km)<br/>clearing since 2020 0.29 km2; cropland 0.0→0.13%; mining reported/candidates/top5% 0/0/13<br/>boundary: Busseri River on the W/N (42 km); Nahr al Jur on the SE/E (32 km); K. Nyadok (1930s sheet) on the S/SW (18 km); K. Ungoa (1930s sheet) on the SW (10 km); R. Sue (1930s sheet) on the N/E (6 km); K. Nuduk (1930s sheet) on the NE (6 km) — 12% follows no nameable feature]]></description><styleUrl>#community</styleUrl><Polygon><outerBoundaryIs><LinearRing><coordinates>28.04932,7.69585,0 28.17616,7.69585,0 28.17616,7.62349,0 28.15804,7.62349,0 28.15804,7.58731,0 28.13992,7.58731,0 28.13992,7.49688,0 28.15804,7.49688,0 28.15804,7.47879,0 28.13992,7.47879,0 28.13992,7.44263,0 28.12180,7.44263,0 28.12180,7.40647,0 28.10368,7.40647,0 28.10368,7.38839,0 28.12180,7.38839,0 28.12180,7.35223,0 28.10368,7.35223,0 28.10368,7.31607,0 28.08556,7.31607,0 28.08556,7.29800,0 28.03120,7.29800,0 28.03120,7.31607,0 27.99496,7.31607,0 27.99496,7.33415,0 27.92248,7.33415,0 27.92248,7.31607,0 27.90436,7.31607,0 27.90436,7.29800,0 27.85000,7.29800,0 27.85000,7.31607,0 27.83188,7.31607,0 27.83188,7.33415,0 27.81376,7.33415,0 27.81376,7.37031,0 27.79564,7.37031,0 27.79564,7.42455,0 27.81376,7.42455,0 27.81376,7.44263,0 27.85000,7.44263,0 27.85000,7.46071,0 27.86812,7.46071,0 27.86812,7.47879,0 27.90436,7.47879,0 27.90436,7.49688,0 27.97684,7.49688,0 27.97684,7.55113,0 27.99496,7.55113,0 27.99496,7.58731,0 28.01308,7.58731,0 28.01308,7.60540,0 28.03120,7.60540,0 28.03120,7.65967,0 28.04932,7.65967,0 28.04932,7.69585,0</coordinates></LinearRing></outerBoundaryIs></Polygon></Placemark><Placemark><name>N Busseri (43,600 ha, 1,477 ppl)</name><description><![CDATA[community · 43,600 ha · 6 clusters, 1,477 people (GHSL lower bound), 0 new since 2015<br/>fire 4,472/1000km2/yr, 911 fronts (99% transhumance, 607 ≥150 km)<br/>clearing since 2020 0.0 km2; cropland 0.0→0.01%; mining reported/candidates/top5% 0/0/9<br/>boundary: unnamed river (order 4) on the SE/NE (26 km); I Kayak (1930s sheet) on the NW/N (20 km); R. Mannare (1930s sheet) on the S/SW (14 km) — 25% follows no nameable feature]]></description><styleUrl>#community</styleUrl><Polygon><outerBoundaryIs><LinearRing><coordinates>27.46947,8.38392,0 27.65067,8.38392,0 27.65067,8.36579,0 27.56007,8.36579,0 27.56007,8.34767,0 27.54195,8.34767,0 27.54195,8.32955,0 27.56007,8.32955,0 27.56007,8.25708,0 27.57819,8.25708,0 27.57819,8.20274,0 27.56007,8.20274,0 27.56007,8.18462,0 27.54195,8.18462,0 27.54195,8.16651,0 27.52383,8.16651,0 27.52383,8.14840,0 27.48759,8.14840,0 27.48759,8.16651,0 27.46947,8.16651,0 27.46947,8.18462,0 27.45135,8.18462,0 27.45135,8.22085,0 27.43323,8.22085,0 27.43323,8.23897,0 27.41511,8.23897,0 27.41511,8.25708,0 27.39699,8.25708,0 27.39699,8.27520,0 27.36075,8.27520,0 27.36075,8.36579,0 27.46947,8.36579,0 27.46947,8.38392,0</coordinates></LinearRing></outerBoundaryIs></Polygon></Placemark><Placemark><name>NE unit 24 (22,000 ha, 1,172 ppl)</name><description><![CDATA[community · 22,000 ha · 5 clusters, 1,172 people (GHSL lower bound), 0 new since 2015<br/>fire 1,000/1000km2/yr, 486 fronts (100% transhumance, 316 ≥150 km)<br/>clearing since 2020 0.04 km2; cropland 0.0→0.33%; mining reported/candidates/top5% 0/0/3<br/>boundary: Nahr al Jur on the SW/NW (20 km); 1930s W. District Boundary on the SE/E (10 km); K. Achikwet (1930s sheet) on the S/N (6 km) — 31% follows no nameable feature]]></description><styleUrl>#community</styleUrl><Polygon><outerBoundaryIs><LinearRing><coordinates>28.01308,7.91301,0 28.13992,7.91301,0 28.13992,7.82251,0 28.15804,7.82251,0 28.15804,7.80442,0 28.10368,7.80442,0 28.10368,7.76822,0 28.01308,7.76822,0 28.01308,7.78632,0 28.03120,7.78632,0 28.03120,7.80442,0 28.01308,7.80442,0 28.01308,7.82251,0 27.99496,7.82251,0 27.99496,7.87681,0 28.01308,7.87681,0 28.01308,7.91301,0</coordinates></LinearRing></outerBoundaryIs></Polygon></Placemark><Placemark><name>NE unit 64 (129,600 ha, 1,012 ppl)</name><description><![CDATA[community · 129,600 ha · 28 clusters, 1,012 people (GHSL lower bound), 4 new since 2015<br/>fire 3,385/1000km2/yr, 1570 fronts (98% transhumance, 1042 ≥150 km)<br/>clearing since 2020 0.52 km2; cropland 0.0→0.0%; mining reported/candidates/top5% 0/0/4<br/>boundary: K. Ngoko (1930s sheet) on the NW/N (24 km); K Akali (1930s sheet) on the N/NW (22 km); K. Megwalima (1930s sheet) on the SE/E (20 km); K. Getti (1930s sheet) on the W/N (14 km); K. Ngombara (1930s sheet) on the SE/S (14 km); K. Nowondo (1930s sheet) on the N/NE (6 km) — 29% follows no nameable feature]]></description><styleUrl>#community</styleUrl><Polygon><outerBoundaryIs><LinearRing><coordinates>27.66879,7.93111,0 27.68691,7.93111,0 27.68691,7.91301,0 27.70503,7.91301,0 27.70503,7.89491,0 27.72315,7.89491,0 27.72315,7.80442,0 27.74127,7.80442,0 27.74127,7.76822,0 27.75939,7.76822,0 27.75939,7.75013,0 27.77751,7.75013,0 27.77751,7.69585,0 27.79564,7.69585,0 27.79564,7.65967,0 27.85000,7.65967,0 27.85000,7.60540,0 27.83188,7.60540,0 27.83188,7.58731,0 27.85000,7.58731,0 27.85000,7.56922,0 27.83188,7.56922,0 27.83188,7.49688,0 27.85000,7.49688,0 27.85000,7.44263,0 27.79564,7.44263,0 27.79564,7.46071,0 27.77751,7.46071,0 27.77751,7.47879,0 27.74127,7.47879,0 27.74127,7.49688,0 27.70503,7.49688,0 27.70503,7.46071,0 27.54195,7.46071,0 27.54195,7.55113,0 27.56007,7.55113,0 27.56007,7.65967,0 27.57819,7.65967,0 27.57819,7.67776,0 27.59631,7.67776,0 27.59631,7.69585,0 27.61443,7.69585,0 27.61443,7.71394,0 27.63255,7.71394,0 27.63255,7.73203,0 27.65067,7.73203,0 27.65067,7.75013,0 27.63255,7.75013,0 27.63255,7.76822,0 27.57819,7.76822,0 27.57819,7.78632,0 27.50571,7.78632,0 27.50571,7.75013,0 27.48759,7.75013,0 27.48759,7.73203,0 27.45135,7.73203,0 27.45135,7.76822,0 27.43323,7.76822,0 27.43323,7.78632,0 27.41511,7.78632,0 27.41511,7.80442,0 27.39699,7.80442,0 27.39699,7.82251,0 27.52383,7.82251,0 27.52383,7.84061,0 27.54195,7.84061,0 27.54195,7.85871,0 27.56007,7.85871,0 27.56007,7.87681,0 27.59631,7.87681,0 27.59631,7.89491,0 27.61443,7.89491,0 27.61443,7.91301,0 27.66879,7.91301,0 27.66879,7.93111,0</coordinates></LinearRing></outerBoundaryIs></Polygon></Placemark><Placemark><name>NE unit 26 (7,200 ha, 721 ppl)</name><description><![CDATA[community · 7,200 ha · 1 clusters, 721 people (GHSL lower bound), 0 new since 2015<br/>fire 0/1000km2/yr, 265 fronts (99% transhumance, 182 ≥150 km)<br/>clearing since 2020 0.02 km2; cropland 0.0→1.86%; mining reported/candidates/top5% 0/0/0<br/>boundary: K. Kwange (1930s sheet) on the W/NW (12 km); Nahr al Jur on the W (6 km) — 50% follows no nameable feature]]></description><styleUrl>#community</styleUrl><Polygon><outerBoundaryIs><LinearRing><coordinates>28.01308,8.02163,0 28.19428,8.02163,0 28.19428,8.00353,0 28.13992,8.00353,0 28.13992,7.98542,0 27.99496,7.98542,0 27.99496,8.00353,0 28.01308,8.00353,0 28.01308,8.02163,0</coordinates></LinearRing></outerBoundaryIs></Polygon></Placemark><Placemark><name>NE unit 35 (2,000 ha, 514 ppl)</name><description><![CDATA[community · 2,000 ha · 1 clusters, 514 people (GHSL lower bound), 0 new since 2015<br/>fire 0/1000km2/yr, 253 fronts (99% transhumance, 162 ≥150 km)<br/>clearing since 2020 0.0 km2; cropland 0.0→0.0%; mining reported/candidates/top5% 0/0/0<br/>boundary:  — 100% follows no nameable feature]]></description><styleUrl>#community</styleUrl><Polygon><outerBoundaryIs><LinearRing><coordinates>27.68691,8.27520,0 27.77751,8.27520,0 27.77751,8.25708,0 27.68691,8.25708,0 27.68691,8.27520,0</coordinates></LinearRing></outerBoundaryIs></Polygon></Placemark></Document></kml>