{"type": "FeatureCollection", "features": [{"type": "Feature", "properties": {"uid": 4, "seed": "Nahr", "seed_kind": "conservancy", "area_km2": 1188.0, "area_ha": 118800, "country": "SSD", "in_zones": "[]", "overlaps": "[\"PLAN Wau-Wilderness_30,329km2 37%\", \"PLAN Southern-NP-Wilderness_41'590km2 11%\"]", "km_to_park": 2.0, "clusters": 5, "population_est": 3057, "pop_per_km2": 2.573, "new_since_2015": 1, "camps": 1, "built_km2": 0.01, "built_2000_km2": 0.0, "built_2015_km2": 0.01, "towns": "[\"Nahr al Jur* 1,192\", \"Bo River* 1,076\"]", "fire_det_2024_25": 9217, "fire_per_1000km2_yr": 3879, "fire_nov_feb_share": 0.95, "fronts": 722, "fronts_per_1000km2": 607.7, "fronts_transhumance_pct": 97, "fronts_long": 501, "fronts_long_per_1000km2": 421.72, "front_dirs": "{\"N\": 132, \"S\": 114, \"NE\": 96}", "clearing_events": 37, "clearing_km2": 6.41, "clearing_since_2020_km2": 1.58, "clearing_encroach_slash": 6, "mine_reported": 0, "mine_candidates": 0, "mine_top05_cells": 7, "mine_watchlist": 0, "cropland_2003_pct": 0.0, "cropland_2019_pct": 0.0, "boundary_legibility": 0.51, "built_growth_x": null, "cls": "community", "boundary": "[\"Bo River on the SW/N (92 km)\", \"Nahr al Jur on the NE/SE (44 km)\", \"Islands (1930s sheet) on the E/SE (6 km)\", \"Rapids (1930s sheet) on the NE (4 km)\"]", "perimeter_km": 202, "unattributed_pct": 28, "park_sector": "SE"}, "geometry": {"type": "Polygon", "coordinates": [[[27.868116466277627, 6.6657503007800445], [27.90435707188255, 6.6657503007800445], [27.90435707188255, 6.647698156187535], [27.94059767748748, 6.647698156187535], [27.94059767748748, 6.6115958012322995], [27.958717980289943, 6.6115958012322995], [27.958717980289943, 6.575496013150397], [27.94059767748748, 6.575496013150397], [27.94059767748748, 6.539398777430352], [27.922477374685016, 6.539398777430352], [27.922477374685016, 6.46721190507637], [27.868116466277627, 6.46721190507637], [27.868116466277627, 6.449166759565559], [27.84999616347516, 6.449166759565559], [27.84999616347516, 6.431122239465738], [27.8318758606727, 6.431122239465738], [27.8318758606727, 6.413078342967868], [27.813755557870234, 6.413078342967868], [27.813755557870234, 6.37699241354463], [27.90435707188255, 6.37699241354463], [27.90435707188255, 6.413078342967868], [27.922477374685016, 6.413078342967868], [27.922477374685016, 6.358950377004004], [27.90435707188255, 6.358950377004004], [27.90435707188255, 6.322868151230804], [27.88623676908009, 6.322868151230804], [27.88623676908009, 6.304827958386333], [27.868116466277627, 6.304827958386333], [27.868116466277627, 6.286788376496282], [27.84999616347516, 6.286788376496282], [27.84999616347516, 6.250711038361766], [27.8318758606727, 6.250711038361766], [27.8318758606727, 6.23267327850984], [27.84999616347516, 6.23267327850984], [27.84999616347516, 6.214636122397419], [27.8318758606727, 6.214636122397419], [27.8318758606727, 6.196599568222144], [27.79563525506777, 6.196599568222144], [27.79563525506777, 6.214636122397419], [27.723154043857914, 6.214636122397419], [27.723154043857914, 6.23267327850984], [27.705033741055455, 6.23267327850984], [27.705033741055455, 6.250711038361766], [27.614432227043135, 6.250711038361766], [27.614432227043135, 6.214636122397419], [27.560071318635746, 6.214636122397419], [27.560071318635746, 6.286788376496282], [27.523830713030815, 6.286788376496282], [27.523830713030815, 6.268749403756095], [27.505710410228353, 6.268749403756095], [27.505710410228353, 6.250711038361766], [27.487590107425888, 6.250711038361766], [27.487590107425888, 6.23267327850984], [27.469469804623426, 6.23267327850984], [27.469469804623426, 6.142493499303824], [27.451349501820964, 6.142493499303824], [27.451349501820964, 6.196599568222144], [27.4332291990185, 6.196599568222144], [27.4332291990185, 6.214636122397419], [27.451349501820964, 6.214636122397419], [27.451349501820964, 6.304827958386333], [27.560071318635746, 6.304827958386333], [27.560071318635746, 6.322868151230804], [27.578191621438208, 6.322868151230804], [27.578191621438208, 6.358950377004004], [27.59631192424067, 6.358950377004004], [27.59631192424067, 6.37699241354463], [27.65067283264806, 6.37699241354463], [27.65067283264806, 6.431122239465738], [27.668793135450525, 6.431122239465738], [27.668793135450525, 6.449166759565559], [27.68691343825299, 6.449166759565559], [27.68691343825299, 6.46721190507637], [27.759394649462845, 6.46721190507637], [27.759394649462845, 6.503304079569989], [27.74127434666038, 6.503304079569989], [27.74127434666038, 6.557447077151746], [27.759394649462845, 6.557447077151746], [27.759394649462845, 6.575496013150397], [27.79563525506777, 6.575496013150397], [27.79563525506777, 6.557447077151746], [27.8318758606727, 6.557447077151746], [27.8318758606727, 6.6115958012322995], [27.84999616347516, 6.6115958012322995], [27.84999616347516, 6.647698156187535], [27.868116466277627, 6.647698156187535], [27.868116466277627, 6.6657503007800445]]]}}, {"type": "Feature", "properties": {"uid": 3463, "seed": "unit 3463", "seed_kind": "conservancy", "area_km2": 2228.0, "area_ha": 222800, "country": "SSD", "in_zones": "[\"PLAN Wau-Wilderness_30,329km2\"]", "overlaps": "[\"PLAN Wau-Wilderness_30,329km2 53%\", \"PLAN zone-p\\u00e2turage-durable_Numatina_15'000km2 32%\"]", "km_to_park": 4.0, "clusters": 19, "population_est": 2671, "pop_per_km2": 1.199, "new_since_2015": 0, "camps": 15, "built_km2": 0.01, "built_2000_km2": 0.01, "built_2015_km2": 0.01, "towns": "[]", "fire_det_2024_25": 22177, "fire_per_1000km2_yr": 4977, "fire_nov_feb_share": 0.97, "fronts": 1063, "fronts_per_1000km2": 477.1, "fronts_transhumance_pct": 98, "fronts_long": 708, "fronts_long_per_1000km2": 317.77, "front_dirs": "{\"N\": 221, \"S\": 149, \"NW\": 139}", "clearing_events": 38, "clearing_km2": 1.42, "clearing_since_2020_km2": 0.66, "clearing_encroach_slash": 14, "mine_reported": 0, "mine_candidates": 2, "mine_top05_cells": 19, "mine_watchlist": 1, "cropland_2003_pct": 0.0, "cropland_2019_pct": 0.0, "boundary_legibility": 0.33, "built_growth_x": null, "cls": "community", "boundary": "[\"Bo River on the NE/N (32 km)\", \"Nahr al Jur on the E/NE (26 km)\", \"R. Imatima (1930s sheet) on the W (24 km)\", \"unnamed river (order 4) on the NW/W (14 km)\", \"R. Duma (1930s sheet) on the S/SE (14 km)\", \"R. Yabo (1930s sheet) on the SE/E (10 km)\"]", "perimeter_km": 344, "unattributed_pct": 62, "park_sector": "SE"}, "geometry": {"type": "Polygon", "coordinates": [[[27.523830713030815, 6.286788376496282], [27.560071318635746, 6.286788376496282], [27.560071318635746, 6.214636122397419], [27.614432227043135, 6.214636122397419], [27.614432227043135, 6.250711038361766], [27.705033741055455, 6.250711038361766], [27.705033741055455, 6.23267327850984], [27.723154043857914, 6.23267327850984], [27.723154043857914, 6.214636122397419], [27.79563525506777, 6.214636122397419], [27.79563525506777, 6.196599568222144], [27.813755557870234, 6.196599568222144], [27.813755557870234, 6.178563614182206], [27.79563525506777, 6.178563614182206], [27.79563525506777, 6.142493499303824], [27.813755557870234, 6.142493499303824], [27.813755557870234, 6.124459334864475], [27.723154043857914, 6.124459334864475], [27.723154043857914, 6.106425763358651], [27.8318758606727, 6.106425763358651], [27.8318758606727, 6.070360391951696], [27.813755557870234, 6.070360391951696], [27.813755557870234, 5.9982366852152476], [27.777514952265307, 5.9982366852152476], [27.777514952265307, 5.980207213899033], [27.74127434666038, 5.980207213899033], [27.74127434666038, 5.9982366852152476], [27.723154043857914, 5.9982366852152476], [27.723154043857914, 6.016266736882443], [27.705033741055455, 6.016266736882443], [27.705033741055455, 6.034297370696531], [27.6325525298456, 6.034297370696531], [27.6325525298456, 6.016266736882443], [27.68691343825299, 6.016266736882443], [27.68691343825299, 5.9982366852152476], [27.705033741055455, 5.9982366852152476], [27.705033741055455, 5.980207213899033], [27.723154043857914, 5.980207213899033], [27.723154043857914, 5.9441500051384875], [27.6325525298456, 5.9441500051384875], [27.6325525298456, 5.854017013765743], [27.59631192424067, 5.854017013765743], [27.59631192424067, 5.872042472866882], [27.578191621438208, 5.872042472866882], [27.578191621438208, 5.890068499762194], [27.54195101583328, 5.890068499762194], [27.54195101583328, 5.9982366852152476], [27.523830713030815, 5.9982366852152476], [27.523830713030815, 5.9441500051384875], [27.451349501820964, 5.9441500051384875], [27.451349501820964, 5.872042472866882], [27.4332291990185, 5.872042472866882], [27.4332291990185, 5.854017013765743], [27.37886829061111, 5.854017013765743], [27.37886829061111, 5.9441500051384875], [27.360747987808644, 5.9441500051384875], [27.360747987808644, 5.872042472866882], [27.34262768500618, 5.872042472866882], [27.34262768500618, 5.890068499762194], [27.306387079401254, 5.890068499762194], [27.306387079401254, 5.908095096243951], [27.28826677659879, 5.908095096243951], [27.28826677659879, 5.9441500051384875], [27.2339058681914, 5.9441500051384875], [27.2339058681914, 5.962178321138402], [27.215785565388934, 5.962178321138402], [27.215785565388934, 6.016266736882443], [27.37886829061111, 6.016266736882443], [27.37886829061111, 6.034297370696531], [27.215785565388934, 6.034297370696531], [27.215785565388934, 6.214636122397419], [27.197665262586472, 6.214636122397419], [27.197665262586472, 6.268749403756095], [27.34262768500618, 6.268749403756095], [27.34262768500618, 6.250711038361766], [27.4332291990185, 6.250711038361766], [27.4332291990185, 6.23267327850984], [27.451349501820964, 6.23267327850984], [27.451349501820964, 6.214636122397419], [27.4332291990185, 6.214636122397419], [27.4332291990185, 6.196599568222144], [27.451349501820964, 6.196599568222144], [27.451349501820964, 6.142493499303824], [27.469469804623426, 6.142493499303824], [27.469469804623426, 6.23267327850984], [27.487590107425888, 6.23267327850984], [27.487590107425888, 6.250711038361766], [27.505710410228353, 6.250711038361766], [27.505710410228353, 6.268749403756095], [27.523830713030815, 6.268749403756095], [27.523830713030815, 6.286788376496282]]]}}, {"type": "Feature", "properties": {"uid": 3462, "seed": "unit 3462", "seed_kind": "conservancy", "area_km2": 36.0, "area_ha": 3600, "country": "SSD", "in_zones": "[]", "overlaps": "[\"PLAN zone-p\\u00e2turage-durable_Numatina_15'000km2 11%\"]", "km_to_park": 30.0, "clusters": 1, "population_est": 115, "pop_per_km2": 3.194, "new_since_2015": 0, "camps": 0, "built_km2": 0.01, "built_2000_km2": 0.0, "built_2015_km2": 0.0, "towns": "[]", "fire_det_2024_25": 0, "fire_per_1000km2_yr": 0, "fire_nov_feb_share": null, "fronts": 220, "fronts_per_1000km2": 6111.1, "fronts_transhumance_pct": 100, "fronts_long": 152, "fronts_long_per_1000km2": 4222.22, "front_dirs": "{\"N\": 42, \"NW\": 38, \"SE\": 33}", "clearing_events": 12, "clearing_km2": 0.52, "clearing_since_2020_km2": 0.06, "clearing_encroach_slash": 2, "mine_reported": 0, "mine_candidates": 0, "mine_top05_cells": 0, "mine_watchlist": 0, "cropland_2003_pct": 0.0, "cropland_2019_pct": 0.0, "boundary_legibility": 0.11, "built_growth_x": null, "cls": "community", "boundary": "[\"R. Imatima (1930s sheet) on the W (4 km)\"]", "perimeter_km": 18, "unattributed_pct": 78, "park_sector": "S"}, "geometry": {"type": "Polygon", "coordinates": [[[27.215785565388934, 6.034297370696531], [27.37886829061111, 6.034297370696531], [27.37886829061111, 6.016266736882443], [27.215785565388934, 6.016266736882443], [27.215785565388934, 6.034297370696531]]]}}]}