{"type": "FeatureCollection", "features": [{"type": "Feature", "properties": {"uid": 6, "seed": "Nahr", "seed_kind": "conservancy", "area_km2": 1444.0, "area_ha": 144400, "country": "SSD", "in_zones": "[]", "overlaps": "[]", "km_to_park": 56.6, "clusters": 34, "population_est": 140214, "pop_per_km2": 97.101, "new_since_2015": 9, "camps": 14, "built_km2": 11.61, "built_2000_km2": 6.25, "built_2015_km2": 7.63, "towns": "[\"Nahr al Jur* 104,260\", \"Nahr al Jur* 15,443\", \"Busseri River* 3,816\", \"Nahr al Jur* 3,120\"]", "fire_det_2024_25": 13782, "fire_per_1000km2_yr": 4772, "fire_nov_feb_share": 0.68, "fronts": 1719, "fronts_per_1000km2": 1190.4, "fronts_transhumance_pct": 98, "fronts_long": 1137, "fronts_long_per_1000km2": 787.4, "front_dirs": "{\"NW\": 347, \"SE\": 326, \"E\": 264}", "clearing_events": 105, "clearing_km2": 12.56, "clearing_since_2020_km2": 0.36, "clearing_encroach_slash": 2, "mine_reported": 0, "mine_candidates": 1, "mine_top05_cells": 28, "mine_watchlist": 1, "cropland_2003_pct": 0.01, "cropland_2019_pct": 0.82, "boundary_legibility": 0.66, "built_growth_x": 1.9, "cls": "community", "boundary": "[\"Nahr al Jur on the NE/SE (46 km)\", \"Busseri River on the S/SE (32 km)\", \"K. Megwalima (1930s sheet) on the S/SW (20 km)\", \"R. Asetti (1930s sheet) on the N (16 km)\", \"K. Ngoko (1930s sheet) on the SW/W (10 km)\", \"unnamed river (order 4) on the W/NE (8 km)\"]", "perimeter_km": 188, "unattributed_pct": 14, "park_sector": "NE"}, "geometry": {"type": "Polygon", "coordinates": [[[27.84999616347516, 8.094064991417186], [27.868116466277627, 8.094064991417186], [27.868116466277627, 7.985423314111889], [27.88623676908009, 7.985423314111889], [27.88623676908009, 7.967319113817935], [27.90435707188255, 7.967319113817935], [27.90435707188255, 7.985423314111889], [27.94059767748748, 7.985423314111889], [27.94059767748748, 8.094064991417186], [28.04931949430226, 8.094064991417186], [28.04931949430226, 8.075956074495794], [28.031199191499795, 8.075956074495794], [28.031199191499795, 8.039740611097713], [28.013078888697336, 8.039740611097713], [28.013078888697336, 8.003528295846708], [27.99495858589487, 8.003528295846708], [27.99495858589487, 7.985423314111889], [28.031199191499795, 7.985423314111889], [28.031199191499795, 7.949215693101051], [28.013078888697336, 7.949215693101051], [28.013078888697336, 7.8768097687535885], [27.99495858589487, 7.8768097687535885], [27.99495858589487, 7.8225134198333315], [28.013078888697336, 7.8225134198333315], [28.013078888697336, 7.804416168722675], [28.031199191499795, 7.804416168722675], [28.031199191499795, 7.786319680447201], [28.013078888697336, 7.786319680447201], [28.013078888697336, 7.695848616638902], [28.031199191499795, 7.695848616638902], [28.031199191499795, 7.677756666409125], [28.04931949430226, 7.677756666409125], [28.04931949430226, 7.659665466032585], [28.031199191499795, 7.659665466032585], [28.031199191499795, 7.60539634550797], [28.013078888697336, 7.60539634550797], [28.013078888697336, 7.5873081260334105], [27.99495858589487, 7.5873081260334105], [27.99495858589487, 7.5511339070395245], [27.976838283092405, 7.5511339070395245], [27.976838283092405, 7.496878100721639], [27.90435707188255, 7.496878100721639], [27.90435707188255, 7.478794297142507], [27.868116466277627, 7.478794297142507], [27.868116466277627, 7.460711223084615], [27.84999616347516, 7.460711223084615], [27.84999616347516, 7.496878100721639], [27.8318758606727, 7.496878100721639], [27.8318758606727, 7.569220647160049], [27.84999616347516, 7.569220647160049], [27.84999616347516, 7.5873081260334105], [27.8318758606727, 7.5873081260334105], [27.8318758606727, 7.60539634550797], [27.84999616347516, 7.60539634550797], [27.84999616347516, 7.659665466032585], [27.79563525506777, 7.659665466032585], [27.79563525506777, 7.695848616638902], [27.777514952265307, 7.695848616638902], [27.777514952265307, 7.750128984975846], [27.759394649462845, 7.750128984975846], [27.759394649462845, 7.768223953150242], [27.74127434666038, 7.768223953150242], [27.74127434666038, 7.804416168722675], [27.723154043857914, 7.804416168722675], [27.723154043857914, 7.894910089785711], [27.74127434666038, 7.894910089785711], [27.74127434666038, 7.9130111829469305], [27.777514952265307, 7.9130111829469305], [27.777514952265307, 7.894910089785711], [27.79563525506777, 7.894910089785711], [27.79563525506777, 7.9130111829469305], [27.8318758606727, 7.9130111829469305], [27.8318758606727, 7.985423314111889], [27.84999616347516, 7.985423314111889], [27.84999616347516, 8.094064991417186]]]}}, {"type": "Feature", "properties": {"uid": 1661, "seed": "Busseri", "seed_kind": "conservancy", "area_km2": 2468.0, "area_ha": 246800, "country": "SSD", "in_zones": "[]", "overlaps": "[]", "km_to_park": 87.2, "clusters": 22, "population_est": 40898, "pop_per_km2": 16.571, "new_since_2015": 3, "camps": 8, "built_km2": 2.96, "built_2000_km2": 0.53, "built_2015_km2": 1.34, "towns": "[\"Busseri River* 30,418\", \"Busseri River* 2,066\", \"Busseri River* 1,498\", \"Busseri River* 1,054\"]", "fire_det_2024_25": 15802, "fire_per_1000km2_yr": 3201, "fire_nov_feb_share": 0.63, "fronts": 2003, "fronts_per_1000km2": 811.6, "fronts_transhumance_pct": 98, "fronts_long": 1141, "fronts_long_per_1000km2": 462.32, "front_dirs": "{\"NW\": 333, \"E\": 321, \"N\": 306}", "clearing_events": 73, "clearing_km2": 1.95, "clearing_since_2020_km2": 0.16, "clearing_encroach_slash": 0, "mine_reported": 0, "mine_candidates": 1, "mine_top05_cells": 13, "mine_watchlist": 2, "cropland_2003_pct": 0.0, "cropland_2019_pct": 0.65, "boundary_legibility": 0.24, "built_growth_x": 5.6, "cls": "community", "boundary": "[\"Nahr al Jur on the E/SE (36 km)\", \"unnamed river (order 4) on the W/NW (28 km)\", \"R. Pongo (1930s sheet) on the NW/N (26 km)\", \"1930s Boundary (Northern) (Central) on the N (24 km)\", \"R. K. (1930s sheet) on the SW/W (20 km)\", \"R. Asetti (1930s sheet) on the S/SE (10 km)\"]", "perimeter_km": 422, "unattributed_pct": 58, "park_sector": "NE"}, "geometry": {"type": "Polygon", "coordinates": [[[27.6325525298456, 8.637709500321387], [27.777514952265307, 8.637709500321387], [27.777514952265307, 8.619575988221177], [27.79563525506777, 8.619575988221177], [27.79563525506777, 8.601443323263892], [27.813755557870234, 8.601443323263892], [27.813755557870234, 8.565180527217883], [27.723154043857914, 8.565180527217883], [27.723154043857914, 8.547050392351023], [27.813755557870234, 8.547050392351023], [27.813755557870234, 8.528921097070821], [27.79563525506777, 8.528921097070821], [27.79563525506777, 8.474538229882974], [27.777514952265307, 8.474538229882974], [27.777514952265307, 8.456412274086132], [27.813755557870234, 8.456412274086132], [27.813755557870234, 8.438287148448207], [27.90435707188255, 8.438287148448207], [27.90435707188255, 8.420162851085982], [28.04931949430226, 8.420162851085982], [28.04931949430226, 8.402039380117008], [28.031199191499795, 8.402039380117008], [28.031199191499795, 8.38391673365961], [27.90435707188255, 8.38391673365961], [27.90435707188255, 8.36579490983287], [28.031199191499795, 8.36579490983287], [28.031199191499795, 8.293315803241047], [27.90435707188255, 8.293315803241047], [27.90435707188255, 8.27519806438067], [28.031199191499795, 8.27519806438067], [28.031199191499795, 8.238965018867917], [28.04931949430226, 8.238965018867917], [28.04931949430226, 8.202735203798978], [27.90435707188255, 8.202735203798978], [27.90435707188255, 8.18462150299617], [27.84999616347516, 8.18462150299617], [27.84999616347516, 8.166508604184097], [28.04931949430226, 8.166508604184097], [28.04931949430226, 8.094064991417186], [27.94059767748748, 8.094064991417186], [27.94059767748748, 7.985423314111889], [27.90435707188255, 7.985423314111889], [27.90435707188255, 7.967319113817935], [27.88623676908009, 7.967319113817935], [27.88623676908009, 7.985423314111889], [27.868116466277627, 7.985423314111889], [27.868116466277627, 8.094064991417186], [27.84999616347516, 8.094064991417186], [27.84999616347516, 7.985423314111889], [27.8318758606727, 7.985423314111889], [27.8318758606727, 7.9130111829469305], [27.79563525506777, 7.9130111829469305], [27.79563525506777, 7.894910089785711], [27.777514952265307, 7.894910089785711], [27.777514952265307, 7.985423314111889], [27.759394649462845, 7.985423314111889], [27.759394649462845, 8.003528295846708], [27.74127434666038, 8.003528295846708], [27.74127434666038, 8.075956074495794], [27.668793135450525, 8.075956074495794], [27.668793135450525, 8.094064991417186], [27.65067283264806, 8.094064991417186], [27.65067283264806, 8.202735203798978], [27.6325525298456, 8.202735203798978], [27.6325525298456, 8.22084970846511], [27.614432227043135, 8.22084970846511], [27.614432227043135, 8.202735203798978], [27.578191621438208, 8.202735203798978], [27.578191621438208, 8.25708113688149], [27.560071318635746, 8.25708113688149], [27.560071318635746, 8.329553722551557], [27.54195101583328, 8.329553722551557], [27.54195101583328, 8.347673906756647], [27.560071318635746, 8.347673906756647], [27.560071318635746, 8.36579490983287], [27.65067283264806, 8.36579490983287], [27.65067283264806, 8.38391673365961], [27.523830713030815, 8.38391673365961], [27.523830713030815, 8.420162851085982], [27.54195101583328, 8.420162851085982], [27.54195101583328, 8.456412274086132], [27.578191621438208, 8.456412274086132], [27.578191621438208, 8.510792639490163], [27.59631192424067, 8.510792639490163], [27.59631192424067, 8.565180527217883], [27.614432227043135, 8.565180527217883], [27.614432227043135, 8.619575988221177], [27.6325525298456, 8.619575988221177], [27.6325525298456, 8.637709500321387]]]}}, {"type": "Feature", "properties": {"uid": 2, "seed": "Tambura", "seed_kind": "conservancy", "area_km2": 1392.0, "area_ha": 139200, "country": "SSD", "in_zones": "[]", "overlaps": "[]", "km_to_park": 71.0, "clusters": 20, "population_est": 36615, "pop_per_km2": 26.304, "new_since_2015": 0, "camps": 15, "built_km2": 2.12, "built_2000_km2": 0.53, "built_2015_km2": 1.49, "towns": "[\"Tambura 31,951\", \"Yubo 2,911\"]", "fire_det_2024_25": 13111, "fire_per_1000km2_yr": 4709, "fire_nov_feb_share": 0.9, "fronts": 1292, "fronts_per_1000km2": 928.2, "fronts_transhumance_pct": 98, "fronts_long": 817, "fronts_long_per_1000km2": 586.93, "front_dirs": "{\"NW\": 234, \"SE\": 199, \"N\": 191}", "clearing_events": 68, "clearing_km2": 31.24, "clearing_since_2020_km2": 2.32, "clearing_encroach_slash": 29, "mine_reported": 1, "mine_candidates": 0, "mine_top05_cells": 14, "mine_watchlist": 2, "cropland_2003_pct": 0.0, "cropland_2019_pct": 0.01, "boundary_legibility": 0.56, "built_growth_x": 4.0, "cls": "community", "boundary": "[\"unnamed river (order 4) on the S/E (44 km)\", \"Tambura - Yubo Road on the W/NW (28 km)\", \"K. Barange (1930s sheet) on the N/NE (12 km)\", \"L. Mbanga (1930s sheet) on the E/SE (12 km)\", \"CAF border on the SW/W (8 km)\", \"primary road on the SW/W (8 km)\"]", "perimeter_km": 158, "unattributed_pct": 16, "park_sector": "S"}, "geometry": {"type": "Polygon", "coordinates": [[[27.668793135450525, 5.7098335666423665], [27.705033741055455, 5.7098335666423665], [27.705033741055455, 5.691813137120513], [27.723154043857914, 5.691813137120513], [27.723154043857914, 5.655773925988191], [27.74127434666038, 5.655773925988191], [27.74127434666038, 5.6197369001620405], [27.723154043857914, 5.6197369001620405], [27.723154043857914, 5.583702045358143], [27.705033741055455, 5.583702045358143], [27.705033741055455, 5.56568542762796], [27.723154043857914, 5.56568542762796], [27.723154043857914, 5.5476693473004195], [27.705033741055455, 5.5476693473004195], [27.705033741055455, 5.493624312903104], [27.68691343825299, 5.493624312903104], [27.68691343825299, 5.475610364357997], [27.65067283264806, 5.475610364357997], [27.65067283264806, 5.439584050959814], [27.614432227043135, 5.439584050959814], [27.614432227043135, 5.421571682545419], [27.59631192424067, 5.421571682545419], [27.59631192424067, 5.403559837280727], [27.578191621438208, 5.403559837280727], [27.578191621438208, 5.36753770908301], [27.560071318635746, 5.36753770908301], [27.560071318635746, 5.349527422592431], [27.487590107425888, 5.349527422592431], [27.487590107425888, 5.33151765213645], [27.37886829061111, 5.33151765213645], [27.37886829061111, 5.313508395937449], [27.360747987808644, 5.313508395937449], [27.360747987808644, 5.295499652218284], [27.34262768500618, 5.295499652218284], [27.34262768500618, 5.277491419202265], [27.306387079401254, 5.277491419202265], [27.306387079401254, 5.259483695113163], [27.270146473796327, 5.259483695113163], [27.270146473796327, 5.295499652218284], [27.17954495978401, 5.295499652218284], [27.17954495978401, 5.349527422592431], [27.197665262586472, 5.349527422592431], [27.197665262586472, 5.36753770908301], [27.215785565388934, 5.36753770908301], [27.215785565388934, 5.3855485133862615], [27.2339058681914, 5.3855485133862615], [27.2339058681914, 5.403559837280727], [27.252026170993865, 5.403559837280727], [27.252026170993865, 5.421571682545419], [27.32450738220372, 5.421571682545419], [27.32450738220372, 5.439584050959814], [27.34262768500618, 5.439584050959814], [27.34262768500618, 5.475610364357997], [27.360747987808644, 5.475610364357997], [27.360747987808644, 5.493624312903104], [27.37886829061111, 5.493624312903104], [27.37886829061111, 5.529653802592224], [27.39698859341357, 5.529653802592224], [27.39698859341357, 5.5476693473004195], [27.415108896216033, 5.5476693473004195], [27.415108896216033, 5.56568542762796], [27.451349501820964, 5.56568542762796], [27.451349501820964, 5.601719202274747], [27.469469804623426, 5.601719202274747], [27.469469804623426, 5.6377551408047735], [27.487590107425888, 5.6377551408047735], [27.487590107425888, 5.691813137120513], [27.505710410228353, 5.691813137120513], [27.505710410228353, 5.67379325749803], [27.578191621438208, 5.67379325749803], [27.578191621438208, 5.655773925988191], [27.65067283264806, 5.655773925988191], [27.65067283264806, 5.691813137120513], [27.668793135450525, 5.691813137120513], [27.668793135450525, 5.7098335666423665]]]}}, {"type": "Feature", "properties": {"uid": 31, "seed": "Ibba", "seed_kind": "conservancy", "area_km2": 1468.0, "area_ha": 146800, "country": "SSD", "in_zones": "[]", "overlaps": "[]", "km_to_park": 64.6, "clusters": 29, "population_est": 17578, "pop_per_km2": 11.974, "new_since_2015": 2, "camps": 19, "built_km2": 1.29, "built_2000_km2": 0.34, "built_2015_km2": 0.59, "towns": "[\"Ibba River* 11,055\", \"Ibba River* 2,271\"]", "fire_det_2024_25": 11719, "fire_per_1000km2_yr": 3991, "fire_nov_feb_share": 0.65, "fronts": 1735, "fronts_per_1000km2": 1181.9, "fronts_transhumance_pct": 98, "fronts_long": 1038, "fronts_long_per_1000km2": 707.08, "front_dirs": "{\"SE\": 332, \"NW\": 307, \"N\": 210}", "clearing_events": 90, "clearing_km2": 5.37, "clearing_since_2020_km2": 0.45, "clearing_encroach_slash": 7, "mine_reported": 0, "mine_candidates": 1, "mine_top05_cells": 11, "mine_watchlist": 2, "cropland_2003_pct": 0.01, "cropland_2019_pct": 0.28, "boundary_legibility": 0.43, "built_growth_x": 3.8, "cls": "community", "boundary": "[\"Pools (1930s sheet) on the NE/S (28 km)\", \"Nahr al Jur on the W (26 km)\", \"Ibba on the E (18 km)\", \"A. Lingi (1930s sheet) on the W/SW (16 km)\", \"K. Nuduk (1930s sheet) on the W/NW (12 km)\", \"K. Fagol (1930s sheet) on the NE (10 km)\"]", "perimeter_km": 198, "unattributed_pct": 38, "park_sector": "E"}, "geometry": {"type": "Polygon", "coordinates": [[[28.538567669968778, 7.569220647160049], [28.611048881178633, 7.569220647160049], [28.611048881178633, 7.5511339070395245], [28.592928578376167, 7.5511339070395245], [28.592928578376167, 7.533047903824164], [28.611048881178633, 7.533047903824164], [28.611048881178633, 7.514962635666978], [28.70165039519095, 7.514962635666978], [28.70165039519095, 7.460711223084615], [28.737891000795877, 7.460711223084615], [28.737891000795877, 7.442628876703652], [28.756011303598342, 7.442628876703652], [28.756011303598342, 7.4245472561559955], [28.774131606400804, 7.4245472561559955], [28.774131606400804, 7.334149976436806], [28.756011303598342, 7.334149976436806], [28.756011303598342, 7.2979960809295985], [28.71977069799341, 7.2979960809295985], [28.71977069799341, 7.27992020075736], [28.683530092388484, 7.27992020075736], [28.683530092388484, 7.261845029855554], [28.64728948678356, 7.261845029855554], [28.64728948678356, 7.27992020075736], [28.55668797277124, 7.27992020075736], [28.55668797277124, 7.31607267220997], [28.50232706436385, 7.31607267220997], [28.50232706436385, 7.334149976436806], [28.48420676156139, 7.334149976436806], [28.48420676156139, 7.352227995449113], [28.429845853153996, 7.352227995449113], [28.429845853153996, 7.334149976436806], [28.35736464194414, 7.334149976436806], [28.35736464194414, 7.31607267220997], [28.339244339141676, 7.31607267220997], [28.339244339141676, 7.2979960809295985], [28.284883430734286, 7.2979960809295985], [28.284883430734286, 7.27992020075736], [28.19428191672197, 7.27992020075736], [28.19428191672197, 7.2979960809295985], [28.085560099907187, 7.2979960809295985], [28.085560099907187, 7.31607267220997], [28.10368040270965, 7.31607267220997], [28.10368040270965, 7.352227995449113], [28.121800705512115, 7.352227995449113], [28.121800705512115, 7.3883861851894075], [28.10368040270965, 7.3883861851894075], [28.10368040270965, 7.4064663595986815], [28.121800705512115, 7.4064663595986815], [28.121800705512115, 7.442628876703652], [28.13992100831458, 7.442628876703652], [28.13992100831458, 7.478794297142507], [28.158041311117042, 7.478794297142507], [28.158041311117042, 7.496878100721639], [28.13992100831458, 7.496878100721639], [28.13992100831458, 7.514962635666978], [28.19428191672197, 7.514962635666978], [28.19428191672197, 7.478794297142507], [28.21240221952443, 7.478794297142507], [28.21240221952443, 7.460711223084615], [28.230522522326897, 7.460711223084615], [28.230522522326897, 7.478794297142507], [28.35736464194414, 7.478794297142507], [28.35736464194414, 7.442628876703652], [28.44796615595646, 7.442628876703652], [28.44796615595646, 7.4245472561559955], [28.48420676156139, 7.4245472561559955], [28.48420676156139, 7.460711223084615], [28.50232706436385, 7.460711223084615], [28.50232706436385, 7.514962635666978], [28.538567669968778, 7.514962635666978], [28.538567669968778, 7.569220647160049]]]}}, {"type": "Feature", "properties": {"uid": 3, "seed": "Obo", "seed_kind": "conservancy", "area_km2": 264.0, "area_ha": 26400, "country": "CAF", "in_zones": "[]", "overlaps": "[]", "km_to_park": 90.4, "clusters": 8, "population_est": 17518, "pop_per_km2": 66.356, "new_since_2015": 0, "camps": 5, "built_km2": 0.8, "built_2000_km2": 0.48, "built_2015_km2": 0.65, "towns": "[\"Obo 17,249\"]", "fire_det_2024_25": 1079, "fire_per_1000km2_yr": 2044, "fire_nov_feb_share": 0.76, "fronts": 381, "fronts_per_1000km2": 1443.2, "fronts_transhumance_pct": 97, "fronts_long": 224, "fronts_long_per_1000km2": 848.48, "front_dirs": "{\"W\": 91, \"SW\": 79, \"E\": 50}", "clearing_events": 29, "clearing_km2": 22.48, "clearing_since_2020_km2": 13.49, "clearing_encroach_slash": 14, "mine_reported": 1, "mine_candidates": 0, "mine_top05_cells": 0, "mine_watchlist": 0, "cropland_2003_pct": 0.0, "cropland_2019_pct": 0.0, "boundary_legibility": null, "built_growth_x": 1.7, "cls": "community", "boundary": "[\"primary road on the S/SE (22 km)\", \"Gari (1930s sheet) on the NE/E (18 km)\", \"Ouarra River on the NW/N (14 km)\", \"tertiary road on the NW (8 km)\"]", "perimeter_km": 74, "unattributed_pct": 16, "park_sector": "S"}, "geometry": {"type": "Polygon", "coordinates": [[[26.454732847685467, 5.493624312903104], [26.47285315048793, 5.493624312903104], [26.47285315048793, 5.439584050959814], [26.490973453290394, 5.439584050959814], [26.490973453290394, 5.421571682545419], [26.509093756092856, 5.421571682545419], [26.509093756092856, 5.439584050959814], [26.527214058895318, 5.439584050959814], [26.527214058895318, 5.457596944303868], [26.545334361697783, 5.457596944303868], [26.545334361697783, 5.439584050959814], [26.58157496730271, 5.439584050959814], [26.58157496730271, 5.403559837280727], [26.599695270105173, 5.403559837280727], [26.599695270105173, 5.277491419202265], [26.58157496730271, 5.277491419202265], [26.58157496730271, 5.259483695113163], [26.599695270105173, 5.259483695113163], [26.599695270105173, 5.241476478175207], [26.617815572907638, 5.241476478175207], [26.617815572907638, 5.223469766613077], [26.599695270105173, 5.223469766613077], [26.599695270105173, 5.205463558651921], [26.545334361697783, 5.205463558651921], [26.545334361697783, 5.313508395937449], [26.527214058895318, 5.313508395937449], [26.527214058895318, 5.33151765213645], [26.509093756092856, 5.33151765213645], [26.509093756092856, 5.36753770908301], [26.454732847685467, 5.36753770908301], [26.454732847685467, 5.3855485133862615], [26.436612544883, 5.3855485133862615], [26.436612544883, 5.403559837280727], [26.454732847685467, 5.403559837280727], [26.454732847685467, 5.493624312903104]]]}}, {"type": "Feature", "properties": {"uid": 62, "seed": "Ibba", "seed_kind": "conservancy", "area_km2": 1356.0, "area_ha": 135600, "country": "SSD", "in_zones": "[]", "overlaps": "[]", "km_to_park": 52.0, "clusters": 28, "population_est": 8448, "pop_per_km2": 6.23, "new_since_2015": 1, "camps": 23, "built_km2": 0.37, "built_2000_km2": 0.1, "built_2015_km2": 0.16, "towns": "[\"Ibba River* 6,913\"]", "fire_det_2024_25": 11733, "fire_per_1000km2_yr": 4326, "fire_nov_feb_share": 0.68, "fronts": 1666, "fronts_per_1000km2": 1228.6, "fronts_transhumance_pct": 99, "fronts_long": 1020, "fronts_long_per_1000km2": 752.21, "front_dirs": "{\"SE\": 335, \"NW\": 263, \"S\": 231}", "clearing_events": 82, "clearing_km2": 1.52, "clearing_since_2020_km2": 0.34, "clearing_encroach_slash": 18, "mine_reported": 0, "mine_candidates": 1, "mine_top05_cells": 16, "mine_watchlist": 1, "cropland_2003_pct": 0.0, "cropland_2019_pct": 0.02, "boundary_legibility": 0.34, "built_growth_x": 3.7, "cls": "community", "boundary": "[\"Ibba on the E/SE (22 km)\", \"K. Ateir (1930s sheet) on the W/SW (20 km)\", \"A. Lingi (1930s sheet) on the NW/W (18 km)\", \"Nahr al Jur on the W (16 km)\", \"Pools (1930s sheet) on the NE (4 km)\", \"unnamed river (order 4) on the E (4 km)\"]", "perimeter_km": 170, "unattributed_pct": 47, "park_sector": "E"}, "geometry": {"type": "Polygon", "coordinates": [[[28.429845853153996, 7.352227995449113], [28.48420676156139, 7.352227995449113], [28.48420676156139, 7.334149976436806], [28.50232706436385, 7.334149976436806], [28.50232706436385, 7.31607267220997], [28.55668797277124, 7.31607267220997], [28.55668797277124, 7.27992020075736], [28.64728948678356, 7.27992020075736], [28.64728948678356, 7.261845029855554], [28.665409789586025, 7.261845029855554], [28.665409789586025, 7.225696808515738], [28.64728948678356, 7.225696808515738], [28.64728948678356, 7.1534087962949675], [28.629169183981098, 7.1534087962949675], [28.629169183981098, 7.135338538885316], [28.611048881178633, 7.135338538885316], [28.611048881178633, 7.117268976067851], [28.538567669968778, 7.117268976067851], [28.538567669968778, 7.0269315167690705], [28.520447367166316, 7.0269315167690705], [28.520447367166316, 7.008866083057012], [28.50232706436385, 7.008866083057012], [28.50232706436385, 7.044997634091408], [28.48420676156139, 7.044997634091408], [28.48420676156139, 7.063064436852769], [28.375484944746606, 7.063064436852769], [28.375484944746606, 7.0811319268825255], [28.321124036339217, 7.0811319268825255], [28.321124036339217, 7.099200106010676], [28.375484944746606, 7.099200106010676], [28.375484944746606, 7.117268976067851], [28.266763127931824, 7.117268976067851], [28.266763127931824, 7.135338538885316], [28.230522522326897, 7.135338538885316], [28.230522522326897, 7.1534087962949675], [28.176161613919508, 7.1534087962949675], [28.176161613919508, 7.171479750129345], [28.10368040270965, 7.171479750129345], [28.10368040270965, 7.189551402221619], [28.085560099907187, 7.189551402221619], [28.085560099907187, 7.207623754405596], [27.99495858589487, 7.207623754405596], [27.99495858589487, 7.225696808515738], [28.085560099907187, 7.225696808515738], [28.085560099907187, 7.2979960809295985], [28.19428191672197, 7.2979960809295985], [28.19428191672197, 7.27992020075736], [28.284883430734286, 7.27992020075736], [28.284883430734286, 7.2979960809295985], [28.339244339141676, 7.2979960809295985], [28.339244339141676, 7.31607267220997], [28.35736464194414, 7.31607267220997], [28.35736464194414, 7.334149976436806], [28.429845853153996, 7.334149976436806], [28.429845853153996, 7.352227995449113]]]}}, {"type": "Feature", "properties": {"uid": 69, "seed": "Busseri", "seed_kind": "conservancy", "area_km2": 44.0, "area_ha": 4400, "country": "SSD", "in_zones": "[]", "overlaps": "[]", "km_to_park": 115.6, "clusters": 3, "population_est": 4456, "pop_per_km2": 101.273, "new_since_2015": 2, "camps": 0, "built_km2": 0.37, "built_2000_km2": 0.02, "built_2015_km2": 0.07, "towns": "[\"Busseri River* 2,489\", \"Nahr al Jur* 1,780\"]", "fire_det_2024_25": 0, "fire_per_1000km2_yr": 0, "fire_nov_feb_share": null, "fronts": 243, "fronts_per_1000km2": 5522.7, "fronts_transhumance_pct": 100, "fronts_long": 171, "fronts_long_per_1000km2": 3886.36, "front_dirs": "{\"SE\": 52, \"NW\": 50, \"N\": 49}", "clearing_events": 1, "clearing_km2": 0.01, "clearing_since_2020_km2": 0.0, "clearing_encroach_slash": 0, "mine_reported": 0, "mine_candidates": 0, "mine_top05_cells": 0, "mine_watchlist": 0, "cropland_2003_pct": 0.0, "cropland_2019_pct": 2.13, "boundary_legibility": 0.15, "built_growth_x": 18.5, "cls": "community", "boundary": "[\"Nahr al Jur on the E (4 km)\"]", "perimeter_km": 22, "unattributed_pct": 82, "park_sector": "NE"}, "geometry": {"type": "Polygon", "coordinates": [[[27.84999616347516, 8.18462150299617], [28.04931949430226, 8.18462150299617], [28.04931949430226, 8.166508604184097], [27.84999616347516, 8.166508604184097], [27.84999616347516, 8.18462150299617]]]}}, {"type": "Feature", "properties": {"uid": 20, "seed": "unit 20", "seed_kind": "conservancy", "area_km2": 1396.0, "area_ha": 139600, "country": "SSD", "in_zones": "[]", "overlaps": "[]", "km_to_park": 57.6, "clusters": 29, "population_est": 3642, "pop_per_km2": 2.609, "new_since_2015": 0, "camps": 21, "built_km2": 0.15, "built_2000_km2": 0.08, "built_2015_km2": 0.09, "towns": "[]", "fire_det_2024_25": 13946, "fire_per_1000km2_yr": 4995, "fire_nov_feb_share": 0.71, "fronts": 1609, "fronts_per_1000km2": 1152.6, "fronts_transhumance_pct": 98, "fronts_long": 1031, "fronts_long_per_1000km2": 738.54, "front_dirs": "{\"NW\": 303, \"N\": 239, \"SE\": 219}", "clearing_events": 65, "clearing_km2": 1.5, "clearing_since_2020_km2": 0.37, "clearing_encroach_slash": 2, "mine_reported": 0, "mine_candidates": 1, "mine_top05_cells": 16, "mine_watchlist": 1, "cropland_2003_pct": 0.0, "cropland_2019_pct": 0.0, "boundary_legibility": 0.55, "built_growth_x": 1.9, "cls": "community", "boundary": "[\"K Akali (1930s sheet) on the SE/S (24 km)\", \"unnamed river (order 4) on the N/SW (22 km)\", \"R.Keetar (1930s sheet) on the W/NW (20 km)\", \"R. K. (1930s sheet) on the NE (16 km)\", \"Gandu (1930s sheet) on the SW (12 km)\", \"K. Relleh (1930s sheet) on the E (10 km)\"]", "perimeter_km": 168, "unattributed_pct": 20, "park_sector": "NE"}, "geometry": {"type": "Polygon", "coordinates": [[[27.614432227043135, 8.22084970846511], [27.6325525298456, 8.22084970846511], [27.6325525298456, 8.202735203798978], [27.65067283264806, 8.202735203798978], [27.65067283264806, 8.094064991417186], [27.668793135450525, 8.094064991417186], [27.668793135450525, 8.075956074495794], [27.74127434666038, 8.075956074495794], [27.74127434666038, 8.003528295846708], [27.759394649462845, 8.003528295846708], [27.759394649462845, 7.985423314111889], [27.777514952265307, 7.985423314111889], [27.777514952265307, 7.9130111829469305], [27.74127434666038, 7.9130111829469305], [27.74127434666038, 7.894910089785711], [27.705033741055455, 7.894910089785711], [27.705033741055455, 7.9130111829469305], [27.68691343825299, 7.9130111829469305], [27.68691343825299, 7.931113050098162], [27.668793135450525, 7.931113050098162], [27.668793135450525, 7.9130111829469305], [27.614432227043135, 7.9130111829469305], [27.614432227043135, 7.894910089785711], [27.59631192424067, 7.894910089785711], [27.59631192424067, 7.8768097687535885], [27.560071318635746, 7.8768097687535885], [27.560071318635746, 7.858710217990361], [27.54195101583328, 7.858710217990361], [27.54195101583328, 7.840611435636537], [27.523830713030815, 7.840611435636537], [27.523830713030815, 7.8225134198333315], [27.39698859341357, 7.8225134198333315], [27.39698859341357, 7.858710217990361], [27.37886829061111, 7.858710217990361], [27.37886829061111, 7.8768097687535885], [27.360747987808644, 7.8768097687535885], [27.360747987808644, 7.894910089785711], [27.37886829061111, 7.894910089785711], [27.37886829061111, 7.9130111829469305], [27.469469804623426, 7.9130111829469305], [27.469469804623426, 7.931113050098162], [27.37886829061111, 7.931113050098162], [27.37886829061111, 7.949215693101051], [27.306387079401254, 7.949215693101051], [27.306387079401254, 7.967319113817935], [27.252026170993865, 7.967319113817935], [27.252026170993865, 8.039740611097713], [27.270146473796327, 8.039740611097713], [27.270146473796327, 8.057847948345113], [27.306387079401254, 8.057847948345113], [27.306387079401254, 8.075956074495794], [27.39698859341357, 8.075956074495794], [27.39698859341357, 8.112174700977448], [27.415108896216033, 8.112174700977448], [27.415108896216033, 8.130285205045478], [27.469469804623426, 8.130285205045478], [27.469469804623426, 8.148396505490906], [27.523830713030815, 8.148396505490906], [27.523830713030815, 8.166508604184097], [27.54195101583328, 8.166508604184097], [27.54195101583328, 8.18462150299617], [27.560071318635746, 8.18462150299617], [27.560071318635746, 8.202735203798978], [27.614432227043135, 8.202735203798978], [27.614432227043135, 8.22084970846511]]]}}, {"type": "Feature", "properties": {"uid": 125, "seed": "Senekpuro", "seed_kind": "conservancy", "area_km2": 1100.0, "area_ha": 110000, "country": "SSD", "in_zones": "[]", "overlaps": "[]", "km_to_park": 50.5, "clusters": 16, "population_est": 3498, "pop_per_km2": 3.18, "new_since_2015": 0, "camps": 13, "built_km2": 0.28, "built_2000_km2": 0.09, "built_2015_km2": 0.13, "towns": "[\"Senekpuro 2,821\"]", "fire_det_2024_25": 7770, "fire_per_1000km2_yr": 3532, "fire_nov_feb_share": 0.87, "fronts": 1223, "fronts_per_1000km2": 1111.8, "fronts_transhumance_pct": 99, "fronts_long": 794, "fronts_long_per_1000km2": 721.82, "front_dirs": "{\"NW\": 231, \"N\": 205, \"SE\": 163}", "clearing_events": 58, "clearing_km2": 33.78, "clearing_since_2020_km2": 13.98, "clearing_encroach_slash": 30, "mine_reported": 1, "mine_candidates": 0, "mine_top05_cells": 16, "mine_watchlist": 0, "cropland_2003_pct": 0.0, "cropland_2019_pct": 0.02, "boundary_legibility": 0.54, "built_growth_x": 3.1, "cls": "community", "boundary": "[\"Tambura - Yubo Road on the SW/S (24 km)\", \"R. Chamika (1930s sheet) on the NE/N (18 km)\", \"R. Yangali (1930s sheet) on the NE/E (14 km)\", \"K. Barange (1930s sheet) on the E/SE (14 km)\", \"CAF border on the SW/W (14 km)\", \"R. Duma (1930s sheet) on the NE (12 km)\"]", "perimeter_km": 166, "unattributed_pct": 8, "park_sector": "S"}, "geometry": {"type": "Polygon", "coordinates": [[[27.6325525298456, 5.9441500051384875], [27.705033741055455, 5.9441500051384875], [27.705033741055455, 5.890068499762194], [27.68691343825299, 5.890068499762194], [27.68691343825299, 5.835992120667014], [27.668793135450525, 5.835992120667014], [27.668793135450525, 5.76389817247882], [27.6325525298456, 5.76389817247882], [27.6325525298456, 5.745876082533553], [27.614432227043135, 5.745876082533553], [27.614432227043135, 5.7098335666423665], [27.59631192424067, 5.7098335666423665], [27.59631192424067, 5.67379325749803], [27.505710410228353, 5.67379325749803], [27.505710410228353, 5.691813137120513], [27.487590107425888, 5.691813137120513], [27.487590107425888, 5.6377551408047735], [27.469469804623426, 5.6377551408047735], [27.469469804623426, 5.601719202274747], [27.451349501820964, 5.601719202274747], [27.451349501820964, 5.56568542762796], [27.415108896216033, 5.56568542762796], [27.415108896216033, 5.5476693473004195], [27.39698859341357, 5.5476693473004195], [27.39698859341357, 5.529653802592224], [27.37886829061111, 5.529653802592224], [27.37886829061111, 5.493624312903104], [27.360747987808644, 5.493624312903104], [27.360747987808644, 5.475610364357997], [27.34262768500618, 5.475610364357997], [27.34262768500618, 5.439584050959814], [27.32450738220372, 5.439584050959814], [27.32450738220372, 5.421571682545419], [27.2339058681914, 5.421571682545419], [27.2339058681914, 5.56568542762796], [27.215785565388934, 5.56568542762796], [27.215785565388934, 5.6377551408047735], [27.197665262586472, 5.6377551408047735], [27.197665262586472, 5.655773925988191], [27.252026170993865, 5.655773925988191], [27.252026170993865, 5.67379325749803], [27.28826677659879, 5.67379325749803], [27.28826677659879, 5.691813137120513], [27.306387079401254, 5.691813137120513], [27.306387079401254, 5.7098335666423665], [27.32450738220372, 5.7098335666423665], [27.32450738220372, 5.727854547850807], [27.34262768500618, 5.727854547850807], [27.34262768500618, 5.745876082533553], [27.360747987808644, 5.745876082533553], [27.360747987808644, 5.76389817247882], [27.39698859341357, 5.76389817247882], [27.39698859341357, 5.781920819475325], [27.415108896216033, 5.781920819475325], [27.415108896216033, 5.76389817247882], [27.451349501820964, 5.76389817247882], [27.451349501820964, 5.781920819475325], [27.505710410228353, 5.781920819475325], [27.505710410228353, 5.799944025312293], [27.560071318635746, 5.799944025312293], [27.560071318635746, 5.817967791779444], [27.578191621438208, 5.817967791779444], [27.578191621438208, 5.835992120667014], [27.614432227043135, 5.835992120667014], [27.614432227043135, 5.854017013765743], [27.6325525298456, 5.854017013765743], [27.6325525298456, 5.9441500051384875]]]}}, {"type": "Feature", "properties": {"uid": 33, "seed": "Nahr", "seed_kind": "conservancy", "area_km2": 1188.0, "area_ha": 118800, "country": "SSD", "in_zones": "[]", "overlaps": "[\"PLAN Wau-Wilderness_30,329km2 37%\", \"PLAN Southern-NP-Wilderness_41'590km2 11%\"]", "km_to_park": 2.0, "clusters": 5, "population_est": 3057, "pop_per_km2": 2.573, "new_since_2015": 1, "camps": 1, "built_km2": 0.01, "built_2000_km2": 0.0, "built_2015_km2": 0.01, "towns": "[\"Nahr al Jur* 1,192\", \"Bo River* 1,076\"]", "fire_det_2024_25": 9217, "fire_per_1000km2_yr": 3879, "fire_nov_feb_share": 0.95, "fronts": 722, "fronts_per_1000km2": 607.7, "fronts_transhumance_pct": 97, "fronts_long": 501, "fronts_long_per_1000km2": 421.72, "front_dirs": "{\"N\": 132, \"S\": 114, \"NE\": 96}", "clearing_events": 37, "clearing_km2": 6.41, "clearing_since_2020_km2": 1.58, "clearing_encroach_slash": 6, "mine_reported": 0, "mine_candidates": 0, "mine_top05_cells": 7, "mine_watchlist": 0, "cropland_2003_pct": 0.0, "cropland_2019_pct": 0.0, "boundary_legibility": 0.51, "built_growth_x": null, "cls": "community", "boundary": "[\"Bo River on the SW/N (92 km)\", \"Nahr al Jur on the NE/SE (44 km)\", \"Islands (1930s sheet) on the E/SE (6 km)\", \"Rapids (1930s sheet) on the NE (4 km)\"]", "perimeter_km": 202, "unattributed_pct": 28, "park_sector": "SE"}, "geometry": {"type": "Polygon", "coordinates": [[[27.868116466277627, 6.6657503007800445], [27.90435707188255, 6.6657503007800445], [27.90435707188255, 6.647698156187535], [27.94059767748748, 6.647698156187535], [27.94059767748748, 6.6115958012322995], [27.958717980289943, 6.6115958012322995], [27.958717980289943, 6.575496013150397], [27.94059767748748, 6.575496013150397], [27.94059767748748, 6.539398777430352], [27.922477374685016, 6.539398777430352], [27.922477374685016, 6.46721190507637], [27.868116466277627, 6.46721190507637], [27.868116466277627, 6.449166759565559], [27.84999616347516, 6.449166759565559], [27.84999616347516, 6.431122239465738], [27.8318758606727, 6.431122239465738], [27.8318758606727, 6.413078342967868], [27.813755557870234, 6.413078342967868], [27.813755557870234, 6.37699241354463], [27.90435707188255, 6.37699241354463], [27.90435707188255, 6.413078342967868], [27.922477374685016, 6.413078342967868], [27.922477374685016, 6.358950377004004], [27.90435707188255, 6.358950377004004], [27.90435707188255, 6.322868151230804], [27.88623676908009, 6.322868151230804], [27.88623676908009, 6.304827958386333], [27.868116466277627, 6.304827958386333], [27.868116466277627, 6.286788376496282], [27.84999616347516, 6.286788376496282], [27.84999616347516, 6.250711038361766], [27.8318758606727, 6.250711038361766], [27.8318758606727, 6.23267327850984], [27.84999616347516, 6.23267327850984], [27.84999616347516, 6.214636122397419], [27.8318758606727, 6.214636122397419], [27.8318758606727, 6.196599568222144], [27.79563525506777, 6.196599568222144], [27.79563525506777, 6.214636122397419], [27.723154043857914, 6.214636122397419], [27.723154043857914, 6.23267327850984], [27.705033741055455, 6.23267327850984], [27.705033741055455, 6.250711038361766], [27.614432227043135, 6.250711038361766], [27.614432227043135, 6.214636122397419], [27.560071318635746, 6.214636122397419], [27.560071318635746, 6.286788376496282], [27.523830713030815, 6.286788376496282], [27.523830713030815, 6.268749403756095], [27.505710410228353, 6.268749403756095], [27.505710410228353, 6.250711038361766], [27.487590107425888, 6.250711038361766], [27.487590107425888, 6.23267327850984], [27.469469804623426, 6.23267327850984], [27.469469804623426, 6.142493499303824], [27.451349501820964, 6.142493499303824], [27.451349501820964, 6.196599568222144], [27.4332291990185, 6.196599568222144], [27.4332291990185, 6.214636122397419], [27.451349501820964, 6.214636122397419], [27.451349501820964, 6.304827958386333], [27.560071318635746, 6.304827958386333], [27.560071318635746, 6.322868151230804], [27.578191621438208, 6.322868151230804], [27.578191621438208, 6.358950377004004], [27.59631192424067, 6.358950377004004], [27.59631192424067, 6.37699241354463], [27.65067283264806, 6.37699241354463], [27.65067283264806, 6.431122239465738], [27.668793135450525, 6.431122239465738], [27.668793135450525, 6.449166759565559], [27.68691343825299, 6.449166759565559], [27.68691343825299, 6.46721190507637], [27.759394649462845, 6.46721190507637], [27.759394649462845, 6.503304079569989], [27.74127434666038, 6.503304079569989], [27.74127434666038, 6.557447077151746], [27.759394649462845, 6.557447077151746], [27.759394649462845, 6.575496013150397], [27.79563525506777, 6.575496013150397], [27.79563525506777, 6.557447077151746], [27.8318758606727, 6.557447077151746], [27.8318758606727, 6.6115958012322995], [27.84999616347516, 6.6115958012322995], [27.84999616347516, 6.647698156187535], [27.868116466277627, 6.647698156187535], [27.868116466277627, 6.6657503007800445]]]}}, {"type": "Feature", "properties": {"uid": 112, "seed": "Nahr", "seed_kind": "conservancy", "area_km2": 1484.0, "area_ha": 148400, "country": "SSD", "in_zones": "[]", "overlaps": "[]", "km_to_park": 84.9, "clusters": 39, "population_est": 2339, "pop_per_km2": 1.576, "new_since_2015": 1, "camps": 36, "built_km2": 0.1, "built_2000_km2": 0.03, "built_2015_km2": 0.04, "towns": "[\"Nahr al Jur* 1,350\"]", "fire_det_2024_25": 9658, "fire_per_1000km2_yr": 3254, "fire_nov_feb_share": 0.67, "fronts": 1536, "fronts_per_1000km2": 1035.0, "fronts_transhumance_pct": 98, "fronts_long": 888, "fronts_long_per_1000km2": 598.38, "front_dirs": "{\"NW\": 278, \"SE\": 246, \"N\": 209}", "clearing_events": 92, "clearing_km2": 4.48, "clearing_since_2020_km2": 0.25, "clearing_encroach_slash": 6, "mine_reported": 0, "mine_candidates": 1, "mine_top05_cells": 7, "mine_watchlist": 1, "cropland_2003_pct": 0.0, "cropland_2019_pct": 0.16, "boundary_legibility": 0.42, "built_growth_x": 3.3, "cls": "community", "boundary": "[\"Pools (1930s sheet) on the SE/E (22 km)\", \"1930s Sub-tribal Boundary on the NE/N (20 km)\", \"Nahr al Jur on the W/SW (18 km)\", \"1930s W. District Boundary on the NW/N (16 km)\", \"K. Nuduk (1930s sheet) on the SW/W (16 km)\", \"K. Fagol (1930s sheet) on the E/SE (12 km)\"]", "perimeter_km": 232, "unattributed_pct": 51, "park_sector": "NE"}, "geometry": {"type": "Polygon", "coordinates": [[[28.10368040270965, 7.804416168722675], [28.176161613919508, 7.804416168722675], [28.176161613919508, 7.732034774068742], [28.19428191672197, 7.732034774068742], [28.19428191672197, 7.804416168722675], [28.284883430734286, 7.804416168722675], [28.284883430734286, 7.768223953150242], [28.30300373353675, 7.768223953150242], [28.30300373353675, 7.750128984975846], [28.339244339141676, 7.750128984975846], [28.339244339141676, 7.768223953150242], [28.35736464194414, 7.768223953150242], [28.35736464194414, 7.641575013657493], [28.375484944746606, 7.641575013657493], [28.375484944746606, 7.786319680447201], [28.41172555035153, 7.786319680447201], [28.41172555035153, 7.804416168722675], [28.44796615595646, 7.804416168722675], [28.44796615595646, 7.641575013657493], [28.592928578376167, 7.641575013657493], [28.592928578376167, 7.60539634550797], [28.611048881178633, 7.60539634550797], [28.611048881178633, 7.569220647160049], [28.538567669968778, 7.569220647160049], [28.538567669968778, 7.514962635666978], [28.50232706436385, 7.514962635666978], [28.50232706436385, 7.460711223084615], [28.48420676156139, 7.460711223084615], [28.48420676156139, 7.4245472561559955], [28.44796615595646, 7.4245472561559955], [28.44796615595646, 7.442628876703652], [28.35736464194414, 7.442628876703652], [28.35736464194414, 7.478794297142507], [28.230522522326897, 7.478794297142507], [28.230522522326897, 7.460711223084615], [28.21240221952443, 7.460711223084615], [28.21240221952443, 7.478794297142507], [28.19428191672197, 7.478794297142507], [28.19428191672197, 7.514962635666978], [28.13992100831458, 7.514962635666978], [28.13992100831458, 7.5873081260334105], [28.158041311117042, 7.5873081260334105], [28.158041311117042, 7.623485307432754], [28.176161613919508, 7.623485307432754], [28.176161613919508, 7.695848616638902], [28.04931949430226, 7.695848616638902], [28.04931949430226, 7.677756666409125], [28.031199191499795, 7.677756666409125], [28.031199191499795, 7.695848616638902], [28.013078888697336, 7.695848616638902], [28.013078888697336, 7.768223953150242], [28.10368040270965, 7.768223953150242], [28.10368040270965, 7.804416168722675]]]}}, {"type": "Feature", "properties": {"uid": 3498, "seed": "unit 3498", "seed_kind": "conservancy", "area_km2": 2224.0, "area_ha": 222400, "country": "SSD", "in_zones": "[\"PLAN Wau-Wilderness_30,329km2\"]", "overlaps": "[\"PLAN Wau-Wilderness_30,329km2 53%\", \"PLAN zone-p\\u00e2turage-durable_Numatina_15'000km2 32%\"]", "km_to_park": 4.0, "clusters": 18, "population_est": 2205, "pop_per_km2": 0.991, "new_since_2015": 0, "camps": 15, "built_km2": 0.01, "built_2000_km2": 0.01, "built_2015_km2": 0.01, "towns": "[]", "fire_det_2024_25": 22177, "fire_per_1000km2_yr": 4986, "fire_nov_feb_share": 0.97, "fronts": 1063, "fronts_per_1000km2": 478.0, "fronts_transhumance_pct": 98, "fronts_long": 708, "fronts_long_per_1000km2": 318.35, "front_dirs": "{\"N\": 221, \"S\": 149, \"NW\": 139}", "clearing_events": 33, "clearing_km2": 1.35, "clearing_since_2020_km2": 0.66, "clearing_encroach_slash": 14, "mine_reported": 0, "mine_candidates": 2, "mine_top05_cells": 19, "mine_watchlist": 1, "cropland_2003_pct": 0.0, "cropland_2019_pct": 0.0, "boundary_legibility": 0.31, "built_growth_x": null, "cls": "community", "boundary": "[\"Bo River on the NE/N (32 km)\", \"Nahr al Jur on the E/NE (26 km)\", \"R. Imatima (1930s sheet) on the W (24 km)\", \"unnamed river (order 4) on the NW/W (14 km)\", \"R. Duma (1930s sheet) on the S/SE (14 km)\", \"R. Yabo (1930s sheet) on the SE/E (10 km)\"]", "perimeter_km": 348, "unattributed_pct": 63, "park_sector": "SE"}, "geometry": {"type": "Polygon", "coordinates": [[[27.523830713030815, 6.286788376496282], [27.560071318635746, 6.286788376496282], [27.560071318635746, 6.214636122397419], [27.614432227043135, 6.214636122397419], [27.614432227043135, 6.250711038361766], [27.705033741055455, 6.250711038361766], [27.705033741055455, 6.23267327850984], [27.723154043857914, 6.23267327850984], [27.723154043857914, 6.214636122397419], [27.79563525506777, 6.214636122397419], [27.79563525506777, 6.196599568222144], [27.813755557870234, 6.196599568222144], [27.813755557870234, 6.178563614182206], [27.79563525506777, 6.178563614182206], [27.79563525506777, 6.142493499303824], [27.813755557870234, 6.142493499303824], [27.813755557870234, 6.124459334864475], [27.705033741055455, 6.124459334864475], [27.705033741055455, 6.106425763358651], [27.8318758606727, 6.106425763358651], [27.8318758606727, 6.070360391951696], [27.813755557870234, 6.070360391951696], [27.813755557870234, 5.9982366852152476], [27.777514952265307, 5.9982366852152476], [27.777514952265307, 5.980207213899033], [27.74127434666038, 5.980207213899033], [27.74127434666038, 5.9982366852152476], [27.723154043857914, 5.9982366852152476], [27.723154043857914, 6.016266736882443], [27.705033741055455, 6.016266736882443], [27.705033741055455, 6.034297370696531], [27.6325525298456, 6.034297370696531], [27.6325525298456, 6.016266736882443], [27.68691343825299, 6.016266736882443], [27.68691343825299, 5.9982366852152476], [27.705033741055455, 5.9982366852152476], [27.705033741055455, 5.980207213899033], [27.723154043857914, 5.980207213899033], [27.723154043857914, 5.9441500051384875], [27.6325525298456, 5.9441500051384875], [27.6325525298456, 5.854017013765743], [27.59631192424067, 5.854017013765743], [27.59631192424067, 5.872042472866882], [27.578191621438208, 5.872042472866882], [27.578191621438208, 5.890068499762194], [27.54195101583328, 5.890068499762194], [27.54195101583328, 5.9982366852152476], [27.523830713030815, 5.9982366852152476], [27.523830713030815, 5.9441500051384875], [27.451349501820964, 5.9441500051384875], [27.451349501820964, 5.872042472866882], [27.4332291990185, 5.872042472866882], [27.4332291990185, 5.854017013765743], [27.37886829061111, 5.854017013765743], [27.37886829061111, 5.9441500051384875], [27.360747987808644, 5.9441500051384875], [27.360747987808644, 5.872042472866882], [27.34262768500618, 5.872042472866882], [27.34262768500618, 5.890068499762194], [27.306387079401254, 5.890068499762194], [27.306387079401254, 5.908095096243951], [27.28826677659879, 5.908095096243951], [27.28826677659879, 5.9441500051384875], [27.2339058681914, 5.9441500051384875], [27.2339058681914, 5.962178321138402], [27.215785565388934, 5.962178321138402], [27.215785565388934, 6.016266736882443], [27.37886829061111, 6.016266736882443], [27.37886829061111, 6.034297370696531], [27.215785565388934, 6.034297370696531], [27.215785565388934, 6.214636122397419], [27.197665262586472, 6.214636122397419], [27.197665262586472, 6.268749403756095], [27.34262768500618, 6.268749403756095], [27.34262768500618, 6.250711038361766], [27.4332291990185, 6.250711038361766], [27.4332291990185, 6.23267327850984], [27.451349501820964, 6.23267327850984], [27.451349501820964, 6.214636122397419], [27.4332291990185, 6.214636122397419], [27.4332291990185, 6.196599568222144], [27.451349501820964, 6.196599568222144], [27.451349501820964, 6.142493499303824], [27.469469804623426, 6.142493499303824], [27.469469804623426, 6.23267327850984], [27.487590107425888, 6.23267327850984], [27.487590107425888, 6.250711038361766], [27.505710410228353, 6.250711038361766], [27.505710410228353, 6.268749403756095], [27.523830713030815, 6.268749403756095], [27.523830713030815, 6.286788376496282]]]}}, {"type": "Feature", "properties": {"uid": 21, "seed": "unit 21", "seed_kind": "conservancy", "area_km2": 1012.0, "area_ha": 101200, "country": "SSD", "in_zones": "[]", "overlaps": "[]", "km_to_park": 44.0, "clusters": 24, "population_est": 2068, "pop_per_km2": 2.043, "new_since_2015": 0, "camps": 18, "built_km2": 0.1, "built_2000_km2": 0.05, "built_2015_km2": 0.06, "towns": "[]", "fire_det_2024_25": 9437, "fire_per_1000km2_yr": 4663, "fire_nov_feb_share": 0.79, "fronts": 1382, "fronts_per_1000km2": 1365.6, "fronts_transhumance_pct": 99, "fronts_long": 927, "fronts_long_per_1000km2": 916.01, "front_dirs": "{\"SE\": 310, \"NW\": 261, \"W\": 170}", "clearing_events": 61, "clearing_km2": 3.38, "clearing_since_2020_km2": 0.29, "clearing_encroach_slash": 4, "mine_reported": 0, "mine_candidates": 0, "mine_top05_cells": 13, "mine_watchlist": 2, "cropland_2003_pct": 0.0, "cropland_2019_pct": 0.13, "boundary_legibility": 0.7, "built_growth_x": 2.0, "cls": "community", "boundary": "[\"Busseri River on the W/N (42 km)\", \"Nahr al Jur on the SE/E (32 km)\", \"K. Nyadok (1930s sheet) on the S/SW (18 km)\", \"K. Ungoa (1930s sheet) on the SW (10 km)\", \"R. Sue (1930s sheet) on the N/E (6 km)\", \"K. Nuduk (1930s sheet) on the NE (6 km)\"]", "perimeter_km": 130, "unattributed_pct": 12, "park_sector": "NE"}, "geometry": {"type": "Polygon", "coordinates": [[[28.04931949430226, 7.695848616638902], [28.176161613919508, 7.695848616638902], [28.176161613919508, 7.623485307432754], [28.158041311117042, 7.623485307432754], [28.158041311117042, 7.5873081260334105], [28.13992100831458, 7.5873081260334105], [28.13992100831458, 7.496878100721639], [28.158041311117042, 7.496878100721639], [28.158041311117042, 7.478794297142507], [28.13992100831458, 7.478794297142507], [28.13992100831458, 7.442628876703652], [28.121800705512115, 7.442628876703652], [28.121800705512115, 7.4064663595986815], [28.10368040270965, 7.4064663595986815], [28.10368040270965, 7.3883861851894075], [28.121800705512115, 7.3883861851894075], [28.121800705512115, 7.352227995449113], [28.10368040270965, 7.352227995449113], [28.10368040270965, 7.31607267220997], [28.085560099907187, 7.31607267220997], [28.085560099907187, 7.2979960809295985], [28.031199191499795, 7.2979960809295985], [28.031199191499795, 7.31607267220997], [27.99495858589487, 7.31607267220997], [27.99495858589487, 7.334149976436806], [27.922477374685016, 7.334149976436806], [27.922477374685016, 7.31607267220997], [27.90435707188255, 7.31607267220997], [27.90435707188255, 7.2979960809295985], [27.84999616347516, 7.2979960809295985], [27.84999616347516, 7.31607267220997], [27.8318758606727, 7.31607267220997], [27.8318758606727, 7.334149976436806], [27.813755557870234, 7.334149976436806], [27.813755557870234, 7.370306731086544], [27.79563525506777, 7.370306731086544], [27.79563525506777, 7.4245472561559955], [27.813755557870234, 7.4245472561559955], [27.813755557870234, 7.442628876703652], [27.84999616347516, 7.442628876703652], [27.84999616347516, 7.460711223084615], [27.868116466277627, 7.460711223084615], [27.868116466277627, 7.478794297142507], [27.90435707188255, 7.478794297142507], [27.90435707188255, 7.496878100721639], [27.976838283092405, 7.496878100721639], [27.976838283092405, 7.5511339070395245], [27.99495858589487, 7.5511339070395245], [27.99495858589487, 7.5873081260334105], [28.013078888697336, 7.5873081260334105], [28.013078888697336, 7.60539634550797], [28.031199191499795, 7.60539634550797], [28.031199191499795, 7.659665466032585], [28.04931949430226, 7.659665466032585], [28.04931949430226, 7.695848616638902]]]}}, {"type": "Feature", "properties": {"uid": 1597, "seed": "Busseri", "seed_kind": "conservancy", "area_km2": 436.0, "area_ha": 43600, "country": "SSD", "in_zones": "[]", "overlaps": "[]", "km_to_park": 94.9, "clusters": 6, "population_est": 1477, "pop_per_km2": 3.388, "new_since_2015": 0, "camps": 5, "built_km2": 0.13, "built_2000_km2": 0.02, "built_2015_km2": 0.04, "towns": "[\"Busseri River* 1,410\"]", "fire_det_2024_25": 3900, "fire_per_1000km2_yr": 4472, "fire_nov_feb_share": 0.76, "fronts": 911, "fronts_per_1000km2": 2089.4, "fronts_transhumance_pct": 99, "fronts_long": 607, "fronts_long_per_1000km2": 1392.2, "front_dirs": "{\"NW\": 192, \"N\": 149, \"SE\": 129}", "clearing_events": 10, "clearing_km2": 0.12, "clearing_since_2020_km2": 0.0, "clearing_encroach_slash": 1, "mine_reported": 0, "mine_candidates": 0, "mine_top05_cells": 9, "mine_watchlist": 1, "cropland_2003_pct": 0.0, "cropland_2019_pct": 0.01, "boundary_legibility": 0.31, "built_growth_x": 6.5, "cls": "community", "boundary": "[\"unnamed river (order 4) on the SE/NE (26 km)\", \"I Kayak (1930s sheet) on the NW/N (20 km)\", \"R. Mannare (1930s sheet) on the S/SW (14 km)\"]", "perimeter_km": 80, "unattributed_pct": 25, "park_sector": "N"}, "geometry": {"type": "Polygon", "coordinates": [[[27.469469804623426, 8.38391673365961], [27.65067283264806, 8.38391673365961], [27.65067283264806, 8.36579490983287], [27.560071318635746, 8.36579490983287], [27.560071318635746, 8.347673906756647], [27.54195101583328, 8.347673906756647], [27.54195101583328, 8.329553722551557], [27.560071318635746, 8.329553722551557], [27.560071318635746, 8.25708113688149], [27.578191621438208, 8.25708113688149], [27.578191621438208, 8.202735203798978], [27.560071318635746, 8.202735203798978], [27.560071318635746, 8.18462150299617], [27.54195101583328, 8.18462150299617], [27.54195101583328, 8.166508604184097], [27.523830713030815, 8.166508604184097], [27.523830713030815, 8.148396505490906], [27.487590107425888, 8.148396505490906], [27.487590107425888, 8.166508604184097], [27.469469804623426, 8.166508604184097], [27.469469804623426, 8.18462150299617], [27.451349501820964, 8.18462150299617], [27.451349501820964, 8.22084970846511], [27.4332291990185, 8.22084970846511], [27.4332291990185, 8.238965018867917], [27.415108896216033, 8.238965018867917], [27.415108896216033, 8.25708113688149], [27.39698859341357, 8.25708113688149], [27.39698859341357, 8.27519806438067], [27.360747987808644, 8.27519806438067], [27.360747987808644, 8.36579490983287], [27.469469804623426, 8.36579490983287], [27.469469804623426, 8.38391673365961]]]}}, {"type": "Feature", "properties": {"uid": 24, "seed": "unit 24", "seed_kind": "conservancy", "area_km2": 220.0, "area_ha": 22000, "country": "SSD", "in_zones": "[]", "overlaps": "[]", "km_to_park": 93.5, "clusters": 5, "population_est": 1172, "pop_per_km2": 5.327, "new_since_2015": 0, "camps": 3, "built_km2": 0.05, "built_2000_km2": 0.01, "built_2015_km2": 0.02, "towns": "[]", "fire_det_2024_25": 440, "fire_per_1000km2_yr": 1000, "fire_nov_feb_share": 0.62, "fronts": 486, "fronts_per_1000km2": 2209.1, "fronts_transhumance_pct": 100, "fronts_long": 316, "fronts_long_per_1000km2": 1436.36, "front_dirs": "{\"NW\": 112, \"SE\": 91, \"E\": 76}", "clearing_events": 12, "clearing_km2": 0.11, "clearing_since_2020_km2": 0.04, "clearing_encroach_slash": 0, "mine_reported": 0, "mine_candidates": 0, "mine_top05_cells": 3, "mine_watchlist": 1, "cropland_2003_pct": 0.0, "cropland_2019_pct": 0.33, "boundary_legibility": 0.69, "built_growth_x": null, "cls": "community", "boundary": "[\"Nahr al Jur on the SW/NW (20 km)\", \"1930s W. District Boundary on the SE/E (10 km)\", \"K. Achikwet (1930s sheet) on the S/N (6 km)\"]", "perimeter_km": 52, "unattributed_pct": 31, "park_sector": "NE"}, "geometry": {"type": "Polygon", "coordinates": [[[28.013078888697336, 7.9130111829469305], [28.13992100831458, 7.9130111829469305], [28.13992100831458, 7.8225134198333315], [28.158041311117042, 7.8225134198333315], [28.158041311117042, 7.804416168722675], [28.10368040270965, 7.804416168722675], [28.10368040270965, 7.768223953150242], [28.013078888697336, 7.768223953150242], [28.013078888697336, 7.786319680447201], [28.031199191499795, 7.786319680447201], [28.031199191499795, 7.804416168722675], [28.013078888697336, 7.804416168722675], [28.013078888697336, 7.8225134198333315], [27.99495858589487, 7.8225134198333315], [27.99495858589487, 7.8768097687535885], [28.013078888697336, 7.8768097687535885], [28.013078888697336, 7.9130111829469305]]]}}, {"type": "Feature", "properties": {"uid": 64, "seed": "unit 64", "seed_kind": "conservancy", "area_km2": 1296.0, "area_ha": 129600, "country": "SSD", "in_zones": "[]", "overlaps": "[]", "km_to_park": 33.9, "clusters": 28, "population_est": 1012, "pop_per_km2": 0.781, "new_since_2015": 4, "camps": 21, "built_km2": 0.22, "built_2000_km2": 0.07, "built_2015_km2": 0.08, "towns": "[]", "fire_det_2024_25": 8773, "fire_per_1000km2_yr": 3385, "fire_nov_feb_share": 0.72, "fronts": 1570, "fronts_per_1000km2": 1211.4, "fronts_transhumance_pct": 98, "fronts_long": 1042, "fronts_long_per_1000km2": 804.01, "front_dirs": "{\"NW\": 251, \"SE\": 248, \"W\": 210}", "clearing_events": 89, "clearing_km2": 5.42, "clearing_since_2020_km2": 0.52, "clearing_encroach_slash": 1, "mine_reported": 0, "mine_candidates": 0, "mine_top05_cells": 4, "mine_watchlist": 1, "cropland_2003_pct": 0.0, "cropland_2019_pct": 0.0, "boundary_legibility": 0.57, "built_growth_x": 3.1, "cls": "community", "boundary": "[\"K. Ngoko (1930s sheet) on the NW/N (24 km)\", \"K Akali (1930s sheet) on the N/NW (22 km)\", \"K. Megwalima (1930s sheet) on the SE/E (20 km)\", \"K. Getti (1930s sheet) on the W/N (14 km)\", \"K. Ngombara (1930s sheet) on the SE/S (14 km)\", \"K. Nowondo (1930s sheet) on the N/NE (6 km)\"]", "perimeter_km": 182, "unattributed_pct": 29, "park_sector": "NE"}, "geometry": {"type": "Polygon", "coordinates": [[[27.668793135450525, 7.931113050098162], [27.68691343825299, 7.931113050098162], [27.68691343825299, 7.9130111829469305], [27.705033741055455, 7.9130111829469305], [27.705033741055455, 7.894910089785711], [27.723154043857914, 7.894910089785711], [27.723154043857914, 7.804416168722675], [27.74127434666038, 7.804416168722675], [27.74127434666038, 7.768223953150242], [27.759394649462845, 7.768223953150242], [27.759394649462845, 7.750128984975846], [27.777514952265307, 7.750128984975846], [27.777514952265307, 7.695848616638902], [27.79563525506777, 7.695848616638902], [27.79563525506777, 7.659665466032585], [27.84999616347516, 7.659665466032585], [27.84999616347516, 7.60539634550797], [27.8318758606727, 7.60539634550797], [27.8318758606727, 7.5873081260334105], [27.84999616347516, 7.5873081260334105], [27.84999616347516, 7.569220647160049], [27.8318758606727, 7.569220647160049], [27.8318758606727, 7.496878100721639], [27.84999616347516, 7.496878100721639], [27.84999616347516, 7.442628876703652], [27.79563525506777, 7.442628876703652], [27.79563525506777, 7.460711223084615], [27.777514952265307, 7.460711223084615], [27.777514952265307, 7.478794297142507], [27.74127434666038, 7.478794297142507], [27.74127434666038, 7.496878100721639], [27.705033741055455, 7.496878100721639], [27.705033741055455, 7.460711223084615], [27.54195101583328, 7.460711223084615], [27.54195101583328, 7.5511339070395245], [27.560071318635746, 7.5511339070395245], [27.560071318635746, 7.659665466032585], [27.578191621438208, 7.659665466032585], [27.578191621438208, 7.677756666409125], [27.59631192424067, 7.677756666409125], [27.59631192424067, 7.695848616638902], [27.614432227043135, 7.695848616638902], [27.614432227043135, 7.713941318574386], [27.6325525298456, 7.713941318574386], [27.6325525298456, 7.732034774068742], [27.65067283264806, 7.732034774068742], [27.65067283264806, 7.750128984975846], [27.6325525298456, 7.750128984975846], [27.6325525298456, 7.768223953150242], [27.578191621438208, 7.768223953150242], [27.578191621438208, 7.786319680447201], [27.505710410228353, 7.786319680447201], [27.505710410228353, 7.750128984975846], [27.487590107425888, 7.750128984975846], [27.487590107425888, 7.732034774068742], [27.451349501820964, 7.732034774068742], [27.451349501820964, 7.768223953150242], [27.4332291990185, 7.768223953150242], [27.4332291990185, 7.786319680447201], [27.415108896216033, 7.786319680447201], [27.415108896216033, 7.804416168722675], [27.39698859341357, 7.804416168722675], [27.39698859341357, 7.8225134198333315], [27.523830713030815, 7.8225134198333315], [27.523830713030815, 7.840611435636537], [27.54195101583328, 7.840611435636537], [27.54195101583328, 7.858710217990361], [27.560071318635746, 7.858710217990361], [27.560071318635746, 7.8768097687535885], [27.59631192424067, 7.8768097687535885], [27.59631192424067, 7.894910089785711], [27.614432227043135, 7.894910089785711], [27.614432227043135, 7.9130111829469305], [27.668793135450525, 7.9130111829469305], [27.668793135450525, 7.931113050098162]]]}}, {"type": "Feature", "properties": {"uid": 26, "seed": "unit 26", "seed_kind": "conservancy", "area_km2": 72.0, "area_ha": 7200, "country": "SSD", "in_zones": "[]", "overlaps": "[]", "km_to_park": 110.3, "clusters": 1, "population_est": 721, "pop_per_km2": 10.014, "new_since_2015": 0, "camps": 0, "built_km2": 0.04, "built_2000_km2": 0.01, "built_2015_km2": 0.01, "towns": "[]", "fire_det_2024_25": 0, "fire_per_1000km2_yr": 0, "fire_nov_feb_share": null, "fronts": 265, "fronts_per_1000km2": 3680.6, "fronts_transhumance_pct": 99, "fronts_long": 182, "fronts_long_per_1000km2": 2527.78, "front_dirs": "{\"N\": 53, \"NW\": 52, \"SE\": 48}", "clearing_events": 8, "clearing_km2": 0.27, "clearing_since_2020_km2": 0.02, "clearing_encroach_slash": 0, "mine_reported": 0, "mine_candidates": 0, "mine_top05_cells": 0, "mine_watchlist": 0, "cropland_2003_pct": 0.0, "cropland_2019_pct": 1.86, "boundary_legibility": 1.0, "built_growth_x": null, "cls": "community", "boundary": "[\"K. Kwange (1930s sheet) on the W/NW (12 km)\", \"Nahr al Jur on the W (6 km)\"]", "perimeter_km": 36, "unattributed_pct": 50, "park_sector": "NE"}, "geometry": {"type": "Polygon", "coordinates": [[[28.013078888697336, 8.0216340608869], [28.19428191672197, 8.0216340608869], [28.19428191672197, 8.003528295846708], [28.13992100831458, 8.003528295846708], [28.13992100831458, 7.985423314111889], [27.99495858589487, 7.985423314111889], [27.99495858589487, 8.003528295846708], [28.013078888697336, 8.003528295846708], [28.013078888697336, 8.0216340608869]]]}}, {"type": "Feature", "properties": {"uid": 35, "seed": "unit 35", "seed_kind": "conservancy", "area_km2": 20.0, "area_ha": 2000, "country": "SSD", "in_zones": "[]", "overlaps": "[]", "km_to_park": 114.5, "clusters": 1, "population_est": 514, "pop_per_km2": 25.7, "new_since_2015": 0, "camps": 0, "built_km2": 0.02, "built_2000_km2": 0.01, "built_2015_km2": 0.01, "towns": "[]", "fire_det_2024_25": 0, "fire_per_1000km2_yr": 0, "fire_nov_feb_share": null, "fronts": 253, "fronts_per_1000km2": 12650.0, "fronts_transhumance_pct": 99, "fronts_long": 162, "fronts_long_per_1000km2": 8100.0, "front_dirs": "{\"N\": 59, \"NW\": 47, \"SE\": 33}", "clearing_events": 0, "clearing_km2": 0.0, "clearing_since_2020_km2": 0.0, "clearing_encroach_slash": 0, "mine_reported": 0, "mine_candidates": 0, "mine_top05_cells": 0, "mine_watchlist": 0, "cropland_2003_pct": 0.0, "cropland_2019_pct": 0.0, "boundary_legibility": 0.03, "built_growth_x": null, "cls": "community", "boundary": "[]", "perimeter_km": 10, "unattributed_pct": 100, "park_sector": "NE"}, "geometry": {"type": "Polygon", "coordinates": [[[27.68691343825299, 8.27519806438067], [27.777514952265307, 8.27519806438067], [27.777514952265307, 8.25708113688149], [27.68691343825299, 8.25708113688149], [27.68691343825299, 8.27519806438067]]]}}]}