{"type": "FeatureCollection", "features": [{"type": "Feature", "properties": {"kind": "walked_today", "cells": 5687, "km2": 22748, "axis_km": 1042}, "geometry": {"type": "Polygon", "coordinates": [[[23.91789045534056, 9.563686466267717], [23.91789045534056, 9.545507224302229], [23.899770152538096, 9.545507224302229], [23.899770152538096, 9.527328926974938], [23.881649849735638, 9.527328926974938], [23.881649849735638, 9.509151572352721], [23.863529546933172, 9.509151572352721], [23.863529546933172, 9.490975158503332], [23.845409244130707, 9.490975158503332], [23.845409244130707, 9.472799683495426], [23.827288941328245, 9.472799683495426], [23.827288941328245, 9.454625145398547], [23.809168638525783, 9.454625145398547], [23.809168638525783, 9.345597483954279], [23.827288941328245, 9.345597483954279], [23.827288941328245, 9.327429450255787], [23.845409244130707, 9.327429450255787], [23.845409244130707, 9.309262338056346], [23.863529546933172, 9.309262338056346], [23.863529546933172, 9.291096145433379], [23.881649849735638, 9.291096145433379], [23.881649849735638, 9.25476651123096], [23.899770152538096, 9.25476651123096], [23.899770152538096, 9.2366030658107], [23.91789045534056, 9.2366030658107], [23.91789045534056, 9.21844053228531], [23.936010758143027, 9.21844053228531], [23.936010758143027, 9.200278908736538], [23.95413106094549, 9.200278908736538], [23.95413106094549, 9.182118193246987], [23.97225136374795, 9.182118193246987], [23.97225136374795, 9.163958383900123], [23.990371666550416, 9.163958383900123], [23.990371666550416, 9.145799478780253], [24.00849196935288, 9.145799478780253], [24.00849196935288, 9.127641475972545], [24.026612272155344, 9.127641475972545], [24.026612272155344, 9.109484373563015], [24.04473257495781, 9.109484373563015], [24.04473257495781, 9.091328169638519], [24.06285287776027, 9.091328169638519], [24.06285287776027, 9.07317286228676], [24.080973180562733, 9.07317286228676], [24.080973180562733, 9.055018449596284], [24.0990934833652, 9.055018449596284], [24.0990934833652, 9.036864929656481], [24.244055905784908, 9.036864929656481], [24.244055905784908, 9.018712300557576], [24.26217620858737, 9.018712300557576], [24.26217620858737, 9.00056056039063], [24.28029651138983, 9.00056056039063], [24.28029651138983, 8.982409707247543], [24.298416814192297, 8.982409707247543], [24.298416814192297, 8.964259739221042], [24.316537116994763, 8.964259739221042], [24.316537116994763, 8.946110654404684], [24.334657419797225, 8.946110654404684], [24.334657419797225, 8.927962450892863], [24.443379236612007, 8.927962450892863], [24.443379236612007, 8.909815126780787], [24.46149953941447, 8.909815126780787], [24.46149953941447, 8.8916686801645], [24.479619842216934, 8.8916686801645], [24.479619842216934, 8.873523109140864], [24.4977401450194, 8.873523109140864], [24.4977401450194, 8.837234586263085], [24.51586044782186, 8.837234586263085], [24.51586044782186, 8.819091630606765], [24.533980750624323, 8.819091630606765], [24.533980750624323, 8.782808321359909], [24.55210105342679, 8.782808321359909], [24.55210105342679, 8.74652846887778], [24.570221356229254, 8.74652846887778], [24.570221356229254, 8.728389834180403], [24.588341659031713, 8.728389834180403], [24.588341659031713, 8.710252057984116], [24.606461961834178, 8.710252057984116], [24.606461961834178, 8.692115138393888], [24.624582264636643, 8.692115138393888], [24.624582264636643, 8.673979073515511], [24.642702567439105, 8.673979073515511], [24.642702567439105, 8.65584386145555], [24.66082287024157, 8.65584386145555], [24.66082287024157, 8.637709500321387], [24.678943173044033, 8.637709500321387], [24.678943173044033, 8.619575988221177], [24.697063475846498, 8.619575988221177], [24.697063475846498, 8.601443323263892], [24.71518377864896, 8.601443323263892], [24.71518377864896, 8.583311503559282], [24.733304081451426, 8.583311503559282], [24.733304081451426, 8.565180527217883], [24.751424384253887, 8.565180527217883], [24.751424384253887, 8.547050392351023], [24.76954468705635, 8.547050392351023], [24.76954468705635, 8.528921097070821], [24.787664989858815, 8.528921097070821], [24.787664989858815, 8.510792639490163], [24.80578529266128, 8.510792639490163], [24.80578529266128, 8.492665017722729], [24.823905595463742, 8.492665017722729], [24.823905595463742, 8.474538229882974], [24.842025898266204, 8.474538229882974], [24.842025898266204, 8.456412274086132], [24.86014620106867, 8.456412274086132], [24.86014620106867, 8.438287148448207], [24.878266503871135, 8.438287148448207], [24.878266503871135, 8.420162851085982], [24.896386806673593, 8.420162851085982], [24.896386806673593, 8.402039380117008], [24.91450710947606, 8.402039380117008], [24.91450710947606, 8.38391673365961], [25.204431954315478, 8.38391673365961], [25.204431954315478, 8.402039380117008], [25.22255225711794, 8.402039380117008], [25.22255225711794, 8.420162851085982], [25.240672559920405, 8.420162851085982], [25.240672559920405, 8.438287148448207], [25.36751467953765, 8.438287148448207], [25.36751467953765, 8.456412274086132], [25.385634982340115, 8.456412274086132], [25.385634982340115, 8.474538229882974], [25.403755285142577, 8.474538229882974], [25.403755285142577, 8.492665017722729], [25.421875587945042, 8.492665017722729], [25.421875587945042, 8.510792639490163], [25.458116193549966, 8.510792639490163], [25.458116193549966, 8.528921097070821], [25.47623649635243, 8.528921097070821], [25.47623649635243, 8.510792639490163], [25.51247710195736, 8.510792639490163], [25.51247710195736, 8.492665017722729], [25.548717707562286, 8.492665017722729], [25.548717707562286, 8.474538229882974], [25.56683801036475, 8.474538229882974], [25.56683801036475, 8.456412274086132], [25.58495831316721, 8.456412274086132], [25.58495831316721, 8.420162851085982], [25.603078615969675, 8.420162851085982], [25.603078615969675, 8.402039380117008], [25.62119891877214, 8.402039380117008], [25.62119891877214, 8.36579490983287], [25.639319221574606, 8.36579490983287], [25.639319221574606, 8.329553722551557], [25.657439524377065, 8.329553722551557], [25.657439524377065, 8.293315803241047], [25.67555982717953, 8.293315803241047], [25.67555982717953, 8.25708113688149], [25.693680129981995, 8.25708113688149], [25.693680129981995, 8.238965018867917], [25.711800432784457, 8.238965018867917], [25.711800432784457, 8.22084970846511], [25.729920735586923, 8.22084970846511], [25.729920735586923, 8.202735203798978], [25.748041038389385, 8.202735203798978], [25.748041038389385, 8.18462150299617], [25.76616134119185, 8.18462150299617], [25.76616134119185, 8.166508604184097], [25.784281643994312, 8.166508604184097], [25.784281643994312, 8.148396505490906], [25.802401946796778, 8.148396505490906], [25.802401946796778, 8.130285205045478], [25.82052224959924, 8.130285205045478], [25.82052224959924, 8.112174700977448], [25.8386425524017, 8.112174700977448], [25.8386425524017, 8.094064991417186], [25.856762855204167, 8.094064991417186], [25.856762855204167, 8.075956074495794], [25.874883158006632, 8.075956074495794], [25.874883158006632, 8.057847948345113], [25.893003460809094, 8.057847948345113], [25.893003460809094, 8.039740611097713], [25.911123763611556, 8.039740611097713], [25.911123763611556, 8.0216340608869], [25.92924406641402, 8.0216340608869], [25.92924406641402, 8.003528295846708], [25.947364369216487, 8.003528295846708], [25.947364369216487, 7.985423314111889], [25.965484672018945, 7.985423314111889], [25.965484672018945, 7.967319113817935], [25.98360497482141, 7.967319113817935], [25.98360497482141, 7.949215693101051], [26.001725277623876, 7.949215693101051], [26.001725277623876, 7.931113050098162], [26.019845580426338, 7.931113050098162], [26.019845580426338, 7.9130111829469305], [26.0379658832288, 7.9130111829469305], [26.0379658832288, 7.894910089785711], [26.056086186031266, 7.894910089785711], [26.056086186031266, 7.8768097687535885], [26.07420648883373, 7.8768097687535885], [26.07420648883373, 7.858710217990361], [26.092326791636193, 7.858710217990361], [26.092326791636193, 7.840611435636537], [26.110447094438655, 7.840611435636537], [26.110447094438655, 7.8225134198333315], [26.12856739724112, 7.8225134198333315], [26.12856739724112, 7.804416168722675], [26.146687700043582, 7.804416168722675], [26.146687700043582, 7.786319680447201], [26.164808002846048, 7.786319680447201], [26.164808002846048, 7.768223953150242], [26.182928305648513, 7.768223953150242], [26.182928305648513, 7.750128984975846], [26.201048608450975, 7.750128984975846], [26.201048608450975, 7.732034774068742], [26.219168911253437, 7.732034774068742], [26.219168911253437, 7.713941318574386], [26.237289214055902, 7.713941318574386], [26.237289214055902, 7.695848616638902], [26.255409516858368, 7.695848616638902], [26.255409516858368, 7.677756666409125], [26.273529819660826, 7.677756666409125], [26.273529819660826, 7.659665466032585], [26.29165012246329, 7.659665466032585], [26.29165012246329, 7.641575013657493], [26.309770425265757, 7.641575013657493], [26.309770425265757, 7.623485307432754], [26.327890728068223, 7.623485307432754], [26.327890728068223, 7.60539634550797], [27.59631192424067, 7.60539634550797], [27.59631192424067, 7.5873081260334105], [27.614432227043135, 7.5873081260334105], [27.614432227043135, 7.569220647160049], [27.6325525298456, 7.569220647160049], [27.6325525298456, 7.5511339070395245], [27.65067283264806, 7.5511339070395245], [27.65067283264806, 7.533047903824164], [27.668793135450525, 7.533047903824164], [27.668793135450525, 7.514962635666978], [27.68691343825299, 7.514962635666978], [27.68691343825299, 7.496878100721639], [27.705033741055455, 7.496878100721639], [27.705033741055455, 7.478794297142507], [27.723154043857914, 7.478794297142507], [27.723154043857914, 7.460711223084615], [27.74127434666038, 7.460711223084615], [27.74127434666038, 7.442628876703652], [27.759394649462845, 7.442628876703652], [27.759394649462845, 7.4245472561559955], [27.777514952265307, 7.4245472561559955], [27.777514952265307, 7.4064663595986815], [27.79563525506777, 7.4064663595986815], [27.79563525506777, 7.3883861851894075], [27.813755557870234, 7.3883861851894075], [27.813755557870234, 7.370306731086544], [27.8318758606727, 7.370306731086544], [27.8318758606727, 7.352227995449113], [27.84999616347516, 7.352227995449113], [27.84999616347516, 7.334149976436806], [28.031199191499795, 7.334149976436806], [28.031199191499795, 7.31607267220997], [28.04931949430226, 7.31607267220997], [28.04931949430226, 7.2979960809295985], [28.067439797104726, 7.2979960809295985], [28.067439797104726, 7.27992020075736], [28.085560099907187, 7.27992020075736], [28.085560099907187, 7.261845029855554], [28.10368040270965, 7.261845029855554], [28.10368040270965, 7.243770566387145], [28.520447367166316, 7.243770566387145], [28.520447367166316, 7.225696808515738], [28.538567669968778, 7.225696808515738], [28.538567669968778, 7.207623754405596], [28.64728948678356, 7.207623754405596], [28.64728948678356, 7.189551402221619], [28.665409789586025, 7.189551402221619], [28.665409789586025, 7.171479750129345], [28.683530092388484, 7.171479750129345], [28.683530092388484, 7.1534087962949675], [28.70165039519095, 7.1534087962949675], [28.70165039519095, 7.135338538885316], [28.71977069799341, 7.135338538885316], [28.71977069799341, 7.117268976067851], [28.737891000795877, 7.117268976067851], [28.737891000795877, 7.099200106010676], [28.756011303598342, 7.099200106010676], [28.756011303598342, 7.0811319268825255], [28.774131606400804, 7.0811319268825255], [28.774131606400804, 7.063064436852769], [28.79225190920327, 7.063064436852769], [28.79225190920327, 7.044997634091408], [28.810372212005735, 7.044997634091408], [28.810372212005735, 7.0269315167690705], [28.828492514808197, 7.0269315167690705], [28.828492514808197, 7.008866083057012], [28.846612817610655, 7.008866083057012], [28.846612817610655, 6.990801331127114], [28.86473312041312, 6.990801331127114], [28.86473312041312, 6.972737259151883], [28.919094028820513, 6.972737259151883], [28.919094028820513, 6.954673865304445], [28.93721433162298, 6.954673865304445], [28.93721433162298, 6.936611147758549], [28.955334634425444, 6.936611147758549], [28.955334634425444, 6.91854910468856], [28.9734549372279, 6.91854910468856], [28.9734549372279, 6.90048773426946], [28.991575240030365, 6.90048773426946], [28.991575240030365, 6.683803092536928], [29.00969554283283, 6.683803092536928], [29.00969554283283, 6.6657503007800445], [29.027815845635292, 6.6657503007800445], [29.027815845635292, 6.647698156187535], [29.045936148437757, 6.647698156187535], [29.045936148437757, 6.62964665694342], [29.064056451240223, 6.62964665694342], [29.064056451240223, 6.6115958012322995], [29.08217675404269, 6.6115958012322995], [29.08217675404269, 6.593545587239368], [29.10029705684515, 6.593545587239368], [29.10029705684515, 6.575496013150397], [29.118417359647616, 6.575496013150397], [29.118417359647616, 6.557447077151746], [29.136537662450074, 6.557447077151746], [29.136537662450074, 6.539398777430352], [29.172778268055, 6.539398777430352], [29.172778268055, 6.521351112173735], [29.190898570857467, 6.521351112173735], [29.190898570857467, 6.503304079569989], [29.209018873659932, 6.503304079569989], [29.209018873659932, 6.485257677807786], [29.227139176462394, 6.485257677807786], [29.227139176462394, 6.46721190507637], [29.24525947926486, 6.46721190507637], [29.24525947926486, 6.449166759565559], [29.263379782067325, 6.449166759565559], [29.263379782067325, 6.413078342967868], [29.28150008486978, 6.413078342967868], [29.28150008486978, 5.56568542762796], [29.263379782067325, 5.56568542762796], [29.263379782067325, 5.5476693473004195], [29.24525947926486, 5.5476693473004195], [29.24525947926486, 5.529653802592224], [29.227139176462394, 5.529653802592224], [29.227139176462394, 5.475610364357997], [29.209018873659932, 5.475610364357997], [29.209018873659932, 5.457596944303868], [29.190898570857467, 5.457596944303868], [29.190898570857467, 5.205463558651921], [29.172778268055, 5.205463558651921], [29.172778268055, 5.187457852517324], [29.154657965252536, 5.187457852517324], [29.154657965252536, 5.169452646435331], [29.136537662450074, 5.169452646435331], [29.136537662450074, 5.115440010772129], [29.154657965252536, 5.115440010772129], [29.154657965252536, 5.043430056415817], [29.172778268055, 5.043430056415817], [29.172778268055, 4.989427698557163], [29.190898570857467, 4.989427698557163], [29.190898570857467, 4.971427876099968], [29.209018873659932, 4.971427876099968], [29.209018873659932, 4.9534285324424605], [29.227139176462394, 4.9534285324424605], [29.227139176462394, 4.863438934276721], [29.24525947926486, 4.863438934276721], [29.24525947926486, 4.84544242629916], [29.263379782067325, 4.84544242629916], [29.263379782067325, 4.827446384752506], [29.28150008486978, 4.827446384752506], [29.28150008486978, 4.809450807871477], [29.299620387672245, 4.809450807871477], [29.299620387672245, 4.791455693891205], [29.31774069047471, 4.791455693891205], [29.31774069047471, 4.773461041047237], [29.335860993277176, 4.773461041047237], [29.335860993277176, 4.7554668475755335], [29.35398129607964, 4.7554668475755335], [29.35398129607964, 4.683494632144926], [29.372101598882104, 4.683494632144926], [29.372101598882104, 4.665502709088288], [29.39022190168457, 4.665502709088288], [29.39022190168457, 4.647511234828257], [29.40834220448703, 4.647511234828257], [29.40834220448703, 4.629520207603642], [29.426462507289497, 4.629520207603642], [29.426462507289497, 4.6115296256536435], [29.444582810091955, 4.6115296256536435], [29.444582810091955, 4.59353948721787], [29.46270311289442, 4.59353948721787], [29.46270311289442, 4.575549790536321], [29.480823415696882, 4.575549790536321], [29.480823415696882, 4.5575605338493945], [29.498943718499348, 4.5575605338493945], [29.498943718499348, 4.539571715397879], [29.517064021301813, 4.539571715397879], [29.517064021301813, 4.521583333422955], [29.535184324104275, 4.521583333422955], [29.535184324104275, 4.503595386166197], [29.55330462690674, 4.503595386166197], [29.55330462690674, 4.521583333422955], [29.571424929709206, 4.521583333422955], [29.571424929709206, 4.539571715397879], [29.589545232511664, 4.539571715397879], [29.589545232511664, 4.5575605338493945], [29.607665535314126, 4.5575605338493945], [29.607665535314126, 4.575549790536321], [29.62578583811659, 4.575549790536321], [29.62578583811659, 4.59353948721787], [29.643906140919057, 4.59353948721787], [29.643906140919057, 4.6115296256536435], [29.66202644372152, 4.6115296256536435], [29.66202644372152, 4.629520207603642], [29.643906140919057, 4.629520207603642], [29.643906140919057, 4.647511234828257], [29.62578583811659, 4.647511234828257], [29.62578583811659, 4.665502709088288], [29.607665535314126, 4.665502709088288], [29.607665535314126, 4.683494632144926], [29.589545232511664, 4.683494632144926], [29.589545232511664, 4.7554668475755335], [29.571424929709206, 4.7554668475755335], [29.571424929709206, 4.773461041047237], [29.55330462690674, 4.773461041047237], [29.55330462690674, 4.791455693891205], [29.535184324104275, 4.791455693891205], [29.535184324104275, 4.809450807871477], [29.517064021301813, 4.809450807871477], [29.517064021301813, 4.827446384752506], [29.498943718499348, 4.827446384752506], [29.498943718499348, 4.84544242629916], [29.480823415696882, 4.84544242629916], [29.480823415696882, 4.863438934276721], [29.46270311289442, 4.863438934276721], [29.46270311289442, 4.9534285324424605], [29.444582810091955, 4.9534285324424605], [29.444582810091955, 4.971427876099968], [29.426462507289497, 4.971427876099968], [29.426462507289497, 4.989427698557163], [29.40834220448703, 4.989427698557163], [29.40834220448703, 5.043430056415817], [29.39022190168457, 5.043430056415817], [29.39022190168457, 5.115440010772129], [29.372101598882104, 5.115440010772129], [29.372101598882104, 5.169452646435331], [29.39022190168457, 5.169452646435331], [29.39022190168457, 5.187457852517324], [29.40834220448703, 5.187457852517324], [29.40834220448703, 5.205463558651921], [29.426462507289497, 5.205463558651921], [29.426462507289497, 5.457596944303868], [29.444582810091955, 5.457596944303868], [29.444582810091955, 5.475610364357997], [29.46270311289442, 5.475610364357997], [29.46270311289442, 5.529653802592224], [29.480823415696882, 5.529653802592224], [29.480823415696882, 5.5476693473004195], [29.498943718499348, 5.5476693473004195], [29.498943718499348, 5.56568542762796], [29.517064021301813, 5.56568542762796], [29.517064021301813, 6.413078342967868], [29.498943718499348, 6.413078342967868], [29.498943718499348, 6.449166759565559], [29.480823415696882, 6.449166759565559], [29.480823415696882, 6.46721190507637], [29.46270311289442, 6.46721190507637], [29.46270311289442, 6.485257677807786], [29.444582810091955, 6.485257677807786], [29.444582810091955, 6.503304079569989], [29.426462507289497, 6.503304079569989], [29.426462507289497, 6.521351112173735], [29.40834220448703, 6.521351112173735], [29.40834220448703, 6.539398777430352], [29.39022190168457, 6.539398777430352], [29.39022190168457, 6.557447077151746], [29.372101598882104, 6.557447077151746], [29.372101598882104, 6.575496013150397], [29.35398129607964, 6.575496013150397], [29.35398129607964, 6.593545587239368], [29.335860993277176, 6.593545587239368], [29.335860993277176, 6.6115958012322995], [29.31774069047471, 6.6115958012322995], [29.31774069047471, 6.62964665694342], [29.299620387672245, 6.62964665694342], [29.299620387672245, 6.647698156187535], [29.28150008486978, 6.647698156187535], [29.28150008486978, 6.6657503007800445], [29.263379782067325, 6.6657503007800445], [29.263379782067325, 6.683803092536928], [29.24525947926486, 6.683803092536928], [29.24525947926486, 6.701856533274762], [29.227139176462394, 6.701856533274762], [29.227139176462394, 6.90048773426946], [29.209018873659932, 6.90048773426946], [29.209018873659932, 6.91854910468856], [29.190898570857467, 6.91854910468856], [29.190898570857467, 6.936611147758549], [29.172778268055, 6.936611147758549], [29.172778268055, 6.954673865304445], [29.154657965252536, 6.954673865304445], [29.154657965252536, 6.972737259151883], [29.136537662450074, 6.972737259151883], [29.136537662450074, 6.990801331127114], [29.118417359647616, 6.990801331127114], [29.118417359647616, 7.008866083057012], [29.10029705684515, 7.008866083057012], [29.10029705684515, 7.0269315167690705], [29.08217675404269, 7.0269315167690705], [29.08217675404269, 7.044997634091408], [29.064056451240223, 7.044997634091408], [29.064056451240223, 7.063064436852769], [29.045936148437757, 7.063064436852769], [29.045936148437757, 7.0811319268825255], [29.027815845635292, 7.0811319268825255], [29.027815845635292, 7.099200106010676], [29.00969554283283, 7.099200106010676], [29.00969554283283, 7.117268976067851], [28.991575240030365, 7.117268976067851], [28.991575240030365, 7.135338538885316], [28.9734549372279, 7.135338538885316], [28.9734549372279, 7.1534087962949675], [28.955334634425444, 7.1534087962949675], [28.955334634425444, 7.171479750129345], [28.93721433162298, 7.171479750129345], [28.93721433162298, 7.189551402221619], [28.919094028820513, 7.189551402221619], [28.919094028820513, 7.207623754405596], [28.86473312041312, 7.207623754405596], [28.86473312041312, 7.225696808515738], [28.846612817610655, 7.225696808515738], [28.846612817610655, 7.243770566387145], [28.828492514808197, 7.243770566387145], [28.828492514808197, 7.261845029855554], [28.810372212005735, 7.261845029855554], [28.810372212005735, 7.27992020075736], [28.79225190920327, 7.27992020075736], [28.79225190920327, 7.334149976436806], [28.774131606400804, 7.334149976436806], [28.774131606400804, 7.352227995449113], [28.756011303598342, 7.352227995449113], [28.756011303598342, 7.370306731086544], [28.737891000795877, 7.370306731086544], [28.737891000795877, 7.3883861851894075], [28.71977069799341, 7.3883861851894075], [28.71977069799341, 7.4064663595986815], [28.70165039519095, 7.4064663595986815], [28.70165039519095, 7.4245472561559955], [28.683530092388484, 7.4245472561559955], [28.683530092388484, 7.442628876703652], [28.538567669968778, 7.442628876703652], [28.538567669968778, 7.460711223084615], [28.520447367166316, 7.460711223084615], [28.520447367166316, 7.478794297142507], [28.10368040270965, 7.478794297142507], [28.10368040270965, 7.496878100721639], [28.085560099907187, 7.496878100721639], [28.085560099907187, 7.514962635666978], [28.067439797104726, 7.514962635666978], [28.067439797104726, 7.533047903824164], [28.04931949430226, 7.533047903824164], [28.04931949430226, 7.5511339070395245], [28.031199191499795, 7.5511339070395245], [28.031199191499795, 7.569220647160049], [27.84999616347516, 7.569220647160049], [27.84999616347516, 7.5873081260334105], [27.8318758606727, 7.5873081260334105], [27.8318758606727, 7.60539634550797], [27.813755557870234, 7.60539634550797], [27.813755557870234, 7.623485307432754], [27.79563525506777, 7.623485307432754], [27.79563525506777, 7.641575013657493], [27.777514952265307, 7.641575013657493], [27.777514952265307, 7.659665466032585], [27.759394649462845, 7.659665466032585], [27.759394649462845, 7.677756666409125], [27.74127434666038, 7.677756666409125], [27.74127434666038, 7.695848616638902], [27.723154043857914, 7.695848616638902], [27.723154043857914, 7.713941318574386], [27.705033741055455, 7.713941318574386], [27.705033741055455, 7.732034774068742], [27.68691343825299, 7.732034774068742], [27.68691343825299, 7.750128984975846], [27.668793135450525, 7.750128984975846], [27.668793135450525, 7.768223953150242], [27.65067283264806, 7.768223953150242], [27.65067283264806, 7.786319680447201], [27.6325525298456, 7.786319680447201], [27.6325525298456, 7.804416168722675], [27.614432227043135, 7.804416168722675], [27.614432227043135, 7.8225134198333315], [27.59631192424067, 7.8225134198333315], [27.59631192424067, 7.840611435636537], [26.327890728068223, 7.840611435636537], [26.327890728068223, 7.858710217990361], [26.309770425265757, 7.858710217990361], [26.309770425265757, 7.8768097687535885], [26.29165012246329, 7.8768097687535885], [26.29165012246329, 7.894910089785711], [26.273529819660826, 7.894910089785711], [26.273529819660826, 7.9130111829469305], [26.255409516858368, 7.9130111829469305], [26.255409516858368, 7.931113050098162], [26.237289214055902, 7.931113050098162], [26.237289214055902, 7.949215693101051], [26.219168911253437, 7.949215693101051], [26.219168911253437, 7.967319113817935], [26.201048608450975, 7.967319113817935], [26.201048608450975, 7.985423314111889], [26.182928305648513, 7.985423314111889], [26.182928305648513, 8.003528295846708], [26.164808002846048, 8.003528295846708], [26.164808002846048, 8.0216340608869], [26.146687700043582, 8.0216340608869], [26.146687700043582, 8.039740611097713], [26.12856739724112, 8.039740611097713], [26.12856739724112, 8.057847948345113], [26.110447094438655, 8.057847948345113], [26.110447094438655, 8.075956074495794], [26.092326791636193, 8.075956074495794], [26.092326791636193, 8.094064991417186], [26.07420648883373, 8.094064991417186], [26.07420648883373, 8.112174700977448], [26.056086186031266, 8.112174700977448], [26.056086186031266, 8.130285205045478], [26.0379658832288, 8.130285205045478], [26.0379658832288, 8.148396505490906], [26.019845580426338, 8.148396505490906], [26.019845580426338, 8.166508604184097], [26.001725277623876, 8.166508604184097], [26.001725277623876, 8.18462150299617], [25.98360497482141, 8.18462150299617], [25.98360497482141, 8.202735203798978], [25.965484672018945, 8.202735203798978], [25.965484672018945, 8.22084970846511], [25.947364369216487, 8.22084970846511], [25.947364369216487, 8.238965018867917], [25.92924406641402, 8.238965018867917], [25.92924406641402, 8.25708113688149], [25.911123763611556, 8.25708113688149], [25.911123763611556, 8.293315803241047], [25.893003460809094, 8.293315803241047], [25.893003460809094, 8.329553722551557], [25.874883158006632, 8.329553722551557], [25.874883158006632, 8.36579490983287], [25.856762855204167, 8.36579490983287], [25.856762855204167, 8.402039380117008], [25.8386425524017, 8.402039380117008], [25.8386425524017, 8.420162851085982], [25.82052224959924, 8.420162851085982], [25.82052224959924, 8.528921097070821], [25.802401946796778, 8.528921097070821], [25.802401946796778, 8.547050392351023], [25.784281643994312, 8.547050392351023], [25.784281643994312, 8.565180527217883], [25.76616134119185, 8.565180527217883], [25.76616134119185, 8.583311503559282], [25.748041038389385, 8.583311503559282], [25.748041038389385, 8.601443323263892], [25.729920735586923, 8.601443323263892], [25.729920735586923, 8.619575988221177], [25.711800432784457, 8.619575988221177], [25.711800432784457, 8.637709500321387], [25.693680129981995, 8.637709500321387], [25.693680129981995, 8.65584386145555], [25.62119891877214, 8.65584386145555], [25.62119891877214, 8.673979073515511], [25.603078615969675, 8.673979073515511], [25.603078615969675, 8.692115138393888], [25.56683801036475, 8.692115138393888], [25.56683801036475, 8.710252057984116], [25.548717707562286, 8.710252057984116], [25.548717707562286, 8.728389834180403], [25.51247710195736, 8.728389834180403], [25.51247710195736, 8.74652846887778], [25.47623649635243, 8.74652846887778], [25.47623649635243, 8.764667963972073], [25.458116193549966, 8.764667963972073], [25.458116193549966, 8.74652846887778], [25.421875587945042, 8.74652846887778], [25.421875587945042, 8.728389834180403], [25.403755285142577, 8.728389834180403], [25.403755285142577, 8.710252057984116], [25.385634982340115, 8.710252057984116], [25.385634982340115, 8.692115138393888], [25.36751467953765, 8.692115138393888], [25.36751467953765, 8.673979073515511], [25.240672559920405, 8.673979073515511], [25.240672559920405, 8.65584386145555], [25.22255225711794, 8.65584386145555], [25.22255225711794, 8.637709500321387], [25.204431954315478, 8.637709500321387], [25.204431954315478, 8.619575988221177], [24.91450710947606, 8.619575988221177], [24.91450710947606, 8.637709500321387], [24.896386806673593, 8.637709500321387], [24.896386806673593, 8.65584386145555], [24.878266503871135, 8.65584386145555], [24.878266503871135, 8.673979073515511], [24.86014620106867, 8.673979073515511], [24.86014620106867, 8.692115138393888], [24.842025898266204, 8.692115138393888], [24.842025898266204, 8.710252057984116], [24.823905595463742, 8.710252057984116], [24.823905595463742, 8.728389834180403], [24.80578529266128, 8.728389834180403], [24.80578529266128, 8.74652846887778], [24.787664989858815, 8.74652846887778], [24.787664989858815, 8.782808321359909], [24.76954468705635, 8.782808321359909], [24.76954468705635, 8.819091630606765], [24.751424384253887, 8.819091630606765], [24.751424384253887, 8.837234586263085], [24.733304081451426, 8.837234586263085], [24.733304081451426, 8.873523109140864], [24.71518377864896, 8.873523109140864], [24.71518377864896, 8.8916686801645], [24.697063475846498, 8.8916686801645], [24.697063475846498, 8.909815126780787], [24.678943173044033, 8.909815126780787], [24.678943173044033, 8.927962450892863], [24.66082287024157, 8.927962450892863], [24.66082287024157, 8.946110654404684], [24.642702567439105, 8.946110654404684], [24.642702567439105, 8.964259739221042], [24.624582264636643, 8.964259739221042], [24.624582264636643, 8.982409707247543], [24.606461961834178, 8.982409707247543], [24.606461961834178, 9.00056056039063], [24.588341659031713, 9.00056056039063], [24.588341659031713, 9.018712300557576], [24.570221356229254, 9.018712300557576], [24.570221356229254, 9.036864929656481], [24.55210105342679, 9.036864929656481], [24.55210105342679, 9.055018449596284], [24.533980750624323, 9.055018449596284], [24.533980750624323, 9.07317286228676], [24.51586044782186, 9.07317286228676], [24.51586044782186, 9.091328169638519], [24.4977401450194, 9.091328169638519], [24.4977401450194, 9.109484373563015], [24.479619842216934, 9.109484373563015], [24.479619842216934, 9.127641475972545], [24.46149953941447, 9.127641475972545], [24.46149953941447, 9.145799478780253], [24.443379236612007, 9.145799478780253], [24.443379236612007, 9.163958383900123], [24.334657419797225, 9.163958383900123], [24.334657419797225, 9.182118193246987], [24.316537116994763, 9.182118193246987], [24.316537116994763, 9.200278908736538], [24.298416814192297, 9.200278908736538], [24.298416814192297, 9.21844053228531], [24.28029651138983, 9.21844053228531], [24.28029651138983, 9.2366030658107], [24.26217620858737, 9.2366030658107], [24.26217620858737, 9.25476651123096], [24.244055905784908, 9.25476651123096], [24.244055905784908, 9.272930870465194], [24.117213786167664, 9.272930870465194], [24.117213786167664, 9.291096145433379], [24.0990934833652, 9.291096145433379], [24.0990934833652, 9.309262338056346], [24.080973180562733, 9.309262338056346], [24.080973180562733, 9.327429450255787], [24.06285287776027, 9.327429450255787], [24.06285287776027, 9.345597483954279], [24.04473257495781, 9.345597483954279], [24.04473257495781, 9.454625145398547], [24.026612272155344, 9.454625145398547], [24.026612272155344, 9.472799683495426], [24.00849196935288, 9.472799683495426], [24.00849196935288, 9.490975158503332], [23.990371666550416, 9.490975158503332], [23.990371666550416, 9.509151572352721], [23.97225136374795, 9.509151572352721], [23.97225136374795, 9.527328926974938], [23.95413106094549, 9.527328926974938], [23.95413106094549, 9.545507224302229], [23.936010758143027, 9.545507224302229], [23.936010758143027, 9.563686466267717], [23.91789045534056, 9.563686466267717]]]}}, {"type": "Feature", "properties": {"kind": "diverted_park_closed", "cells": 6006, "km2": 24024, "axis_km": 1106}, "geometry": {"type": "Polygon", "coordinates": [[[23.91789045534056, 9.563686466267717], [23.91789045534056, 9.545507224302229], [23.899770152538096, 9.545507224302229], [23.899770152538096, 9.527328926974938], [23.881649849735638, 9.527328926974938], [23.881649849735638, 9.509151572352721], [23.863529546933172, 9.509151572352721], [23.863529546933172, 9.490975158503332], [23.845409244130707, 9.490975158503332], [23.845409244130707, 9.472799683495426], [23.827288941328245, 9.472799683495426], [23.827288941328245, 9.454625145398547], [23.809168638525783, 9.454625145398547], [23.809168638525783, 9.345597483954279], [23.827288941328245, 9.345597483954279], [23.827288941328245, 9.327429450255787], [23.845409244130707, 9.327429450255787], [23.845409244130707, 9.309262338056346], [23.863529546933172, 9.309262338056346], [23.863529546933172, 9.291096145433379], [23.881649849735638, 9.291096145433379], [23.881649849735638, 9.25476651123096], [23.899770152538096, 9.25476651123096], [23.899770152538096, 9.2366030658107], [23.91789045534056, 9.2366030658107], [23.91789045534056, 9.21844053228531], [23.936010758143027, 9.21844053228531], [23.936010758143027, 9.200278908736538], [23.95413106094549, 9.200278908736538], [23.95413106094549, 9.182118193246987], [23.97225136374795, 9.182118193246987], [23.97225136374795, 9.163958383900123], [23.990371666550416, 9.163958383900123], [23.990371666550416, 9.145799478780253], [24.00849196935288, 9.145799478780253], [24.00849196935288, 9.127641475972545], [24.026612272155344, 9.127641475972545], [24.026612272155344, 9.109484373563015], [24.04473257495781, 9.109484373563015], [24.04473257495781, 9.091328169638519], [24.06285287776027, 9.091328169638519], [24.06285287776027, 9.07317286228676], [24.080973180562733, 9.07317286228676], [24.080973180562733, 9.055018449596284], [24.0990934833652, 9.055018449596284], [24.0990934833652, 9.036864929656481], [24.35277772259969, 9.036864929656481], [24.35277772259969, 9.018712300557576], [24.370898025402152, 9.018712300557576], [24.370898025402152, 9.00056056039063], [24.389018328204617, 9.00056056039063], [24.389018328204617, 8.982409707247543], [24.443379236612007, 8.982409707247543], [24.443379236612007, 8.946110654404684], [24.46149953941447, 8.946110654404684], [24.46149953941447, 8.909815126780787], [24.479619842216934, 8.909815126780787], [24.479619842216934, 8.873523109140864], [24.4977401450194, 8.873523109140864], [24.4977401450194, 8.837234586263085], [24.51586044782186, 8.837234586263085], [24.51586044782186, 8.819091630606765], [24.533980750624323, 8.819091630606765], [24.533980750624323, 8.782808321359909], [24.55210105342679, 8.782808321359909], [24.55210105342679, 8.74652846887778], [24.570221356229254, 8.74652846887778], [24.570221356229254, 8.728389834180403], [24.588341659031713, 8.728389834180403], [24.588341659031713, 8.710252057984116], [24.606461961834178, 8.710252057984116], [24.606461961834178, 8.692115138393888], [24.624582264636643, 8.692115138393888], [24.624582264636643, 8.673979073515511], [24.642702567439105, 8.673979073515511], [24.642702567439105, 8.65584386145555], [24.66082287024157, 8.65584386145555], [24.66082287024157, 8.637709500321387], [24.678943173044033, 8.637709500321387], [24.678943173044033, 8.619575988221177], [24.697063475846498, 8.619575988221177], [24.697063475846498, 8.601443323263892], [24.71518377864896, 8.601443323263892], [24.71518377864896, 8.583311503559282], [24.733304081451426, 8.583311503559282], [24.733304081451426, 8.565180527217883], [24.751424384253887, 8.565180527217883], [24.751424384253887, 8.547050392351023], [24.76954468705635, 8.547050392351023], [24.76954468705635, 8.528921097070821], [24.787664989858815, 8.528921097070821], [24.787664989858815, 8.510792639490163], [24.80578529266128, 8.510792639490163], [24.80578529266128, 8.492665017722729], [24.823905595463742, 8.492665017722729], [24.823905595463742, 8.474538229882974], [24.842025898266204, 8.474538229882974], [24.842025898266204, 8.456412274086132], [24.86014620106867, 8.456412274086132], [24.86014620106867, 8.438287148448207], [24.878266503871135, 8.438287148448207], [24.878266503871135, 8.420162851085982], [24.896386806673593, 8.420162851085982], [24.896386806673593, 8.402039380117008], [24.91450710947606, 8.402039380117008], [24.91450710947606, 8.38391673365961], [25.204431954315478, 8.38391673365961], [25.204431954315478, 8.402039380117008], [25.22255225711794, 8.402039380117008], [25.22255225711794, 8.420162851085982], [25.240672559920405, 8.420162851085982], [25.240672559920405, 8.438287148448207], [25.36751467953765, 8.438287148448207], [25.36751467953765, 8.456412274086132], [25.385634982340115, 8.456412274086132], [25.385634982340115, 8.474538229882974], [25.403755285142577, 8.474538229882974], [25.403755285142577, 8.492665017722729], [25.421875587945042, 8.492665017722729], [25.421875587945042, 8.510792639490163], [25.458116193549966, 8.510792639490163], [25.458116193549966, 8.528921097070821], [25.47623649635243, 8.528921097070821], [25.47623649635243, 8.510792639490163], [25.51247710195736, 8.510792639490163], [25.51247710195736, 8.492665017722729], [25.548717707562286, 8.492665017722729], [25.548717707562286, 8.474538229882974], [25.56683801036475, 8.474538229882974], [25.56683801036475, 8.456412274086132], [25.58495831316721, 8.456412274086132], [25.58495831316721, 8.420162851085982], [25.603078615969675, 8.420162851085982], [25.603078615969675, 8.402039380117008], [25.62119891877214, 8.402039380117008], [25.62119891877214, 8.36579490983287], [25.639319221574606, 8.36579490983287], [25.639319221574606, 8.329553722551557], [25.657439524377065, 8.329553722551557], [25.657439524377065, 8.293315803241047], [25.67555982717953, 8.293315803241047], [25.67555982717953, 8.25708113688149], [25.693680129981995, 8.25708113688149], [25.693680129981995, 8.238965018867917], [25.711800432784457, 8.238965018867917], [25.711800432784457, 8.22084970846511], [25.729920735586923, 8.22084970846511], [25.729920735586923, 8.202735203798978], [25.748041038389385, 8.202735203798978], [25.748041038389385, 8.18462150299617], [25.76616134119185, 8.18462150299617], [25.76616134119185, 8.166508604184097], [25.784281643994312, 8.166508604184097], [25.784281643994312, 8.148396505490906], [25.802401946796778, 8.148396505490906], [25.802401946796778, 8.130285205045478], [25.82052224959924, 8.130285205045478], [25.82052224959924, 8.112174700977448], [25.8386425524017, 8.112174700977448], [25.8386425524017, 8.094064991417186], [25.856762855204167, 8.094064991417186], [25.856762855204167, 8.075956074495794], [25.874883158006632, 8.075956074495794], [25.874883158006632, 8.057847948345113], [25.893003460809094, 8.057847948345113], [25.893003460809094, 8.039740611097713], [25.911123763611556, 8.039740611097713], [25.911123763611556, 8.0216340608869], [25.92924406641402, 8.0216340608869], [25.92924406641402, 8.003528295846708], [25.947364369216487, 8.003528295846708], [25.947364369216487, 7.985423314111889], [25.965484672018945, 7.985423314111889], [25.965484672018945, 7.967319113817935], [25.98360497482141, 7.967319113817935], [25.98360497482141, 7.949215693101051], [26.001725277623876, 7.949215693101051], [26.001725277623876, 7.931113050098162], [26.019845580426338, 7.931113050098162], [26.019845580426338, 7.9130111829469305], [26.0379658832288, 7.9130111829469305], [26.0379658832288, 7.894910089785711], [26.056086186031266, 7.894910089785711], [26.056086186031266, 7.8768097687535885], [26.07420648883373, 7.8768097687535885], [26.07420648883373, 7.858710217990361], [26.092326791636193, 7.858710217990361], [26.092326791636193, 7.840611435636537], [26.110447094438655, 7.840611435636537], [26.110447094438655, 7.8225134198333315], [26.12856739724112, 7.8225134198333315], [26.12856739724112, 7.804416168722675], [26.146687700043582, 7.804416168722675], [26.146687700043582, 7.786319680447201], [26.164808002846048, 7.786319680447201], [26.164808002846048, 7.768223953150242], [26.182928305648513, 7.768223953150242], [26.182928305648513, 7.750128984975846], [26.201048608450975, 7.750128984975846], [26.201048608450975, 7.732034774068742], [26.219168911253437, 7.732034774068742], [26.219168911253437, 7.713941318574386], [26.237289214055902, 7.713941318574386], [26.237289214055902, 7.695848616638902], [26.255409516858368, 7.695848616638902], [26.255409516858368, 7.677756666409125], [26.273529819660826, 7.677756666409125], [26.273529819660826, 7.659665466032585], [26.29165012246329, 7.659665466032585], [26.29165012246329, 7.641575013657493], [26.309770425265757, 7.641575013657493], [26.309770425265757, 7.623485307432754], [26.327890728068223, 7.623485307432754], [26.327890728068223, 7.60539634550797], [27.59631192424067, 7.60539634550797], [27.59631192424067, 7.5873081260334105], [27.614432227043135, 7.5873081260334105], [27.614432227043135, 7.569220647160049], [27.6325525298456, 7.569220647160049], [27.6325525298456, 7.5511339070395245], [27.65067283264806, 7.5511339070395245], [27.65067283264806, 7.533047903824164], [27.668793135450525, 7.533047903824164], [27.668793135450525, 7.514962635666978], [27.68691343825299, 7.514962635666978], [27.68691343825299, 7.496878100721639], [27.705033741055455, 7.496878100721639], [27.705033741055455, 7.478794297142507], [27.723154043857914, 7.478794297142507], [27.723154043857914, 7.460711223084615], [27.74127434666038, 7.460711223084615], [27.74127434666038, 7.442628876703652], [27.759394649462845, 7.442628876703652], [27.759394649462845, 7.4245472561559955], [27.777514952265307, 7.4245472561559955], [27.777514952265307, 7.4064663595986815], [27.79563525506777, 7.4064663595986815], [27.79563525506777, 7.3883861851894075], [27.813755557870234, 7.3883861851894075], [27.813755557870234, 7.370306731086544], [27.8318758606727, 7.370306731086544], [27.8318758606727, 7.352227995449113], [27.84999616347516, 7.352227995449113], [27.84999616347516, 7.334149976436806], [28.031199191499795, 7.334149976436806], [28.031199191499795, 7.31607267220997], [28.04931949430226, 7.31607267220997], [28.04931949430226, 7.2979960809295985], [28.067439797104726, 7.2979960809295985], [28.067439797104726, 7.27992020075736], [28.085560099907187, 7.27992020075736], [28.085560099907187, 7.261845029855554], [28.10368040270965, 7.261845029855554], [28.10368040270965, 7.243770566387145], [28.520447367166316, 7.243770566387145], [28.520447367166316, 7.225696808515738], [28.538567669968778, 7.225696808515738], [28.538567669968778, 7.207623754405596], [28.64728948678356, 7.207623754405596], [28.64728948678356, 7.189551402221619], [28.665409789586025, 7.189551402221619], [28.665409789586025, 7.171479750129345], [28.683530092388484, 7.171479750129345], [28.683530092388484, 7.1534087962949675], [28.70165039519095, 7.1534087962949675], [28.70165039519095, 7.135338538885316], [28.71977069799341, 7.135338538885316], [28.71977069799341, 7.117268976067851], [28.737891000795877, 7.117268976067851], [28.737891000795877, 7.099200106010676], [28.756011303598342, 7.099200106010676], [28.756011303598342, 7.0811319268825255], [28.774131606400804, 7.0811319268825255], [28.774131606400804, 7.063064436852769], [28.79225190920327, 7.063064436852769], [28.79225190920327, 7.044997634091408], [28.810372212005735, 7.044997634091408], [28.810372212005735, 7.0269315167690705], [28.828492514808197, 7.0269315167690705], [28.828492514808197, 7.008866083057012], [28.846612817610655, 7.008866083057012], [28.846612817610655, 6.990801331127114], [28.86473312041312, 6.990801331127114], [28.86473312041312, 6.972737259151883], [28.919094028820513, 6.972737259151883], [28.919094028820513, 6.954673865304445], [28.93721433162298, 6.954673865304445], [28.93721433162298, 6.936611147758549], [28.955334634425444, 6.936611147758549], [28.955334634425444, 6.91854910468856], [28.9734549372279, 6.91854910468856], [28.9734549372279, 6.90048773426946], [28.991575240030365, 6.90048773426946], [28.991575240030365, 6.864367004086929], [29.00969554283283, 6.864367004086929], [29.00969554283283, 6.7740768223878165], [29.027815845635292, 6.7740768223878165], [29.027815845635292, 6.737965368962535], [29.045936148437757, 6.737965368962535], [29.045936148437757, 6.719910624810712], [29.064056451240223, 6.719910624810712], [29.064056451240223, 6.701856533274762], [29.08217675404269, 6.701856533274762], [29.08217675404269, 6.683803092536928], [29.10029705684515, 6.683803092536928], [29.10029705684515, 6.6657503007800445], [29.118417359647616, 6.6657503007800445], [29.118417359647616, 6.647698156187535], [29.136537662450074, 6.647698156187535], [29.136537662450074, 6.62964665694342], [29.24525947926486, 6.62964665694342], [29.24525947926486, 6.6115958012322995], [29.263379782067325, 6.6115958012322995], [29.263379782067325, 6.593545587239368], [29.28150008486978, 6.593545587239368], [29.28150008486978, 6.575496013150397], [29.299620387672245, 6.575496013150397], [29.299620387672245, 6.557447077151746], [29.31774069047471, 6.557447077151746], [29.31774069047471, 6.539398777430352], [29.335860993277176, 6.539398777430352], [29.335860993277176, 6.521351112173735], [29.35398129607964, 6.521351112173735], [29.35398129607964, 6.503304079569989], [29.372101598882104, 6.503304079569989], [29.372101598882104, 6.485257677807786], [29.39022190168457, 6.485257677807786], [29.39022190168457, 6.46721190507637], [29.40834220448703, 6.46721190507637], [29.40834220448703, 6.449166759565559], [29.426462507289497, 6.449166759565559], [29.426462507289497, 6.413078342967868], [29.444582810091955, 6.413078342967868], [29.444582810091955, 6.37699241354463], [29.46270311289442, 6.37699241354463], [29.46270311289442, 6.358950377004004], [29.480823415696882, 6.358950377004004], [29.480823415696882, 6.340908956834803], [29.498943718499348, 6.340908956834803], [29.498943718499348, 6.322868151230804], [29.517064021301813, 6.322868151230804], [29.517064021301813, 6.304827958386333], [29.535184324104275, 6.304827958386333], [29.535184324104275, 6.286788376496282], [29.55330462690674, 6.286788376496282], [29.55330462690674, 6.268749403756095], [29.571424929709206, 6.268749403756095], [29.571424929709206, 6.250711038361766], [29.589545232511664, 6.250711038361766], [29.589545232511664, 6.23267327850984], [29.607665535314126, 6.23267327850984], [29.607665535314126, 6.214636122397419], [29.680146746523985, 6.214636122397419], [29.680146746523985, 6.178563614182206], [29.69826704932645, 6.178563614182206], [29.69826704932645, 5.601719202274747], [29.680146746523985, 5.601719202274747], [29.680146746523985, 5.583702045358143], [29.66202644372152, 5.583702045358143], [29.66202644372152, 5.56568542762796], [29.643906140919057, 5.56568542762796], [29.643906140919057, 5.5476693473004195], [29.62578583811659, 5.5476693473004195], [29.62578583811659, 5.529653802592224], [29.607665535314126, 5.529653802592224], [29.607665535314126, 5.421571682545419], [29.589545232511664, 5.421571682545419], [29.589545232511664, 5.3855485133862615], [29.535184324104275, 5.3855485133862615], [29.535184324104275, 5.36753770908301], [29.31774069047471, 5.36753770908301], [29.31774069047471, 5.349527422592431], [29.299620387672245, 5.349527422592431], [29.299620387672245, 5.33151765213645], [29.28150008486978, 5.33151765213645], [29.28150008486978, 5.313508395937449], [29.263379782067325, 5.313508395937449], [29.263379782067325, 5.295499652218284], [29.24525947926486, 5.295499652218284], [29.24525947926486, 5.277491419202265], [29.227139176462394, 5.277491419202265], [29.227139176462394, 5.259483695113163], [29.209018873659932, 5.259483695113163], [29.209018873659932, 5.241476478175207], [29.190898570857467, 5.241476478175207], [29.190898570857467, 5.205463558651921], [29.172778268055, 5.205463558651921], [29.172778268055, 5.187457852517324], [29.154657965252536, 5.187457852517324], [29.154657965252536, 5.169452646435331], [29.136537662450074, 5.169452646435331], [29.136537662450074, 5.115440010772129], [29.154657965252536, 5.115440010772129], [29.154657965252536, 5.043430056415817], [29.172778268055, 5.043430056415817], [29.172778268055, 4.989427698557163], [29.190898570857467, 4.989427698557163], [29.190898570857467, 4.971427876099968], [29.209018873659932, 4.971427876099968], [29.209018873659932, 4.9534285324424605], [29.227139176462394, 4.9534285324424605], [29.227139176462394, 4.863438934276721], [29.24525947926486, 4.863438934276721], [29.24525947926486, 4.84544242629916], [29.263379782067325, 4.84544242629916], [29.263379782067325, 4.827446384752506], [29.28150008486978, 4.827446384752506], [29.28150008486978, 4.809450807871477], [29.299620387672245, 4.809450807871477], [29.299620387672245, 4.791455693891205], [29.31774069047471, 4.791455693891205], [29.31774069047471, 4.773461041047237], [29.335860993277176, 4.773461041047237], [29.335860993277176, 4.7554668475755335], [29.35398129607964, 4.7554668475755335], [29.35398129607964, 4.683494632144926], [29.372101598882104, 4.683494632144926], [29.372101598882104, 4.665502709088288], [29.39022190168457, 4.665502709088288], [29.39022190168457, 4.647511234828257], [29.40834220448703, 4.647511234828257], [29.40834220448703, 4.629520207603642], [29.426462507289497, 4.629520207603642], [29.426462507289497, 4.6115296256536435], [29.444582810091955, 4.6115296256536435], [29.444582810091955, 4.59353948721787], [29.46270311289442, 4.59353948721787], [29.46270311289442, 4.575549790536321], [29.480823415696882, 4.575549790536321], [29.480823415696882, 4.5575605338493945], [29.498943718499348, 4.5575605338493945], [29.498943718499348, 4.539571715397879], [29.517064021301813, 4.539571715397879], [29.517064021301813, 4.521583333422955], [29.535184324104275, 4.521583333422955], [29.535184324104275, 4.503595386166197], [29.55330462690674, 4.503595386166197], [29.55330462690674, 4.521583333422955], [29.571424929709206, 4.521583333422955], [29.571424929709206, 4.539571715397879], [29.589545232511664, 4.539571715397879], [29.589545232511664, 4.5575605338493945], [29.607665535314126, 4.5575605338493945], [29.607665535314126, 4.575549790536321], [29.62578583811659, 4.575549790536321], [29.62578583811659, 4.59353948721787], [29.643906140919057, 4.59353948721787], [29.643906140919057, 4.6115296256536435], [29.66202644372152, 4.6115296256536435], [29.66202644372152, 4.629520207603642], [29.643906140919057, 4.629520207603642], [29.643906140919057, 4.647511234828257], [29.62578583811659, 4.647511234828257], [29.62578583811659, 4.665502709088288], [29.607665535314126, 4.665502709088288], [29.607665535314126, 4.683494632144926], [29.589545232511664, 4.683494632144926], [29.589545232511664, 4.7554668475755335], [29.571424929709206, 4.7554668475755335], [29.571424929709206, 4.773461041047237], [29.55330462690674, 4.773461041047237], [29.55330462690674, 4.791455693891205], [29.535184324104275, 4.791455693891205], [29.535184324104275, 4.809450807871477], [29.517064021301813, 4.809450807871477], [29.517064021301813, 4.827446384752506], [29.498943718499348, 4.827446384752506], [29.498943718499348, 4.84544242629916], [29.480823415696882, 4.84544242629916], [29.480823415696882, 4.863438934276721], [29.46270311289442, 4.863438934276721], [29.46270311289442, 4.9534285324424605], [29.444582810091955, 4.9534285324424605], [29.444582810091955, 4.971427876099968], [29.426462507289497, 4.971427876099968], [29.426462507289497, 4.989427698557163], [29.40834220448703, 4.989427698557163], [29.40834220448703, 5.043430056415817], [29.39022190168457, 5.043430056415817], [29.39022190168457, 5.115440010772129], [29.372101598882104, 5.115440010772129], [29.372101598882104, 5.133443727335569], [29.535184324104275, 5.133443727335569], [29.535184324104275, 5.151447938632432], [29.589545232511664, 5.151447938632432], [29.589545232511664, 5.169452646435331], [29.607665535314126, 5.169452646435331], [29.607665535314126, 5.187457852517324], [29.62578583811659, 5.187457852517324], [29.62578583811659, 5.205463558651921], [29.643906140919057, 5.205463558651921], [29.643906140919057, 5.223469766613077], [29.66202644372152, 5.223469766613077], [29.66202644372152, 5.241476478175207], [29.680146746523985, 5.241476478175207], [29.680146746523985, 5.259483695113163], [29.69826704932645, 5.259483695113163], [29.69826704932645, 5.277491419202265], [29.716387352128912, 5.277491419202265], [29.716387352128912, 5.295499652218284], [29.734507654931377, 5.295499652218284], [29.734507654931377, 5.313508395937449], [29.752627957733836, 5.313508395937449], [29.752627957733836, 5.33151765213645], [29.7707482605363, 5.33151765213645], [29.7707482605363, 5.349527422592431], [29.788868563338763, 5.349527422592431], [29.788868563338763, 5.36753770908301], [29.80698886614123, 5.36753770908301], [29.80698886614123, 5.3855485133862615], [29.825109168943694, 5.3855485133862615], [29.825109168943694, 5.421571682545419], [29.843229471746156, 5.421571682545419], [29.843229471746156, 5.529653802592224], [29.86134977454862, 5.529653802592224], [29.86134977454862, 5.5476693473004195], [29.879470077351087, 5.5476693473004195], [29.879470077351087, 5.56568542762796], [29.897590380153545, 5.56568542762796], [29.897590380153545, 5.583702045358143], [29.915710682956007, 5.583702045358143], [29.915710682956007, 5.601719202274747], [29.933830985758473, 5.601719202274747], [29.933830985758473, 6.178563614182206], [29.915710682956007, 6.178563614182206], [29.915710682956007, 6.214636122397419], [29.897590380153545, 6.214636122397419], [29.897590380153545, 6.250711038361766], [29.879470077351087, 6.250711038361766], [29.879470077351087, 6.268749403756095], [29.86134977454862, 6.268749403756095], [29.86134977454862, 6.286788376496282], [29.843229471746156, 6.286788376496282], [29.843229471746156, 6.304827958386333], [29.825109168943694, 6.304827958386333], [29.825109168943694, 6.322868151230804], [29.80698886614123, 6.322868151230804], [29.80698886614123, 6.340908956834803], [29.788868563338763, 6.340908956834803], [29.788868563338763, 6.358950377004004], [29.7707482605363, 6.358950377004004], [29.7707482605363, 6.37699241354463], [29.752627957733836, 6.37699241354463], [29.752627957733836, 6.395035068263468], [29.734507654931377, 6.395035068263468], [29.734507654931377, 6.413078342967868], [29.716387352128912, 6.413078342967868], [29.716387352128912, 6.431122239465738], [29.69826704932645, 6.431122239465738], [29.69826704932645, 6.449166759565559], [29.643906140919057, 6.449166759565559], [29.643906140919057, 6.46721190507637], [29.62578583811659, 6.46721190507637], [29.62578583811659, 6.485257677807786], [29.607665535314126, 6.485257677807786], [29.607665535314126, 6.503304079569989], [29.589545232511664, 6.503304079569989], [29.589545232511664, 6.521351112173735], [29.571424929709206, 6.521351112173735], [29.571424929709206, 6.539398777430352], [29.55330462690674, 6.539398777430352], [29.55330462690674, 6.557447077151746], [29.535184324104275, 6.557447077151746], [29.535184324104275, 6.575496013150397], [29.517064021301813, 6.575496013150397], [29.517064021301813, 6.593545587239368], [29.498943718499348, 6.593545587239368], [29.498943718499348, 6.6115958012322995], [29.480823415696882, 6.6115958012322995], [29.480823415696882, 6.62964665694342], [29.46270311289442, 6.62964665694342], [29.46270311289442, 6.647698156187535], [29.444582810091955, 6.647698156187535], [29.444582810091955, 6.719910624810712], [29.426462507289497, 6.719910624810712], [29.426462507289497, 6.737965368962535], [29.40834220448703, 6.737965368962535], [29.40834220448703, 6.756020767548589], [29.39022190168457, 6.756020767548589], [29.39022190168457, 6.7740768223878165], [29.372101598882104, 6.7740768223878165], [29.372101598882104, 6.792133535299775], [29.35398129607964, 6.792133535299775], [29.35398129607964, 6.810190908104613], [29.335860993277176, 6.810190908104613], [29.335860993277176, 6.828248942623078], [29.31774069047471, 6.828248942623078], [29.31774069047471, 6.84630764067653], [29.299620387672245, 6.84630764067653], [29.299620387672245, 6.864367004086929], [29.227139176462394, 6.864367004086929], [29.227139176462394, 6.90048773426946], [29.209018873659932, 6.90048773426946], [29.209018873659932, 6.91854910468856], [29.190898570857467, 6.91854910468856], [29.190898570857467, 6.936611147758549], [29.172778268055, 6.936611147758549], [29.172778268055, 6.954673865304445], [29.154657965252536, 6.954673865304445], [29.154657965252536, 6.972737259151883], [29.136537662450074, 6.972737259151883], [29.136537662450074, 6.990801331127114], [29.118417359647616, 6.990801331127114], [29.118417359647616, 7.008866083057012], [29.10029705684515, 7.008866083057012], [29.10029705684515, 7.0269315167690705], [29.08217675404269, 7.0269315167690705], [29.08217675404269, 7.044997634091408], [29.064056451240223, 7.044997634091408], [29.064056451240223, 7.063064436852769], [29.045936148437757, 7.063064436852769], [29.045936148437757, 7.0811319268825255], [29.027815845635292, 7.0811319268825255], [29.027815845635292, 7.099200106010676], [29.00969554283283, 7.099200106010676], [29.00969554283283, 7.117268976067851], [28.991575240030365, 7.117268976067851], [28.991575240030365, 7.135338538885316], [28.9734549372279, 7.135338538885316], [28.9734549372279, 7.1534087962949675], [28.955334634425444, 7.1534087962949675], [28.955334634425444, 7.171479750129345], [28.93721433162298, 7.171479750129345], [28.93721433162298, 7.189551402221619], [28.919094028820513, 7.189551402221619], [28.919094028820513, 7.207623754405596], [28.86473312041312, 7.207623754405596], [28.86473312041312, 7.225696808515738], [28.846612817610655, 7.225696808515738], [28.846612817610655, 7.243770566387145], [28.828492514808197, 7.243770566387145], [28.828492514808197, 7.261845029855554], [28.810372212005735, 7.261845029855554], [28.810372212005735, 7.27992020075736], [28.79225190920327, 7.27992020075736], [28.79225190920327, 7.334149976436806], [28.774131606400804, 7.334149976436806], [28.774131606400804, 7.352227995449113], [28.756011303598342, 7.352227995449113], [28.756011303598342, 7.370306731086544], [28.737891000795877, 7.370306731086544], [28.737891000795877, 7.3883861851894075], [28.71977069799341, 7.3883861851894075], [28.71977069799341, 7.4064663595986815], [28.70165039519095, 7.4064663595986815], [28.70165039519095, 7.4245472561559955], [28.683530092388484, 7.4245472561559955], [28.683530092388484, 7.442628876703652], [28.538567669968778, 7.442628876703652], [28.538567669968778, 7.460711223084615], [28.520447367166316, 7.460711223084615], [28.520447367166316, 7.478794297142507], [28.10368040270965, 7.478794297142507], [28.10368040270965, 7.496878100721639], [28.085560099907187, 7.496878100721639], [28.085560099907187, 7.514962635666978], [28.067439797104726, 7.514962635666978], [28.067439797104726, 7.533047903824164], [28.04931949430226, 7.533047903824164], [28.04931949430226, 7.5511339070395245], [28.031199191499795, 7.5511339070395245], [28.031199191499795, 7.569220647160049], [27.84999616347516, 7.569220647160049], [27.84999616347516, 7.5873081260334105], [27.8318758606727, 7.5873081260334105], [27.8318758606727, 7.60539634550797], [27.813755557870234, 7.60539634550797], [27.813755557870234, 7.623485307432754], [27.79563525506777, 7.623485307432754], [27.79563525506777, 7.641575013657493], [27.777514952265307, 7.641575013657493], [27.777514952265307, 7.659665466032585], [27.759394649462845, 7.659665466032585], [27.759394649462845, 7.677756666409125], [27.74127434666038, 7.677756666409125], [27.74127434666038, 7.695848616638902], [27.723154043857914, 7.695848616638902], [27.723154043857914, 7.713941318574386], [27.705033741055455, 7.713941318574386], [27.705033741055455, 7.732034774068742], [27.68691343825299, 7.732034774068742], [27.68691343825299, 7.750128984975846], [27.668793135450525, 7.750128984975846], [27.668793135450525, 7.768223953150242], [27.65067283264806, 7.768223953150242], [27.65067283264806, 7.786319680447201], [27.6325525298456, 7.786319680447201], [27.6325525298456, 7.804416168722675], [27.614432227043135, 7.804416168722675], [27.614432227043135, 7.8225134198333315], [27.59631192424067, 7.8225134198333315], [27.59631192424067, 7.840611435636537], [26.327890728068223, 7.840611435636537], [26.327890728068223, 7.858710217990361], [26.309770425265757, 7.858710217990361], [26.309770425265757, 7.8768097687535885], [26.29165012246329, 7.8768097687535885], [26.29165012246329, 7.894910089785711], [26.273529819660826, 7.894910089785711], [26.273529819660826, 7.9130111829469305], [26.255409516858368, 7.9130111829469305], [26.255409516858368, 7.931113050098162], [26.237289214055902, 7.931113050098162], [26.237289214055902, 7.949215693101051], [26.219168911253437, 7.949215693101051], [26.219168911253437, 7.967319113817935], [26.201048608450975, 7.967319113817935], [26.201048608450975, 7.985423314111889], [26.182928305648513, 7.985423314111889], [26.182928305648513, 8.003528295846708], [26.164808002846048, 8.003528295846708], [26.164808002846048, 8.0216340608869], [26.146687700043582, 8.0216340608869], [26.146687700043582, 8.039740611097713], [26.12856739724112, 8.039740611097713], [26.12856739724112, 8.057847948345113], [26.110447094438655, 8.057847948345113], [26.110447094438655, 8.075956074495794], [26.092326791636193, 8.075956074495794], [26.092326791636193, 8.094064991417186], [26.07420648883373, 8.094064991417186], [26.07420648883373, 8.112174700977448], [26.056086186031266, 8.112174700977448], [26.056086186031266, 8.130285205045478], [26.0379658832288, 8.130285205045478], [26.0379658832288, 8.148396505490906], [26.019845580426338, 8.148396505490906], [26.019845580426338, 8.166508604184097], [26.001725277623876, 8.166508604184097], [26.001725277623876, 8.18462150299617], [25.98360497482141, 8.18462150299617], [25.98360497482141, 8.202735203798978], [25.965484672018945, 8.202735203798978], [25.965484672018945, 8.22084970846511], [25.947364369216487, 8.22084970846511], [25.947364369216487, 8.238965018867917], [25.92924406641402, 8.238965018867917], [25.92924406641402, 8.25708113688149], [25.911123763611556, 8.25708113688149], [25.911123763611556, 8.293315803241047], [25.893003460809094, 8.293315803241047], [25.893003460809094, 8.329553722551557], [25.874883158006632, 8.329553722551557], [25.874883158006632, 8.36579490983287], [25.856762855204167, 8.36579490983287], [25.856762855204167, 8.402039380117008], [25.8386425524017, 8.402039380117008], [25.8386425524017, 8.420162851085982], [25.82052224959924, 8.420162851085982], [25.82052224959924, 8.528921097070821], [25.802401946796778, 8.528921097070821], [25.802401946796778, 8.547050392351023], [25.784281643994312, 8.547050392351023], [25.784281643994312, 8.565180527217883], [25.76616134119185, 8.565180527217883], [25.76616134119185, 8.583311503559282], [25.748041038389385, 8.583311503559282], [25.748041038389385, 8.601443323263892], [25.729920735586923, 8.601443323263892], [25.729920735586923, 8.619575988221177], [25.711800432784457, 8.619575988221177], [25.711800432784457, 8.637709500321387], [25.693680129981995, 8.637709500321387], [25.693680129981995, 8.65584386145555], [25.62119891877214, 8.65584386145555], [25.62119891877214, 8.673979073515511], [25.603078615969675, 8.673979073515511], [25.603078615969675, 8.692115138393888], [25.56683801036475, 8.692115138393888], [25.56683801036475, 8.710252057984116], [25.548717707562286, 8.710252057984116], [25.548717707562286, 8.728389834180403], [25.51247710195736, 8.728389834180403], [25.51247710195736, 8.74652846887778], [25.47623649635243, 8.74652846887778], [25.47623649635243, 8.764667963972073], [25.458116193549966, 8.764667963972073], [25.458116193549966, 8.74652846887778], [25.421875587945042, 8.74652846887778], [25.421875587945042, 8.728389834180403], [25.403755285142577, 8.728389834180403], [25.403755285142577, 8.710252057984116], [25.385634982340115, 8.710252057984116], [25.385634982340115, 8.692115138393888], [25.36751467953765, 8.692115138393888], [25.36751467953765, 8.673979073515511], [25.240672559920405, 8.673979073515511], [25.240672559920405, 8.65584386145555], [25.22255225711794, 8.65584386145555], [25.22255225711794, 8.637709500321387], [25.204431954315478, 8.637709500321387], [25.204431954315478, 8.619575988221177], [24.91450710947606, 8.619575988221177], [24.91450710947606, 8.637709500321387], [24.896386806673593, 8.637709500321387], [24.896386806673593, 8.65584386145555], [24.878266503871135, 8.65584386145555], [24.878266503871135, 8.673979073515511], [24.86014620106867, 8.673979073515511], [24.86014620106867, 8.692115138393888], [24.842025898266204, 8.692115138393888], [24.842025898266204, 8.710252057984116], [24.823905595463742, 8.710252057984116], [24.823905595463742, 8.728389834180403], [24.80578529266128, 8.728389834180403], [24.80578529266128, 8.74652846887778], [24.787664989858815, 8.74652846887778], [24.787664989858815, 8.782808321359909], [24.76954468705635, 8.782808321359909], [24.76954468705635, 8.819091630606765], [24.751424384253887, 8.819091630606765], [24.751424384253887, 8.837234586263085], [24.733304081451426, 8.837234586263085], [24.733304081451426, 8.873523109140864], [24.71518377864896, 8.873523109140864], [24.71518377864896, 8.909815126780787], [24.697063475846498, 8.909815126780787], [24.697063475846498, 8.946110654404684], [24.678943173044033, 8.946110654404684], [24.678943173044033, 8.982409707247543], [24.66082287024157, 8.982409707247543], [24.66082287024157, 9.00056056039063], [24.642702567439105, 9.00056056039063], [24.642702567439105, 9.018712300557576], [24.624582264636643, 9.018712300557576], [24.624582264636643, 9.036864929656481], [24.606461961834178, 9.036864929656481], [24.606461961834178, 9.055018449596284], [24.588341659031713, 9.055018449596284], [24.588341659031713, 9.07317286228676], [24.570221356229254, 9.07317286228676], [24.570221356229254, 9.091328169638519], [24.55210105342679, 9.091328169638519], [24.55210105342679, 9.109484373563015], [24.533980750624323, 9.109484373563015], [24.533980750624323, 9.127641475972545], [24.51586044782186, 9.127641475972545], [24.51586044782186, 9.145799478780253], [24.4977401450194, 9.145799478780253], [24.4977401450194, 9.163958383900123], [24.479619842216934, 9.163958383900123], [24.479619842216934, 9.182118193246987], [24.46149953941447, 9.182118193246987], [24.46149953941447, 9.200278908736538], [24.443379236612007, 9.200278908736538], [24.443379236612007, 9.21844053228531], [24.389018328204617, 9.21844053228531], [24.389018328204617, 9.2366030658107], [24.370898025402152, 9.2366030658107], [24.370898025402152, 9.25476651123096], [24.35277772259969, 9.25476651123096], [24.35277772259969, 9.272930870465194], [24.117213786167664, 9.272930870465194], [24.117213786167664, 9.291096145433379], [24.0990934833652, 9.291096145433379], [24.0990934833652, 9.309262338056346], [24.080973180562733, 9.309262338056346], [24.080973180562733, 9.327429450255787], [24.06285287776027, 9.327429450255787], [24.06285287776027, 9.345597483954279], [24.04473257495781, 9.345597483954279], [24.04473257495781, 9.454625145398547], [24.026612272155344, 9.454625145398547], [24.026612272155344, 9.472799683495426], [24.00849196935288, 9.472799683495426], [24.00849196935288, 9.490975158503332], [23.990371666550416, 9.490975158503332], [23.990371666550416, 9.509151572352721], [23.97225136374795, 9.509151572352721], [23.97225136374795, 9.527328926974938], [23.95413106094549, 9.527328926974938], [23.95413106094549, 9.545507224302229], [23.936010758143027, 9.545507224302229], [23.936010758143027, 9.563686466267717], [23.91789045534056, 9.563686466267717]]]}}]}