{"type": "FeatureCollection", "features": [{"type": "Feature", "properties": {"uid": 1, "seed": "core proposal 1", "seed_kind": "optimized", "area_km2": 22868.0, "area_ha": 2286800, "country": "SSD", "in_zones": "[]", "overlaps": "[\"PLAN Pongo-Wau-Numatinna_National-Park_1587922ha 19%\", \"PLAN Wau-Wilderness_30,329km2 46%\", \"PLAN Southern-NP-Wilderness_41'590km2 19%\", \"PLAN Southern NP 19%\", \"WDPA Southern (National Park) 11%\"]", "km_to_park": 0.0, "clusters": 28, "population_est": 411, "pop_per_km2": 0.018, "osm_places": 0, "new_since_2015": 2, "camps": 24, "built_km2": 0.07, "built_2000_km2": 0.04, "built_2015_km2": 0.04, "towns": "[]", "fire_det_2024_25": 189261, "fire_per_1000km2_yr": 4138, "fire_nov_feb_share": 0.96, "fronts": 6882, "fronts_per_1000km2": 300.9, "fronts_transhumance_pct": 97, "fronts_long": 4168, "fronts_long_per_1000km2": 182.26, "long_front_intensity": 275.62, "front_dirs": "{\"SE\": 1119, \"S\": 1022, \"NW\": 992}", "front_dirs_all": "{\"SE\": 1119, \"SW\": 851, \"S\": 1022, \"W\": 856, \"E\": 670, \"NW\": 992, \"N\": 810, \"NE\": 562}", "clearing_events": 236, "clearing_km2": 18.02, "clearing_since_2020_km2": 2.39, "clearing_encroach_slash": 27, "mine_reported": 0, "mine_candidates": 0, "mine_top05_cells": 24, "mine_watchlist": 1, "mining_measured": true, "geology": "[\"PLu Undifferentiated metamorphic rocks, migm 83%\", \"Zeta Gneiss a micas, amphibolites, a pyroxene 9% [uranium]\"]", "geo_affinity_mean": 0.23, "cropland_2003_pct": 0.0, "cropland_2019_pct": 0.01, "boundary_legibility": 0.35, "built_growth_x": 1.8, "front_axis_coherence": 0.31, "front_axis": "SE\u2013NW", "rationale": "[\"core\", \"long fronts per 10 km width 275.62 >= 154.06: yes\", \"transhumance share % 97 >= 50: yes\", \"axis coherence (0.25 = random) 0.31 >= 0.4: no\", \"people/km2 0.018 <= 2: yes\", \"\\u2014 not a corridor; core?\", \"people/km2 0.018 <= 0.02: yes\", \"cropland 2019 % 0.01 <= 0.05: yes\", \"clearing since 2020 km2/1000km2 0.105 <= 0.5: yes\", \"reported workings 0 <= 0: yes\"]", "cls": "core", "boundary": "[\"unnamed river (order 4) on the SW/NW (118 km)\", \"Ibba on the E/SE (80 km)\", \"CAF border on the SW/W (80 km)\", \"1930s District Boundary on the E/W (66 km)\", \"Ouara on the SW/W (64 km)\", \"Pongo on the NW/N (62 km)\", \"248 km along a geological contact only (not visible on the ground \\u2014 needs beacons)\", \"landmarks on the unnamed stretches: dot with (?) marker (1930s water symbol) (NE), Mbora (1930s village) (N), Rabeh (1930s village) (N), Udu Burnus (1930s village) (NE), Dahi (1930s village) (E), Dalingai (1930s village) (E), Abdullah (1930s village) (E), Mandi (1930s village) (E)\"]", "perimeter_km": 3038, "unattributed_pct": 50, "support_mean": 0.75, "contested_units": 22, "area_ha_p10_p50_p90": "[2461800, 2494000, 2500000]"}, "geometry": {"type": "Polygon", "coordinates": [[[26.056086186031266, 6.268749403756095], [26.056086186031266, 6.250711038361766], [26.0379658832288, 6.250711038361766], [26.0379658832288, 6.214636122397419], [26.019845580426338, 6.214636122397419], [26.019845580426338, 6.178563614182206], [26.001725277623876, 6.178563614182206], [26.001725277623876, 6.106425763358651], [25.965484672018945, 6.106425763358651], [25.965484672018945, 6.088392782987249], [25.947364369216487, 6.088392782987249], [25.947364369216487, 6.070360391951696], [25.92924406641402, 6.070360391951696], [25.92924406641402, 6.052328588453958], [25.911123763611556, 6.052328588453958], [25.911123763611556, 6.070360391951696], [25.893003460809094, 6.070360391951696], [25.893003460809094, 6.088392782987249], [25.874883158006632, 6.088392782987249], [25.874883158006632, 6.124459334864475], [25.856762855204167, 6.124459334864475], [25.856762855204167, 6.160528258476339], [25.784281643994312, 6.160528258476339], [25.784281643994312, 6.142493499303824], [25.729920735586923, 6.142493499303824], [25.729920735586923, 6.160528258476339], [25.58495831316721, 6.160528258476339], [25.58495831316721, 6.142493499303824], [25.548717707562286, 6.142493499303824], [25.548717707562286, 6.160528258476339], [25.53059740475982, 6.160528258476339], [25.53059740475982, 6.178563614182206], [25.51247710195736, 6.178563614182206], [25.51247710195736, 6.214636122397419], [25.548717707562286, 6.214636122397419], [25.548717707562286, 6.250711038361766], [25.56683801036475, 6.250711038361766], [25.56683801036475, 6.268749403756095], [25.58495831316721, 6.268749403756095], [25.58495831316721, 6.340908956834803], [25.603078615969675, 6.340908956834803], [25.603078615969675, 6.358950377004004], [25.62119891877214, 6.358950377004004], [25.62119891877214, 6.37699241354463], [25.657439524377065, 6.37699241354463], [25.657439524377065, 6.395035068263468], [25.67555982717953, 6.395035068263468], [25.67555982717953, 6.413078342967868], [25.693680129981995, 6.413078342967868], [25.693680129981995, 6.431122239465738], [25.711800432784457, 6.431122239465738], [25.711800432784457, 6.37699241354463], [25.748041038389385, 6.37699241354463], [25.748041038389385, 6.449166759565559], [25.76616134119185, 6.449166759565559], [25.76616134119185, 6.37699241354463], [25.784281643994312, 6.37699241354463], [25.784281643994312, 6.358950377004004], [25.82052224959924, 6.358950377004004], [25.82052224959924, 6.340908956834803], [25.8386425524017, 6.340908956834803], [25.8386425524017, 6.37699241354463], [25.92924406641402, 6.37699241354463], [25.92924406641402, 6.46721190507637], [25.965484672018945, 6.46721190507637], [25.965484672018945, 6.449166759565559], [25.98360497482141, 6.449166759565559], [25.98360497482141, 6.431122239465738], [26.001725277623876, 6.431122239465738], [26.001725277623876, 6.37699241354463], [26.12856739724112, 6.37699241354463], [26.12856739724112, 6.395035068263468], [26.164808002846048, 6.395035068263468], [26.164808002846048, 6.413078342967868], [26.182928305648513, 6.413078342967868], [26.182928305648513, 6.449166759565559], [26.201048608450975, 6.449166759565559], [26.201048608450975, 6.46721190507637], [26.219168911253437, 6.46721190507637], [26.219168911253437, 6.503304079569989], [26.237289214055902, 6.503304079569989], [26.237289214055902, 6.521351112173735], [26.273529819660826, 6.521351112173735], [26.273529819660826, 6.46721190507637], [26.382251636475612, 6.46721190507637], [26.382251636475612, 6.503304079569989], [26.327890728068223, 6.503304079569989], [26.327890728068223, 6.575496013150397], [26.34601103087068, 6.575496013150397], [26.34601103087068, 6.647698156187535], [26.382251636475612, 6.647698156187535], [26.382251636475612, 6.6657503007800445], [26.400371939278074, 6.6657503007800445], [26.400371939278074, 6.647698156187535], [26.47285315048793, 6.647698156187535], [26.47285315048793, 6.6657503007800445], [26.490973453290394, 6.6657503007800445], [26.490973453290394, 6.756020767548589], [26.47285315048793, 6.756020767548589], [26.47285315048793, 6.7740768223878165], [26.418492242080536, 6.7740768223878165], [26.418492242080536, 6.810190908104613], [26.436612544883, 6.810190908104613], [26.436612544883, 6.828248942623078], [26.47285315048793, 6.828248942623078], [26.47285315048793, 6.882427034676847], [26.490973453290394, 6.882427034676847], [26.490973453290394, 6.90048773426946], [26.56345466450025, 6.90048773426946], [26.56345466450025, 6.91854910468856], [26.599695270105173, 6.91854910468856], [26.599695270105173, 6.936611147758549], [26.617815572907638, 6.936611147758549], [26.617815572907638, 6.954673865304445], [26.635935875710103, 6.954673865304445], [26.635935875710103, 6.936611147758549], [26.654056178512562, 6.936611147758549], [26.654056178512562, 6.91854910468856], [26.744657692524882, 6.91854910468856], [26.744657692524882, 6.990801331127114], [26.726537389722417, 6.990801331127114], [26.726537389722417, 7.008866083057012], [26.8352592065372, 7.008866083057012], [26.8352592065372, 7.0269315167690705], [26.690296784117493, 7.0269315167690705], [26.690296784117493, 7.0811319268825255], [26.708417086919955, 7.0811319268825255], [26.708417086919955, 7.099200106010676], [26.8352592065372, 7.099200106010676], [26.8352592065372, 7.171479750129345], [26.78089829812981, 7.171479750129345], [26.78089829812981, 7.207623754405596], [26.799018600932275, 7.207623754405596], [26.799018600932275, 7.225696808515738], [26.817138903734737, 7.225696808515738], [26.817138903734737, 7.261845029855554], [26.8352592065372, 7.261845029855554], [26.8352592065372, 7.27992020075736], [26.853379509339664, 7.27992020075736], [26.853379509339664, 7.2979960809295985], [26.87149981214213, 7.2979960809295985], [26.87149981214213, 7.334149976436806], [26.88962011494459, 7.334149976436806], [26.88962011494459, 7.370306731086544], [27.01646223456184, 7.370306731086544], [27.01646223456184, 7.3883861851894075], [26.88962011494459, 7.3883861851894075], [26.88962011494459, 7.4064663595986815], [26.907740417747053, 7.4064663595986815], [26.907740417747053, 7.442628876703652], [26.88962011494459, 7.442628876703652], [26.88962011494459, 7.460711223084615], [26.853379509339664, 7.460711223084615], [26.853379509339664, 7.478794297142507], [26.8352592065372, 7.478794297142507], [26.8352592065372, 7.496878100721639], [26.817138903734737, 7.496878100721639], [26.817138903734737, 7.514962635666978], [26.47285315048793, 7.514962635666978], [26.47285315048793, 7.496878100721639], [26.490973453290394, 7.496878100721639], [26.490973453290394, 7.4064663595986815], [26.47285315048793, 7.4064663595986815], [26.47285315048793, 7.3883861851894075], [26.436612544883, 7.3883861851894075], [26.436612544883, 7.4064663595986815], [26.34601103087068, 7.4064663595986815], [26.34601103087068, 7.442628876703652], [26.364131333673146, 7.442628876703652], [26.364131333673146, 7.478794297142507], [26.382251636475612, 7.478794297142507], [26.382251636475612, 7.5511339070395245], [26.364131333673146, 7.5511339070395245], [26.364131333673146, 7.569220647160049], [26.34601103087068, 7.569220647160049], [26.34601103087068, 7.60539634550797], [26.29165012246329, 7.60539634550797], [26.29165012246329, 7.695848616638902], [26.273529819660826, 7.695848616638902], [26.273529819660826, 7.786319680447201], [26.29165012246329, 7.786319680447201], [26.29165012246329, 7.8225134198333315], [26.309770425265757, 7.8225134198333315], [26.309770425265757, 7.840611435636537], [26.327890728068223, 7.840611435636537], [26.327890728068223, 7.858710217990361], [26.34601103087068, 7.858710217990361], [26.34601103087068, 7.8225134198333315], [26.382251636475612, 7.8225134198333315], [26.382251636475612, 7.9130111829469305], [26.418492242080536, 7.9130111829469305], [26.418492242080536, 7.894910089785711], [26.454732847685467, 7.894910089785711], [26.454732847685467, 7.8768097687535885], [26.47285315048793, 7.8768097687535885], [26.47285315048793, 7.786319680447201], [26.490973453290394, 7.786319680447201], [26.490973453290394, 7.750128984975846], [26.56345466450025, 7.750128984975846], [26.56345466450025, 7.732034774068742], [26.599695270105173, 7.732034774068742], [26.599695270105173, 7.713941318574386], [26.726537389722417, 7.713941318574386], [26.726537389722417, 7.732034774068742], [26.762777995327347, 7.732034774068742], [26.762777995327347, 7.713941318574386], [26.8352592065372, 7.713941318574386], [26.8352592065372, 7.732034774068742], [26.88962011494459, 7.732034774068742], [26.88962011494459, 7.768223953150242], [26.92586072054952, 7.768223953150242], [26.92586072054952, 7.750128984975846], [26.943981023351984, 7.750128984975846], [26.943981023351984, 7.768223953150242], [26.962101326154443, 7.768223953150242], [26.962101326154443, 7.750128984975846], [27.034582537364297, 7.750128984975846], [27.034582537364297, 7.732034774068742], [27.052702840166763, 7.732034774068742], [27.052702840166763, 7.750128984975846], [27.07082314296923, 7.750128984975846], [27.07082314296923, 7.713941318574386], [27.08894344577169, 7.713941318574386], [27.08894344577169, 7.659665466032585], [27.07082314296923, 7.659665466032585], [27.07082314296923, 7.641575013657493], [27.034582537364297, 7.641575013657493], [27.034582537364297, 7.60539634550797], [27.01646223456184, 7.60539634550797], [27.01646223456184, 7.5873081260334105], [26.998341931759374, 7.5873081260334105], [26.998341931759374, 7.569220647160049], [26.980221628956908, 7.569220647160049], [26.980221628956908, 7.514962635666978], [26.962101326154443, 7.514962635666978], [26.962101326154443, 7.478794297142507], [26.943981023351984, 7.478794297142507], [26.943981023351984, 7.460711223084615], [27.107063748574152, 7.460711223084615], [27.107063748574152, 7.60539634550797], [27.143304354179083, 7.60539634550797], [27.143304354179083, 7.623485307432754], [27.161424656981545, 7.623485307432754], [27.161424656981545, 7.5511339070395245], [27.17954495978401, 7.5511339070395245], [27.17954495978401, 7.460711223084615], [27.28826677659879, 7.460711223084615], [27.28826677659879, 7.695848616638902], [27.270146473796327, 7.695848616638902], [27.270146473796327, 7.713941318574386], [27.252026170993865, 7.713941318574386], [27.252026170993865, 7.695848616638902], [27.2339058681914, 7.695848616638902], [27.2339058681914, 7.713941318574386], [27.215785565388934, 7.713941318574386], [27.215785565388934, 7.732034774068742], [27.2339058681914, 7.732034774068742], [27.2339058681914, 7.750128984975846], [27.270146473796327, 7.750128984975846], [27.270146473796327, 7.732034774068742], [27.37886829061111, 7.732034774068742], [27.37886829061111, 7.8225134198333315], [27.523830713030815, 7.8225134198333315], [27.523830713030815, 7.840611435636537], [27.54195101583328, 7.840611435636537], [27.54195101583328, 7.858710217990361], [27.560071318635746, 7.858710217990361], [27.560071318635746, 7.8768097687535885], [27.578191621438208, 7.8768097687535885], [27.578191621438208, 7.894910089785711], [27.614432227043135, 7.894910089785711], [27.614432227043135, 7.9130111829469305], [27.668793135450525, 7.9130111829469305], [27.668793135450525, 7.931113050098162], [27.68691343825299, 7.931113050098162], [27.68691343825299, 7.9130111829469305], [27.705033741055455, 7.9130111829469305], [27.705033741055455, 7.894910089785711], [27.723154043857914, 7.894910089785711], [27.723154043857914, 7.804416168722675], [27.74127434666038, 7.804416168722675], [27.74127434666038, 7.786319680447201], [27.705033741055455, 7.786319680447201], [27.705033741055455, 7.768223953150242], [27.668793135450525, 7.768223953150242], [27.668793135450525, 7.677756666409125], [27.68691343825299, 7.677756666409125], [27.68691343825299, 7.659665466032585], [27.705033741055455, 7.659665466032585], [27.705033741055455, 7.623485307432754], [27.723154043857914, 7.623485307432754], [27.723154043857914, 7.60539634550797], [27.777514952265307, 7.60539634550797], [27.777514952265307, 7.5873081260334105], [27.759394649462845, 7.5873081260334105], [27.759394649462845, 7.5511339070395245], [27.777514952265307, 7.5511339070395245], [27.777514952265307, 7.533047903824164], [27.79563525506777, 7.533047903824164], [27.79563525506777, 7.514962635666978], [27.84999616347516, 7.514962635666978], [27.84999616347516, 7.496878100721639], [27.90435707188255, 7.496878100721639], [27.90435707188255, 7.478794297142507], [27.868116466277627, 7.478794297142507], [27.868116466277627, 7.460711223084615], [27.84999616347516, 7.460711223084615], [27.84999616347516, 7.442628876703652], [27.813755557870234, 7.442628876703652], [27.813755557870234, 7.4245472561559955], [27.79563525506777, 7.4245472561559955], [27.79563525506777, 7.370306731086544], [27.813755557870234, 7.370306731086544], [27.813755557870234, 7.334149976436806], [27.8318758606727, 7.334149976436806], [27.8318758606727, 7.31607267220997], [27.813755557870234, 7.31607267220997], [27.813755557870234, 7.27992020075736], [27.84999616347516, 7.27992020075736], [27.84999616347516, 7.171479750129345], [27.868116466277627, 7.171479750129345], [27.868116466277627, 7.1534087962949675], [27.88623676908009, 7.1534087962949675], [27.88623676908009, 7.135338538885316], [27.90435707188255, 7.135338538885316], [27.90435707188255, 7.099200106010676], [27.958717980289943, 7.099200106010676], [27.958717980289943, 7.008866083057012], [28.10368040270965, 7.008866083057012], [28.10368040270965, 7.0269315167690705], [28.013078888697336, 7.0269315167690705], [28.013078888697336, 7.044997634091408], [28.031199191499795, 7.044997634091408], [28.031199191499795, 7.0811319268825255], [28.04931949430226, 7.0811319268825255], [28.04931949430226, 7.117268976067851], [28.067439797104726, 7.117268976067851], [28.067439797104726, 7.1534087962949675], [28.085560099907187, 7.1534087962949675], [28.085560099907187, 7.171479750129345], [28.176161613919508, 7.171479750129345], [28.176161613919508, 7.1534087962949675], [28.230522522326897, 7.1534087962949675], [28.230522522326897, 7.135338538885316], [28.266763127931824, 7.135338538885316], [28.266763127931824, 7.008866083057012], [28.284883430734286, 7.008866083057012], [28.284883430734286, 7.099200106010676], [28.321124036339217, 7.099200106010676], [28.321124036339217, 7.0811319268825255], [28.339244339141676, 7.0811319268825255], [28.339244339141676, 7.063064436852769], [28.35736464194414, 7.063064436852769], [28.35736464194414, 7.008866083057012], [28.375484944746606, 7.008866083057012], [28.375484944746606, 6.990801331127114], [28.520447367166316, 6.990801331127114], [28.520447367166316, 7.0269315167690705], [28.55668797277124, 7.0269315167690705], [28.55668797277124, 7.044997634091408], [28.611048881178633, 7.044997634091408], [28.611048881178633, 7.0269315167690705], [28.629169183981098, 7.0269315167690705], [28.629169183981098, 6.990801331127114], [28.64728948678356, 6.990801331127114], [28.64728948678356, 6.91854910468856], [28.737891000795877, 6.91854910468856], [28.737891000795877, 7.0269315167690705], [28.683530092388484, 7.0269315167690705], [28.683530092388484, 7.063064436852769], [28.70165039519095, 7.063064436852769], [28.70165039519095, 7.117268976067851], [28.71977069799341, 7.117268976067851], [28.71977069799341, 7.135338538885316], [28.774131606400804, 7.135338538885316], [28.774131606400804, 7.1534087962949675], [28.79225190920327, 7.1534087962949675], [28.79225190920327, 7.171479750129345], [28.810372212005735, 7.171479750129345], [28.810372212005735, 7.099200106010676], [28.9734549372279, 7.099200106010676], [28.9734549372279, 7.063064436852769], [28.955334634425444, 7.063064436852769], [28.955334634425444, 7.044997634091408], [28.93721433162298, 7.044997634091408], [28.93721433162298, 7.0269315167690705], [28.900973726018048, 7.0269315167690705], [28.900973726018048, 6.990801331127114], [28.919094028820513, 6.990801331127114], [28.919094028820513, 6.954673865304445], [28.93721433162298, 6.954673865304445], [28.93721433162298, 6.90048773426946], [28.955334634425444, 6.90048773426946], [28.955334634425444, 6.828248942623078], [28.9734549372279, 6.828248942623078], [28.9734549372279, 6.7740768223878165], [28.991575240030365, 6.7740768223878165], [28.991575240030365, 6.756020767548589], [28.900973726018048, 6.756020767548589], [28.900973726018048, 6.737965368962535], [29.154657965252536, 6.737965368962535], [29.154657965252536, 6.7740768223878165], [29.136537662450074, 6.7740768223878165], [29.136537662450074, 6.84630764067653], [29.227139176462394, 6.84630764067653], [29.227139176462394, 6.882427034676847], [29.209018873659932, 6.882427034676847], [29.209018873659932, 6.864367004086929], [29.154657965252536, 6.864367004086929], [29.154657965252536, 6.91854910468856], [29.444582810091955, 6.91854910468856], [29.444582810091955, 6.90048773426946], [29.46270311289442, 6.90048773426946], [29.46270311289442, 6.882427034676847], [29.40834220448703, 6.882427034676847], [29.40834220448703, 6.828248942623078], [29.372101598882104, 6.828248942623078], [29.372101598882104, 6.810190908104613], [29.35398129607964, 6.810190908104613], [29.35398129607964, 6.7740768223878165], [29.335860993277176, 6.7740768223878165], [29.335860993277176, 6.756020767548589], [29.31774069047471, 6.756020767548589], [29.31774069047471, 6.719910624810712], [29.24525947926486, 6.719910624810712], [29.24525947926486, 6.701856533274762], [29.190898570857467, 6.701856533274762], [29.190898570857467, 6.719910624810712], [29.136537662450074, 6.719910624810712], [29.136537662450074, 6.6657503007800445], [29.08217675404269, 6.6657503007800445], [29.08217675404269, 6.647698156187535], [29.136537662450074, 6.647698156187535], [29.136537662450074, 6.6115958012322995], [29.10029705684515, 6.6115958012322995], [29.10029705684515, 6.593545587239368], [29.08217675404269, 6.593545587239368], [29.08217675404269, 6.575496013150397], [28.991575240030365, 6.575496013150397], [28.991575240030365, 6.539398777430352], [29.045936148437757, 6.539398777430352], [29.045936148437757, 6.521351112173735], [29.027815845635292, 6.521351112173735], [29.027815845635292, 6.485257677807786], [28.828492514808197, 6.485257677807786], [28.828492514808197, 6.46721190507637], [28.79225190920327, 6.46721190507637], [28.79225190920327, 6.431122239465738], [28.70165039519095, 6.431122239465738], [28.70165039519095, 6.449166759565559], [28.683530092388484, 6.449166759565559], [28.683530092388484, 6.46721190507637], [28.64728948678356, 6.46721190507637], [28.64728948678356, 6.521351112173735], [28.665409789586025, 6.521351112173735], [28.665409789586025, 6.575496013150397], [28.64728948678356, 6.575496013150397], [28.64728948678356, 6.62964665694342], [28.683530092388484, 6.62964665694342], [28.683530092388484, 6.647698156187535], [28.70165039519095, 6.647698156187535], [28.70165039519095, 6.6657503007800445], [28.71977069799341, 6.6657503007800445], [28.71977069799341, 6.683803092536928], [28.737891000795877, 6.683803092536928], [28.737891000795877, 6.701856533274762], [28.756011303598342, 6.701856533274762], [28.756011303598342, 6.792133535299775], [28.737891000795877, 6.792133535299775], [28.737891000795877, 6.828248942623078], [28.828492514808197, 6.828248942623078], [28.828492514808197, 6.84630764067653], [28.71977069799341, 6.84630764067653], [28.71977069799341, 6.828248942623078], [28.574808275573705, 6.828248942623078], [28.574808275573705, 6.936611147758549], [28.55668797277124, 6.936611147758549], [28.55668797277124, 6.972737259151883], [28.538567669968778, 6.972737259151883], [28.538567669968778, 6.954673865304445], [28.520447367166316, 6.954673865304445], [28.520447367166316, 6.882427034676847], [28.50232706436385, 6.882427034676847], [28.50232706436385, 6.792133535299775], [28.48420676156139, 6.792133535299775], [28.48420676156139, 6.683803092536928], [28.466086458758923, 6.683803092536928], [28.466086458758923, 6.647698156187535], [28.44796615595646, 6.647698156187535], [28.44796615595646, 6.575496013150397], [28.429845853153996, 6.575496013150397], [28.429845853153996, 6.46721190507637], [28.44796615595646, 6.46721190507637], [28.44796615595646, 6.413078342967868], [28.429845853153996, 6.413078342967868], [28.429845853153996, 6.395035068263468], [28.41172555035153, 6.395035068263468], [28.41172555035153, 6.413078342967868], [28.35736464194414, 6.413078342967868], [28.35736464194414, 6.431122239465738], [28.284883430734286, 6.431122239465738], [28.284883430734286, 6.46721190507637], [28.30300373353675, 6.46721190507637], [28.30300373353675, 6.485257677807786], [28.284883430734286, 6.485257677807786], [28.284883430734286, 6.503304079569989], [28.230522522326897, 6.503304079569989], [28.230522522326897, 6.485257677807786], [28.21240221952443, 6.485257677807786], [28.21240221952443, 6.449166759565559], [28.158041311117042, 6.449166759565559], [28.158041311117042, 6.46721190507637], [28.13992100831458, 6.46721190507637], [28.13992100831458, 6.485257677807786], [28.121800705512115, 6.485257677807786], [28.121800705512115, 6.503304079569989], [28.10368040270965, 6.503304079569989], [28.10368040270965, 6.62964665694342], [28.13992100831458, 6.62964665694342], [28.13992100831458, 6.6115958012322995], [28.176161613919508, 6.6115958012322995], [28.176161613919508, 6.62964665694342], [28.19428191672197, 6.62964665694342], [28.19428191672197, 6.647698156187535], [28.21240221952443, 6.647698156187535], [28.21240221952443, 6.6657503007800445], [28.19428191672197, 6.6657503007800445], [28.19428191672197, 6.683803092536928], [28.121800705512115, 6.683803092536928], [28.121800705512115, 6.719910624810712], [28.13992100831458, 6.719910624810712], [28.13992100831458, 6.756020767548589], [28.10368040270965, 6.756020767548589], [28.10368040270965, 6.7740768223878165], [28.031199191499795, 6.7740768223878165], [28.031199191499795, 6.792133535299775], [28.04931949430226, 6.792133535299775], [28.04931949430226, 6.810190908104613], [28.031199191499795, 6.810190908104613], [28.031199191499795, 6.828248942623078], [27.99495858589487, 6.828248942623078], [27.99495858589487, 6.84630764067653], [27.90435707188255, 6.84630764067653], [27.90435707188255, 6.828248942623078], [27.958717980289943, 6.828248942623078], [27.958717980289943, 6.810190908104613], [27.94059767748748, 6.810190908104613], [27.94059767748748, 6.792133535299775], [27.922477374685016, 6.792133535299775], [27.922477374685016, 6.7740768223878165], [27.8318758606727, 6.7740768223878165], [27.8318758606727, 6.84630764067653], [27.813755557870234, 6.84630764067653], [27.813755557870234, 6.828248942623078], [27.79563525506777, 6.828248942623078], [27.79563525506777, 6.7740768223878165], [27.759394649462845, 6.7740768223878165], [27.759394649462845, 6.756020767548589], [27.74127434666038, 6.756020767548589], [27.74127434666038, 6.864367004086929], [27.723154043857914, 6.864367004086929], [27.723154043857914, 6.91854910468856], [27.705033741055455, 6.91854910468856], [27.705033741055455, 6.972737259151883], [27.68691343825299, 6.972737259151883], [27.68691343825299, 6.990801331127114], [27.668793135450525, 6.990801331127114], [27.668793135450525, 7.0269315167690705], [27.65067283264806, 7.0269315167690705], [27.65067283264806, 7.0811319268825255], [27.614432227043135, 7.0811319268825255], [27.614432227043135, 7.099200106010676], [27.74127434666038, 7.099200106010676], [27.74127434666038, 7.117268976067851], [27.65067283264806, 7.117268976067851], [27.65067283264806, 7.135338538885316], [27.614432227043135, 7.135338538885316], [27.614432227043135, 7.171479750129345], [27.578191621438208, 7.171479750129345], [27.578191621438208, 7.1534087962949675], [27.560071318635746, 7.1534087962949675], [27.560071318635746, 7.135338538885316], [27.523830713030815, 7.135338538885316], [27.523830713030815, 7.117268976067851], [27.505710410228353, 7.117268976067851], [27.505710410228353, 7.099200106010676], [27.487590107425888, 7.099200106010676], [27.487590107425888, 7.207623754405596], [27.451349501820964, 7.207623754405596], [27.451349501820964, 7.063064436852769], [27.415108896216033, 7.063064436852769], [27.415108896216033, 7.044997634091408], [27.37886829061111, 7.044997634091408], [27.37886829061111, 7.117268976067851], [27.34262768500618, 7.117268976067851], [27.34262768500618, 7.135338538885316], [27.32450738220372, 7.135338538885316], [27.32450738220372, 7.171479750129345], [27.306387079401254, 7.171479750129345], [27.306387079401254, 7.207623754405596], [27.28826677659879, 7.207623754405596], [27.28826677659879, 7.225696808515738], [27.215785565388934, 7.225696808515738], [27.215785565388934, 7.189551402221619], [27.197665262586472, 7.189551402221619], [27.197665262586472, 7.171479750129345], [27.17954495978401, 7.171479750129345], [27.17954495978401, 7.135338538885316], [27.161424656981545, 7.135338538885316], [27.161424656981545, 7.117268976067851], [26.998341931759374, 7.117268976067851], [26.998341931759374, 7.063064436852769], [27.034582537364297, 7.063064436852769], [27.034582537364297, 7.044997634091408], [27.052702840166763, 7.044997634091408], [27.052702840166763, 7.0269315167690705], [26.907740417747053, 7.0269315167690705], [26.907740417747053, 7.008866083057012], [27.08894344577169, 7.008866083057012], [27.08894344577169, 6.91854910468856], [27.107063748574152, 6.91854910468856], [27.107063748574152, 6.990801331127114], [27.161424656981545, 6.990801331127114], [27.161424656981545, 6.972737259151883], [27.17954495978401, 6.972737259151883], [27.17954495978401, 6.91854910468856], [27.2339058681914, 6.91854910468856], [27.2339058681914, 6.90048773426946], [27.215785565388934, 6.90048773426946], [27.215785565388934, 6.864367004086929], [27.197665262586472, 6.864367004086929], [27.197665262586472, 6.84630764067653], [27.17954495978401, 6.84630764067653], [27.17954495978401, 6.828248942623078], [27.161424656981545, 6.828248942623078], [27.161424656981545, 6.792133535299775], [27.143304354179083, 6.792133535299775], [27.143304354179083, 6.7740768223878165], [27.125184051376618, 6.7740768223878165], [27.125184051376618, 6.756020767548589], [27.107063748574152, 6.756020767548589], [27.107063748574152, 6.701856533274762], [27.07082314296923, 6.701856533274762], [27.07082314296923, 6.683803092536928], [27.052702840166763, 6.683803092536928], [27.052702840166763, 6.6657503007800445], [27.01646223456184, 6.6657503007800445], [27.01646223456184, 6.683803092536928], [26.998341931759374, 6.683803092536928], [26.998341931759374, 6.6657503007800445], [26.943981023351984, 6.6657503007800445], [26.943981023351984, 6.647698156187535], [26.853379509339664, 6.647698156187535], [26.853379509339664, 6.6657503007800445], [26.8352592065372, 6.6657503007800445], [26.8352592065372, 6.683803092536928], [26.799018600932275, 6.683803092536928], [26.799018600932275, 6.737965368962535], [26.78089829812981, 6.737965368962535], [26.78089829812981, 6.756020767548589], [26.726537389722417, 6.756020767548589], [26.726537389722417, 6.683803092536928], [26.672176481315027, 6.683803092536928], [26.672176481315027, 6.6657503007800445], [26.654056178512562, 6.6657503007800445], [26.654056178512562, 6.756020767548589], [26.58157496730271, 6.756020767548589], [26.58157496730271, 6.737965368962535], [26.56345466450025, 6.737965368962535], [26.56345466450025, 6.719910624810712], [26.58157496730271, 6.719910624810712], [26.58157496730271, 6.683803092536928], [26.599695270105173, 6.683803092536928], [26.599695270105173, 6.647698156187535], [26.617815572907638, 6.647698156187535], [26.617815572907638, 6.593545587239368], [26.599695270105173, 6.593545587239368], [26.599695270105173, 6.521351112173735], [26.58157496730271, 6.521351112173735], [26.58157496730271, 6.503304079569989], [26.56345466450025, 6.503304079569989], [26.56345466450025, 6.46721190507637], [26.545334361697783, 6.46721190507637], [26.545334361697783, 6.37699241354463], [26.617815572907638, 6.37699241354463], [26.617815572907638, 6.358950377004004], [26.635935875710103, 6.358950377004004], [26.635935875710103, 6.196599568222144], [26.654056178512562, 6.196599568222144], [26.654056178512562, 6.286788376496282], [26.690296784117493, 6.286788376496282], [26.690296784117493, 6.268749403756095], [26.78089829812981, 6.268749403756095], [26.78089829812981, 6.250711038361766], [26.799018600932275, 6.250711038361766], [26.799018600932275, 6.23267327850984], [26.817138903734737, 6.23267327850984], [26.817138903734737, 6.160528258476339], [26.8352592065372, 6.160528258476339], [26.8352592065372, 6.052328588453958], [26.817138903734737, 6.052328588453958], [26.817138903734737, 6.034297370696531], [26.799018600932275, 6.034297370696531], [26.799018600932275, 6.016266736882443], [26.744657692524882, 6.016266736882443], [26.744657692524882, 5.9982366852152476], [26.726537389722417, 5.9982366852152476], [26.726537389722417, 5.9441500051384875], [26.708417086919955, 5.9441500051384875], [26.708417086919955, 5.926122264104947], [26.726537389722417, 5.926122264104947], [26.726537389722417, 5.908095096243951], [26.762777995327347, 5.908095096243951], [26.762777995327347, 5.854017013765743], [26.744657692524882, 5.854017013765743], [26.744657692524882, 5.76389817247882], [26.726537389722417, 5.76389817247882], [26.726537389722417, 5.691813137120513], [26.690296784117493, 5.691813137120513], [26.690296784117493, 5.67379325749803], [26.708417086919955, 5.67379325749803], [26.708417086919955, 5.655773925988191], [26.726537389722417, 5.655773925988191], [26.726537389722417, 5.583702045358143], [26.690296784117493, 5.583702045358143], [26.690296784117493, 5.56568542762796], [26.672176481315027, 5.56568542762796], [26.672176481315027, 5.583702045358143], [26.617815572907638, 5.583702045358143], [26.617815572907638, 5.529653802592224], [26.599695270105173, 5.529653802592224], [26.599695270105173, 5.5116387917205625], [26.58157496730271, 5.5116387917205625], [26.58157496730271, 5.493624312903104], [26.56345466450025, 5.493624312903104], [26.56345466450025, 5.6197369001620405], [26.58157496730271, 5.6197369001620405], [26.58157496730271, 5.691813137120513], [26.599695270105173, 5.691813137120513], [26.599695270105173, 5.817967791779444], [26.617815572907638, 5.817967791779444], [26.617815572907638, 5.908095096243951], [26.635935875710103, 5.908095096243951], [26.635935875710103, 5.926122264104947], [26.617815572907638, 5.926122264104947], [26.617815572907638, 5.9441500051384875], [26.635935875710103, 5.9441500051384875], [26.635935875710103, 5.9982366852152476], [26.617815572907638, 5.9982366852152476], [26.617815572907638, 6.016266736882443], [26.58157496730271, 6.016266736882443], [26.58157496730271, 6.034297370696531], [26.56345466450025, 6.034297370696531], [26.56345466450025, 6.124459334864475], [26.47285315048793, 6.124459334864475], [26.47285315048793, 6.142493499303824], [26.454732847685467, 6.142493499303824], [26.454732847685467, 6.178563614182206], [26.436612544883, 6.178563614182206], [26.436612544883, 6.23267327850984], [26.418492242080536, 6.23267327850984], [26.418492242080536, 6.268749403756095], [26.364131333673146, 6.268749403756095], [26.364131333673146, 6.250711038361766], [26.34601103087068, 6.250711038361766], [26.34601103087068, 6.23267327850984], [26.327890728068223, 6.23267327850984], [26.327890728068223, 6.214636122397419], [26.309770425265757, 6.214636122397419], [26.309770425265757, 6.23267327850984], [26.255409516858368, 6.23267327850984], [26.255409516858368, 6.214636122397419], [26.182928305648513, 6.214636122397419], [26.182928305648513, 6.23267327850984], [26.164808002846048, 6.23267327850984], [26.164808002846048, 6.250711038361766], [26.146687700043582, 6.250711038361766], [26.146687700043582, 6.268749403756095], [26.056086186031266, 6.268749403756095]]]}}, {"type": "Feature", "properties": {"uid": 2, "seed": "core proposal 2", "seed_kind": "optimized", "area_km2": 18712.0, "area_ha": 1871200, "country": "SSD", "in_zones": "[]", "overlaps": "[\"PLAN Boro-Biri-headwaters_13,111km2 23%\"]", "km_to_park": 34.1, "clusters": 11, "population_est": 178, "pop_per_km2": 0.01, "osm_places": 0, "new_since_2015": 0, "camps": 11, "built_km2": 0.01, "built_2000_km2": 0.01, "built_2015_km2": 0.01, "towns": "[]", "fire_det_2024_25": 144320, "fire_per_1000km2_yr": 3856, "fire_nov_feb_share": 0.95, "fronts": 5638, "fronts_per_1000km2": 301.3, "fronts_transhumance_pct": 97, "fronts_long": 3517, "fronts_long_per_1000km2": 187.95, "long_front_intensity": 257.11, "front_dirs": "{\"NW\": 888, \"SE\": 786, \"E\": 780}", "front_dirs_all": "{\"NW\": 888, \"SE\": 786, \"N\": 559, \"W\": 759, \"S\": 641, \"E\": 780, \"SW\": 623, \"NE\": 602}", "clearing_events": 25, "clearing_km2": 0.92, "clearing_since_2020_km2": 0.64, "clearing_encroach_slash": 1, "mine_reported": 0, "mine_candidates": 1, "mine_top05_cells": 26, "mine_watchlist": 4, "mining_measured": true, "geology": "[\"PLu Undifferentiated metamorphic rocks, migm 44%\", \"PLp Para schist 34%\"]", "geo_affinity_mean": 0.17, "cropland_2003_pct": 0.0, "cropland_2019_pct": 0.03, "boundary_legibility": 0.47, "built_growth_x": null, "front_axis_coherence": 0.3, "front_axis": "SE\u2013NW", "rationale": "[\"core\", \"long fronts per 10 km width 257.11 >= 154.06: yes\", \"transhumance share % 97 >= 50: yes\", \"axis coherence (0.25 = random) 0.3 >= 0.4: no\", \"people/km2 0.01 <= 2: yes\", \"\\u2014 not a corridor; core?\", \"people/km2 0.01 <= 0.02: yes\", \"cropland 2019 % 0.03 <= 0.05: yes\", \"clearing since 2020 km2/1000km2 0.034 <= 0.5: yes\", \"reported workings 0 <= 0: yes\"]", "cls": "core", "boundary": "[\"Boro on the E/SW (104 km)\", \"Low hill \\u2013 J. ABU RASEIN \\u2013 J. NGAYA ridge on the W/NW (94 km)\", \"SDN border on the NW/W (90 km)\", \"unnamed river (order 4) on the W/N (88 km)\", \"CAF border on the S/SW (86 km)\", \"J. KOAYA \\u2013 J. NOAYA 4428 \\u2013 J. HELISI ridge on the NW/W (84 km)\", \"422 km along a geological contact only (not visible on the ground \\u2014 needs beacons)\", \"landmarks on the unnamed stretches: Kara (1930s village) (SE), Abu Ras (1930s village) (S), Monaya Toboja (1930s village) (NE), J. NASR \\u2013 J. TELESU (E), Abu Zala (1930s village) (E), J. BANGILI (SE), Rabeh (1930s village) (SE), Bake (1930s village) (SE)\"]", "perimeter_km": 2440, "unattributed_pct": 36, "support_mean": 0.59, "contested_units": 59, "area_ha_p10_p50_p90": "[1886600, 2258800, 2497400]"}, "geometry": {"type": "MultiPolygon", "coordinates": [[[[25.657439524377065, 8.329553722551557], [25.76616134119185, 8.329553722551557], [25.76616134119185, 8.311434355338976], [25.802401946796778, 8.311434355338976], [25.802401946796778, 8.329553722551557], [25.856762855204167, 8.329553722551557], [25.856762855204167, 8.293315803241047], [25.8386425524017, 8.293315803241047], [25.8386425524017, 8.238965018867917], [25.856762855204167, 8.238965018867917], [25.856762855204167, 8.22084970846511], [25.874883158006632, 8.22084970846511], [25.874883158006632, 8.202735203798978], [25.893003460809094, 8.202735203798978], [25.893003460809094, 8.18462150299617], [25.911123763611556, 8.18462150299617], [25.911123763611556, 8.130285205045478], [25.82052224959924, 8.130285205045478], [25.82052224959924, 8.112174700977448], [25.802401946796778, 8.112174700977448], [25.802401946796778, 8.094064991417186], [25.82052224959924, 8.094064991417186], [25.82052224959924, 8.075956074495794], [25.874883158006632, 8.075956074495794], [25.874883158006632, 8.0216340608869], [25.856762855204167, 8.0216340608869], [25.856762855204167, 7.931113050098162], [25.82052224959924, 7.931113050098162], [25.82052224959924, 7.8225134198333315], [25.893003460809094, 7.8225134198333315], [25.893003460809094, 7.840611435636537], [25.911123763611556, 7.840611435636537], [25.911123763611556, 7.8768097687535885], [25.92924406641402, 7.8768097687535885], [25.92924406641402, 7.894910089785711], [25.947364369216487, 7.894910089785711], [25.947364369216487, 7.9130111829469305], [25.965484672018945, 7.9130111829469305], [25.965484672018945, 7.931113050098162], [25.98360497482141, 7.931113050098162], [25.98360497482141, 7.9130111829469305], [26.001725277623876, 7.9130111829469305], [26.001725277623876, 7.8225134198333315], [26.056086186031266, 7.8225134198333315], [26.056086186031266, 7.840611435636537], [26.07420648883373, 7.840611435636537], [26.07420648883373, 7.858710217990361], [26.110447094438655, 7.858710217990361], [26.110447094438655, 7.8768097687535885], [26.201048608450975, 7.8768097687535885], [26.201048608450975, 7.858710217990361], [26.219168911253437, 7.858710217990361], [26.219168911253437, 7.840611435636537], [26.201048608450975, 7.840611435636537], [26.201048608450975, 7.804416168722675], [26.182928305648513, 7.804416168722675], [26.182928305648513, 7.786319680447201], [26.164808002846048, 7.786319680447201], [26.164808002846048, 7.768223953150242], [26.146687700043582, 7.768223953150242], [26.146687700043582, 7.750128984975846], [26.12856739724112, 7.750128984975846], [26.12856739724112, 7.732034774068742], [26.110447094438655, 7.732034774068742], [26.110447094438655, 7.713941318574386], [26.092326791636193, 7.713941318574386], [26.092326791636193, 7.695848616638902], [26.07420648883373, 7.695848616638902], [26.07420648883373, 7.623485307432754], [26.056086186031266, 7.623485307432754], [26.056086186031266, 7.5873081260334105], [26.001725277623876, 7.5873081260334105], [26.001725277623876, 7.569220647160049], [25.98360497482141, 7.569220647160049], [25.98360497482141, 7.533047903824164], [25.947364369216487, 7.533047903824164], [25.947364369216487, 7.5511339070395245], [25.911123763611556, 7.5511339070395245], [25.911123763611556, 7.569220647160049], [25.92924406641402, 7.569220647160049], [25.92924406641402, 7.659665466032585], [25.82052224959924, 7.659665466032585], [25.82052224959924, 7.713941318574386], [25.8386425524017, 7.713941318574386], [25.8386425524017, 7.732034774068742], [25.82052224959924, 7.732034774068742], [25.82052224959924, 7.750128984975846], [25.729920735586923, 7.750128984975846], [25.729920735586923, 7.659665466032585], [25.693680129981995, 7.659665466032585], [25.693680129981995, 7.641575013657493], [25.67555982717953, 7.641575013657493], [25.67555982717953, 7.659665466032585], [25.639319221574606, 7.659665466032585], [25.639319221574606, 7.5873081260334105], [25.62119891877214, 7.5873081260334105], [25.62119891877214, 7.569220647160049], [25.603078615969675, 7.569220647160049], [25.603078615969675, 7.5511339070395245], [25.58495831316721, 7.5511339070395245], [25.58495831316721, 7.533047903824164], [25.51247710195736, 7.533047903824164], [25.51247710195736, 7.514962635666978], [25.494356799154897, 7.514962635666978], [25.494356799154897, 7.533047903824164], [25.458116193549966, 7.533047903824164], [25.458116193549966, 7.460711223084615], [25.53059740475982, 7.460711223084615], [25.53059740475982, 7.442628876703652], [25.548717707562286, 7.442628876703652], [25.548717707562286, 7.4245472561559955], [25.56683801036475, 7.4245472561559955], [25.56683801036475, 7.4064663595986815], [25.58495831316721, 7.4064663595986815], [25.58495831316721, 7.3883861851894075], [25.62119891877214, 7.3883861851894075], [25.62119891877214, 7.370306731086544], [25.639319221574606, 7.370306731086544], [25.639319221574606, 7.352227995449113], [25.657439524377065, 7.352227995449113], [25.657439524377065, 7.334149976436806], [25.603078615969675, 7.334149976436806], [25.603078615969675, 7.2979960809295985], [25.58495831316721, 7.2979960809295985], [25.58495831316721, 7.27992020075736], [25.56683801036475, 7.27992020075736], [25.56683801036475, 7.243770566387145], [25.51247710195736, 7.243770566387145], [25.51247710195736, 7.261845029855554], [25.494356799154897, 7.261845029855554], [25.494356799154897, 7.27992020075736], [25.458116193549966, 7.27992020075736], [25.458116193549966, 7.2979960809295985], [25.421875587945042, 7.2979960809295985], [25.421875587945042, 7.31607267220997], [25.385634982340115, 7.31607267220997], [25.385634982340115, 7.3883861851894075], [25.31315377113026, 7.3883861851894075], [25.31315377113026, 7.4064663595986815], [25.295033468327794, 7.4064663595986815], [25.295033468327794, 7.478794297142507], [25.22255225711794, 7.478794297142507], [25.22255225711794, 7.496878100721639], [25.204431954315478, 7.496878100721639], [25.204431954315478, 7.533047903824164], [25.186311651513016, 7.533047903824164], [25.186311651513016, 7.5511339070395245], [25.204431954315478, 7.5511339070395245], [25.204431954315478, 7.60539634550797], [25.22255225711794, 7.60539634550797], [25.22255225711794, 7.641575013657493], [25.295033468327794, 7.641575013657493], [25.295033468327794, 7.695848616638902], [25.31315377113026, 7.695848616638902], [25.31315377113026, 7.732034774068742], [25.331274073932722, 7.732034774068742], [25.331274073932722, 7.750128984975846], [25.349394376735184, 7.750128984975846], [25.349394376735184, 7.768223953150242], [25.36751467953765, 7.768223953150242], [25.36751467953765, 7.786319680447201], [25.421875587945042, 7.786319680447201], [25.421875587945042, 7.804416168722675], [25.458116193549966, 7.804416168722675], [25.458116193549966, 7.8225134198333315], [25.494356799154897, 7.8225134198333315], [25.494356799154897, 7.840611435636537], [25.56683801036475, 7.840611435636537], [25.56683801036475, 7.931113050098162], [25.548717707562286, 7.931113050098162], [25.548717707562286, 8.003528295846708], [25.657439524377065, 8.003528295846708], [25.657439524377065, 8.057847948345113], [25.639319221574606, 8.057847948345113], [25.639319221574606, 8.039740611097713], [25.62119891877214, 8.039740611097713], [25.62119891877214, 8.057847948345113], [25.603078615969675, 8.057847948345113], [25.603078615969675, 8.075956074495794], [25.58495831316721, 8.075956074495794], [25.58495831316721, 8.094064991417186], [25.56683801036475, 8.094064991417186], [25.56683801036475, 8.112174700977448], [25.58495831316721, 8.112174700977448], [25.58495831316721, 8.18462150299617], [25.56683801036475, 8.18462150299617], [25.56683801036475, 8.238965018867917], [25.548717707562286, 8.238965018867917], [25.548717707562286, 8.25708113688149], [25.53059740475982, 8.25708113688149], [25.53059740475982, 8.27519806438067], [25.56683801036475, 8.27519806438067], [25.56683801036475, 8.347673906756647], [25.548717707562286, 8.347673906756647], [25.548717707562286, 8.402039380117008], [25.58495831316721, 8.402039380117008], [25.58495831316721, 8.420162851085982], [25.62119891877214, 8.420162851085982], [25.62119891877214, 8.438287148448207], [25.639319221574606, 8.438287148448207], [25.639319221574606, 8.347673906756647], [25.657439524377065, 8.347673906756647], [25.657439524377065, 8.329553722551557]]], [[[24.570221356229254, 8.27519806438067], [24.55210105342679, 8.27519806438067], [24.55210105342679, 8.22084970846511], [24.46149953941447, 8.22084970846511], [24.46149953941447, 8.238965018867917], [24.40713863100708, 8.238965018867917], [24.40713863100708, 8.25708113688149], [24.35277772259969, 8.25708113688149], [24.35277772259969, 8.27519806438067], [24.298416814192297, 8.27519806438067], [24.298416814192297, 8.293315803241047], [24.28029651138983, 8.293315803241047], [24.28029651138983, 8.311434355338976], [24.26217620858737, 8.311434355338976], [24.26217620858737, 8.329553722551557], [24.244055905784908, 8.329553722551557], [24.244055905784908, 8.347673906756647], [24.225935602982442, 8.347673906756647], [24.225935602982442, 8.36579490983287], [24.298416814192297, 8.36579490983287], [24.298416814192297, 8.402039380117008], [24.479619842216934, 8.402039380117008], [24.479619842216934, 8.420162851085982], [24.51586044782186, 8.420162851085982], [24.51586044782186, 8.438287148448207], [24.533980750624323, 8.438287148448207], [24.533980750624323, 8.36579490983287], [24.55210105342679, 8.36579490983287], [24.55210105342679, 8.347673906756647], [24.570221356229254, 8.347673906756647], [24.570221356229254, 8.27519806438067]]], [[[26.78089829812981, 9.581866654805426], [26.78089829812981, 9.563686466267717], [26.799018600932275, 9.563686466267717], [26.799018600932275, 9.509151572352721], [26.78089829812981, 9.509151572352721], [26.78089829812981, 9.490975158503332], [26.744657692524882, 9.490975158503332], [26.744657692524882, 9.563686466267717], [26.726537389722417, 9.563686466267717], [26.726537389722417, 9.545507224302229], [26.708417086919955, 9.545507224302229], [26.708417086919955, 9.490975158503332], [26.635935875710103, 9.490975158503332], [26.635935875710103, 9.43645154228311], [26.599695270105173, 9.43645154228311], [26.599695270105173, 9.418278872220439], [26.545334361697783, 9.418278872220439], [26.545334361697783, 9.400107133282706], [26.509093756092856, 9.400107133282706], [26.509093756092856, 9.381936323542993], [26.490973453290394, 9.381936323542993], [26.490973453290394, 9.363766441075246], [26.436612544883, 9.363766441075246], [26.436612544883, 9.345597483954279], [26.418492242080536, 9.345597483954279], [26.418492242080536, 9.309262338056346], [26.400371939278074, 9.309262338056346], [26.400371939278074, 9.291096145433379], [26.418492242080536, 9.291096145433379], [26.418492242080536, 9.272930870465194], [26.454732847685467, 9.272930870465194], [26.454732847685467, 9.25476651123096], [26.490973453290394, 9.25476651123096], [26.490973453290394, 9.200278908736538], [26.509093756092856, 9.200278908736538], [26.509093756092856, 9.163958383900123], [26.527214058895318, 9.163958383900123], [26.527214058895318, 9.091328169638519], [26.599695270105173, 9.091328169638519], [26.599695270105173, 9.07317286228676], [26.545334361697783, 9.07317286228676], [26.545334361697783, 9.055018449596284], [26.527214058895318, 9.055018449596284], [26.527214058895318, 9.036864929656481], [26.490973453290394, 9.036864929656481], [26.490973453290394, 9.018712300557576], [26.47285315048793, 9.018712300557576], [26.47285315048793, 9.00056056039063], [26.436612544883, 9.00056056039063], [26.436612544883, 9.018712300557576], [26.364131333673146, 9.018712300557576], [26.364131333673146, 8.946110654404684], [26.327890728068223, 8.946110654404684], [26.327890728068223, 8.964259739221042], [26.273529819660826, 8.964259739221042], [26.273529819660826, 8.946110654404684], [26.219168911253437, 8.946110654404684], [26.219168911253437, 9.018712300557576], [26.201048608450975, 9.018712300557576], [26.201048608450975, 9.036864929656481], [26.182928305648513, 9.036864929656481], [26.182928305648513, 9.055018449596284], [26.110447094438655, 9.055018449596284], [26.110447094438655, 9.036864929656481], [26.092326791636193, 9.036864929656481], [26.092326791636193, 9.00056056039063], [26.12856739724112, 9.00056056039063], [26.12856739724112, 8.964259739221042], [26.146687700043582, 8.964259739221042], [26.146687700043582, 8.927962450892863], [26.110447094438655, 8.927962450892863], [26.110447094438655, 8.946110654404684], [26.092326791636193, 8.946110654404684], [26.092326791636193, 8.927962450892863], [26.001725277623876, 8.927962450892863], [26.001725277623876, 8.800949542938723], [26.0379658832288, 8.800949542938723], [26.0379658832288, 8.819091630606765], [26.092326791636193, 8.819091630606765], [26.092326791636193, 8.837234586263085], [26.110447094438655, 8.837234586263085], [26.110447094438655, 8.855378411807559], [26.12856739724112, 8.855378411807559], [26.12856739724112, 8.873523109140864], [26.182928305648513, 8.873523109140864], [26.182928305648513, 8.837234586263085], [26.201048608450975, 8.837234586263085], [26.201048608450975, 8.782808321359909], [26.092326791636193, 8.782808321359909], [26.092326791636193, 8.764667963972073], [26.07420648883373, 8.764667963972073], [26.07420648883373, 8.74652846887778], [26.056086186031266, 8.74652846887778], [26.056086186031266, 8.673979073515511], [26.019845580426338, 8.673979073515511], [26.019845580426338, 8.637709500321387], [25.965484672018945, 8.637709500321387], [25.965484672018945, 8.65584386145555], [25.947364369216487, 8.65584386145555], [25.947364369216487, 8.673979073515511], [25.893003460809094, 8.673979073515511], [25.893003460809094, 8.65584386145555], [25.874883158006632, 8.65584386145555], [25.874883158006632, 8.692115138393888], [25.76616134119185, 8.692115138393888], [25.76616134119185, 8.673979073515511], [25.748041038389385, 8.673979073515511], [25.748041038389385, 8.65584386145555], [25.729920735586923, 8.65584386145555], [25.729920735586923, 8.619575988221177], [25.748041038389385, 8.619575988221177], [25.748041038389385, 8.528921097070821], [25.729920735586923, 8.528921097070821], [25.729920735586923, 8.565180527217883], [25.639319221574606, 8.565180527217883], [25.639319221574606, 8.528921097070821], [25.693680129981995, 8.528921097070821], [25.693680129981995, 8.492665017722729], [25.639319221574606, 8.492665017722729], [25.639319221574606, 8.510792639490163], [25.62119891877214, 8.510792639490163], [25.62119891877214, 8.528921097070821], [25.603078615969675, 8.528921097070821], [25.603078615969675, 8.547050392351023], [25.58495831316721, 8.547050392351023], [25.58495831316721, 8.565180527217883], [25.56683801036475, 8.565180527217883], [25.56683801036475, 8.583311503559282], [25.548717707562286, 8.583311503559282], [25.548717707562286, 8.601443323263892], [25.51247710195736, 8.601443323263892], [25.51247710195736, 8.619575988221177], [25.47623649635243, 8.619575988221177], [25.47623649635243, 8.65584386145555], [25.439995890747504, 8.65584386145555], [25.439995890747504, 8.710252057984116], [25.403755285142577, 8.710252057984116], [25.403755285142577, 8.692115138393888], [25.36751467953765, 8.692115138393888], [25.36751467953765, 8.673979073515511], [25.331274073932722, 8.673979073515511], [25.331274073932722, 8.65584386145555], [25.295033468327794, 8.65584386145555], [25.295033468327794, 8.601443323263892], [25.31315377113026, 8.601443323263892], [25.31315377113026, 8.547050392351023], [25.331274073932722, 8.547050392351023], [25.331274073932722, 8.528921097070821], [25.31315377113026, 8.528921097070821], [25.31315377113026, 8.510792639490163], [25.331274073932722, 8.510792639490163], [25.331274073932722, 8.474538229882974], [25.31315377113026, 8.474538229882974], [25.31315377113026, 8.456412274086132], [25.331274073932722, 8.456412274086132], [25.331274073932722, 8.438287148448207], [25.36751467953765, 8.438287148448207], [25.36751467953765, 8.420162851085982], [25.385634982340115, 8.420162851085982], [25.385634982340115, 8.402039380117008], [25.421875587945042, 8.402039380117008], [25.421875587945042, 8.36579490983287], [25.25879286272287, 8.36579490983287], [25.25879286272287, 8.347673906756647], [25.240672559920405, 8.347673906756647], [25.240672559920405, 8.38391673365961], [25.22255225711794, 8.38391673365961], [25.22255225711794, 8.474538229882974], [25.186311651513016, 8.474538229882974], [25.186311651513016, 8.492665017722729], [25.16819134871055, 8.492665017722729], [25.16819134871055, 8.528921097070821], [25.150071045908085, 8.528921097070821], [25.150071045908085, 8.601443323263892], [25.16819134871055, 8.601443323263892], [25.16819134871055, 8.619575988221177], [25.186311651513016, 8.619575988221177], [25.186311651513016, 8.637709500321387], [25.22255225711794, 8.637709500321387], [25.22255225711794, 8.65584386145555], [25.240672559920405, 8.65584386145555], [25.240672559920405, 8.673979073515511], [25.22255225711794, 8.673979073515511], [25.22255225711794, 8.692115138393888], [25.204431954315478, 8.692115138393888], [25.204431954315478, 8.728389834180403], [25.25879286272287, 8.728389834180403], [25.25879286272287, 8.74652846887778], [25.240672559920405, 8.74652846887778], [25.240672559920405, 8.764667963972073], [25.204431954315478, 8.764667963972073], [25.204431954315478, 8.782808321359909], [25.16819134871055, 8.782808321359909], [25.16819134871055, 8.800949542938723], [25.204431954315478, 8.800949542938723], [25.204431954315478, 8.819091630606765], [25.22255225711794, 8.819091630606765], [25.22255225711794, 8.837234586263085], [25.25879286272287, 8.837234586263085], [25.25879286272287, 8.855378411807559], [25.295033468327794, 8.855378411807559], [25.295033468327794, 8.8916686801645], [25.331274073932722, 8.8916686801645], [25.331274073932722, 8.909815126780787], [25.349394376735184, 8.909815126780787], [25.349394376735184, 8.8916686801645], [25.385634982340115, 8.8916686801645], [25.385634982340115, 8.982409707247543], [25.62119891877214, 8.982409707247543], [25.62119891877214, 8.964259739221042], [25.639319221574606, 8.964259739221042], [25.639319221574606, 8.909815126780787], [25.67555982717953, 8.909815126780787], [25.67555982717953, 8.927962450892863], [25.693680129981995, 8.927962450892863], [25.693680129981995, 8.909815126780787], [25.729920735586923, 8.909815126780787], [25.729920735586923, 8.837234586263085], [25.711800432784457, 8.837234586263085], [25.711800432784457, 8.764667963972073], [25.729920735586923, 8.764667963972073], [25.729920735586923, 8.800949542938723], [25.748041038389385, 8.800949542938723], [25.748041038389385, 8.8916686801645], [25.802401946796778, 8.8916686801645], [25.802401946796778, 8.909815126780787], [25.82052224959924, 8.909815126780787], [25.82052224959924, 8.927962450892863], [25.8386425524017, 8.927962450892863], [25.8386425524017, 9.00056056039063], [25.92924406641402, 9.00056056039063], [25.92924406641402, 9.055018449596284], [25.893003460809094, 9.055018449596284], [25.893003460809094, 9.091328169638519], [25.874883158006632, 9.091328169638519], [25.874883158006632, 9.109484373563015], [25.856762855204167, 9.109484373563015], [25.856762855204167, 9.127641475972545], [25.76616134119185, 9.127641475972545], [25.76616134119185, 9.145799478780253], [25.748041038389385, 9.145799478780253], [25.748041038389385, 9.163958383900123], [25.76616134119185, 9.163958383900123], [25.76616134119185, 9.182118193246987], [25.784281643994312, 9.182118193246987], [25.784281643994312, 9.200278908736538], [25.802401946796778, 9.200278908736538], [25.802401946796778, 9.182118193246987], [25.856762855204167, 9.182118193246987], [25.856762855204167, 9.200278908736538], [25.874883158006632, 9.200278908736538], [25.874883158006632, 9.2366030658107], [25.893003460809094, 9.2366030658107], [25.893003460809094, 9.272930870465194], [25.92924406641402, 9.272930870465194], [25.92924406641402, 9.363766441075246], [25.965484672018945, 9.363766441075246], [25.965484672018945, 9.345597483954279], [26.001725277623876, 9.345597483954279], [26.001725277623876, 9.327429450255787], [26.056086186031266, 9.327429450255787], [26.056086186031266, 9.345597483954279], [26.07420648883373, 9.345597483954279], [26.07420648883373, 9.363766441075246], [26.164808002846048, 9.363766441075246], [26.164808002846048, 9.345597483954279], [26.201048608450975, 9.345597483954279], [26.201048608450975, 9.363766441075246], [26.29165012246329, 9.363766441075246], [26.29165012246329, 9.418278872220439], [26.34601103087068, 9.418278872220439], [26.34601103087068, 9.43645154228311], [26.382251636475612, 9.43645154228311], [26.382251636475612, 9.454625145398547], [26.400371939278074, 9.454625145398547], [26.400371939278074, 9.563686466267717], [26.436612544883, 9.563686466267717], [26.436612544883, 9.545507224302229], [26.454732847685467, 9.545507224302229], [26.454732847685467, 9.527328926974938], [26.47285315048793, 9.527328926974938], [26.47285315048793, 9.545507224302229], [26.527214058895318, 9.545507224302229], [26.527214058895318, 9.563686466267717], [26.56345466450025, 9.563686466267717], [26.56345466450025, 9.60004779185028], [26.58157496730271, 9.60004779185028], [26.58157496730271, 9.65459691339035], [26.654056178512562, 9.65459691339035], [26.654056178512562, 9.672781863830943], [26.799018600932275, 9.672781863830943], [26.799018600932275, 9.63641291920557], [26.78089829812981, 9.63641291920557], [26.78089829812981, 9.60004779185028], [26.799018600932275, 9.60004779185028], [26.799018600932275, 9.581866654805426], [26.78089829812981, 9.581866654805426]]], [[[24.225935602982442, 9.454625145398547], [24.225935602982442, 9.418278872220439], [24.244055905784908, 9.418278872220439], [24.244055905784908, 9.400107133282706], [24.26217620858737, 9.400107133282706], [24.26217620858737, 9.381936323542993], [24.370898025402152, 9.381936323542993], [24.370898025402152, 9.345597483954279], [24.389018328204617, 9.345597483954279], [24.389018328204617, 9.327429450255787], [24.370898025402152, 9.327429450255787], [24.370898025402152, 9.309262338056346], [24.35277772259969, 9.309262338056346], [24.35277772259969, 9.272930870465194], [24.370898025402152, 9.272930870465194], [24.370898025402152, 9.25476651123096], [24.389018328204617, 9.25476651123096], [24.389018328204617, 9.2366030658107], [24.40713863100708, 9.2366030658107], [24.40713863100708, 9.21844053228531], [24.42525893380954, 9.21844053228531], [24.42525893380954, 9.109484373563015], [24.40713863100708, 9.109484373563015], [24.40713863100708, 9.091328169638519], [24.389018328204617, 9.091328169638519], [24.389018328204617, 9.07317286228676], [24.35277772259969, 9.07317286228676], [24.35277772259969, 9.055018449596284], [24.316537116994763, 9.055018449596284], [24.316537116994763, 9.018712300557576], [24.298416814192297, 9.018712300557576], [24.298416814192297, 8.982409707247543], [24.26217620858737, 8.982409707247543], [24.26217620858737, 8.964259739221042], [24.244055905784908, 8.964259739221042], [24.244055905784908, 8.946110654404684], [24.225935602982442, 8.946110654404684], [24.225935602982442, 8.927962450892863], [24.20781530017998, 8.927962450892863], [24.20781530017998, 8.909815126780787], [24.225935602982442, 8.909815126780787], [24.225935602982442, 8.873523109140864], [24.244055905784908, 8.873523109140864], [24.244055905784908, 8.855378411807559], [24.26217620858737, 8.855378411807559], [24.26217620858737, 8.837234586263085], [24.28029651138983, 8.837234586263085], [24.28029651138983, 8.855378411807559], [24.298416814192297, 8.855378411807559], [24.298416814192297, 8.837234586263085], [24.316537116994763, 8.837234586263085], [24.316537116994763, 8.819091630606765], [24.298416814192297, 8.819091630606765], [24.298416814192297, 8.800949542938723], [24.26217620858737, 8.800949542938723], [24.26217620858737, 8.782808321359909], [24.225935602982442, 8.782808321359909], [24.225935602982442, 8.764667963972073], [24.20781530017998, 8.764667963972073], [24.20781530017998, 8.74652846887778], [24.18969499737752, 8.74652846887778], [24.18969499737752, 8.728389834180403], [24.171574694575053, 8.728389834180403], [24.171574694575053, 8.710252057984116], [24.153454391772588, 8.710252057984116], [24.153454391772588, 8.673979073515511], [24.117213786167664, 8.673979073515511], [24.117213786167664, 8.764667963972073], [24.06285287776027, 8.764667963972073], [24.06285287776027, 8.74652846887778], [24.00849196935288, 8.74652846887778], [24.00849196935288, 8.692115138393888], [23.990371666550416, 8.692115138393888], [23.990371666550416, 8.710252057984116], [23.936010758143027, 8.710252057984116], [23.936010758143027, 8.74652846887778], [23.899770152538096, 8.74652846887778], [23.899770152538096, 8.728389834180403], [23.881649849735638, 8.728389834180403], [23.881649849735638, 8.782808321359909], [23.899770152538096, 8.782808321359909], [23.899770152538096, 8.855378411807559], [23.881649849735638, 8.855378411807559], [23.881649849735638, 8.873523109140864], [23.899770152538096, 8.873523109140864], [23.899770152538096, 8.927962450892863], [23.91789045534056, 8.927962450892863], [23.91789045534056, 8.946110654404684], [23.936010758143027, 8.946110654404684], [23.936010758143027, 8.964259739221042], [23.95413106094549, 8.964259739221042], [23.95413106094549, 8.982409707247543], [23.97225136374795, 8.982409707247543], [23.97225136374795, 9.00056056039063], [23.990371666550416, 9.00056056039063], [23.990371666550416, 9.018712300557576], [24.00849196935288, 9.018712300557576], [24.00849196935288, 9.07317286228676], [24.026612272155344, 9.07317286228676], [24.026612272155344, 9.091328169638519], [24.117213786167664, 9.091328169638519], [24.117213786167664, 9.163958383900123], [24.18969499737752, 9.163958383900123], [24.18969499737752, 9.182118193246987], [24.20781530017998, 9.182118193246987], [24.20781530017998, 9.200278908736538], [24.225935602982442, 9.200278908736538], [24.225935602982442, 9.2366030658107], [24.298416814192297, 9.2366030658107], [24.298416814192297, 9.291096145433379], [24.244055905784908, 9.291096145433379], [24.244055905784908, 9.309262338056346], [24.171574694575053, 9.309262338056346], [24.171574694575053, 9.327429450255787], [24.153454391772588, 9.327429450255787], [24.153454391772588, 9.345597483954279], [24.135334088970126, 9.345597483954279], [24.135334088970126, 9.363766441075246], [24.117213786167664, 9.363766441075246], [24.117213786167664, 9.381936323542993], [24.06285287776027, 9.381936323542993], [24.06285287776027, 9.43645154228311], [23.97225136374795, 9.43645154228311], [23.97225136374795, 9.472799683495426], [23.95413106094549, 9.472799683495426], [23.95413106094549, 9.490975158503332], [23.936010758143027, 9.490975158503332], [23.936010758143027, 9.509151572352721], [23.990371666550416, 9.509151572352721], [23.990371666550416, 9.527328926974938], [24.00849196935288, 9.527328926974938], [24.00849196935288, 9.509151572352721], [24.06285287776027, 9.509151572352721], [24.06285287776027, 9.490975158503332], [24.0990934833652, 9.490975158503332], [24.0990934833652, 9.454625145398547], [24.18969499737752, 9.454625145398547], [24.18969499737752, 9.43645154228311], [24.20781530017998, 9.43645154228311], [24.20781530017998, 9.454625145398547], [24.225935602982442, 9.454625145398547]]], [[[25.095710137500696, 9.872879986890569], [25.095710137500696, 9.836489769614746], [25.077589834698234, 9.836489769614746], [25.077589834698234, 9.800103455104827], [25.05946953189577, 9.800103455104827], [25.05946953189577, 9.745531266953739], [25.041349229093303, 9.745531266953739], [25.041349229093303, 9.690967772466788], [25.02322892629084, 9.690967772466788], [25.02322892629084, 9.672781863830943], [25.00510862348838, 9.672781863830943], [25.00510862348838, 9.60004779185028], [25.02322892629084, 9.60004779185028], [25.02322892629084, 9.563686466267717], [25.041349229093303, 9.563686466267717], [25.041349229093303, 9.545507224302229], [25.02322892629084, 9.545507224302229], [25.02322892629084, 9.472799683495426], [25.041349229093303, 9.472799683495426], [25.041349229093303, 9.363766441075246], [25.02322892629084, 9.363766441075246], [25.02322892629084, 9.327429450255787], [25.00510862348838, 9.327429450255787], [25.00510862348838, 9.309262338056346], [24.986988320685914, 9.309262338056346], [24.986988320685914, 9.291096145433379], [24.91450710947606, 9.291096145433379], [24.91450710947606, 9.21844053228531], [24.95074771508099, 9.21844053228531], [24.95074771508099, 9.200278908736538], [24.932627412278524, 9.200278908736538], [24.932627412278524, 9.145799478780253], [24.91450710947606, 9.145799478780253], [24.91450710947606, 9.127641475972545], [24.896386806673593, 9.127641475972545], [24.896386806673593, 9.109484373563015], [24.878266503871135, 9.109484373563015], [24.878266503871135, 9.07317286228676], [24.896386806673593, 9.07317286228676], [24.896386806673593, 9.036864929656481], [24.878266503871135, 9.036864929656481], [24.878266503871135, 8.982409707247543], [24.86014620106867, 8.982409707247543], [24.86014620106867, 8.946110654404684], [24.842025898266204, 8.946110654404684], [24.842025898266204, 8.927962450892863], [24.76954468705635, 8.927962450892863], [24.76954468705635, 8.909815126780787], [24.697063475846498, 8.909815126780787], [24.697063475846498, 8.946110654404684], [24.642702567439105, 8.946110654404684], [24.642702567439105, 8.927962450892863], [24.624582264636643, 8.927962450892863], [24.624582264636643, 8.8916686801645], [24.66082287024157, 8.8916686801645], [24.66082287024157, 8.873523109140864], [24.678943173044033, 8.873523109140864], [24.678943173044033, 8.8916686801645], [24.697063475846498, 8.8916686801645], [24.697063475846498, 8.873523109140864], [24.71518377864896, 8.873523109140864], [24.71518377864896, 8.855378411807559], [24.733304081451426, 8.855378411807559], [24.733304081451426, 8.819091630606765], [24.823905595463742, 8.819091630606765], [24.823905595463742, 8.800949542938723], [24.842025898266204, 8.800949542938723], [24.842025898266204, 8.819091630606765], [24.91450710947606, 8.819091630606765], [24.91450710947606, 8.728389834180403], [25.02322892629084, 8.728389834180403], [25.02322892629084, 8.710252057984116], [25.041349229093303, 8.710252057984116], [25.041349229093303, 8.692115138393888], [25.05946953189577, 8.692115138393888], [25.05946953189577, 8.673979073515511], [25.077589834698234, 8.673979073515511], [25.077589834698234, 8.65584386145555], [25.095710137500696, 8.65584386145555], [25.095710137500696, 8.637709500321387], [25.131950743105623, 8.637709500321387], [25.131950743105623, 8.601443323263892], [25.095710137500696, 8.601443323263892], [25.095710137500696, 8.583311503559282], [25.077589834698234, 8.583311503559282], [25.077589834698234, 8.565180527217883], [25.041349229093303, 8.565180527217883], [25.041349229093303, 8.547050392351023], [25.02322892629084, 8.547050392351023], [25.02322892629084, 8.528921097070821], [25.00510862348838, 8.528921097070821], [25.00510862348838, 8.510792639490163], [24.986988320685914, 8.510792639490163], [24.986988320685914, 8.492665017722729], [24.91450710947606, 8.492665017722729], [24.91450710947606, 8.528921097070821], [24.896386806673593, 8.528921097070821], [24.896386806673593, 8.547050392351023], [24.91450710947606, 8.547050392351023], [24.91450710947606, 8.565180527217883], [24.896386806673593, 8.565180527217883], [24.896386806673593, 8.619575988221177], [24.878266503871135, 8.619575988221177], [24.878266503871135, 8.65584386145555], [24.823905595463742, 8.65584386145555], [24.823905595463742, 8.619575988221177], [24.80578529266128, 8.619575988221177], [24.80578529266128, 8.637709500321387], [24.787664989858815, 8.637709500321387], [24.787664989858815, 8.65584386145555], [24.76954468705635, 8.65584386145555], [24.76954468705635, 8.673979073515511], [24.751424384253887, 8.673979073515511], [24.751424384253887, 8.692115138393888], [24.733304081451426, 8.692115138393888], [24.733304081451426, 8.728389834180403], [24.71518377864896, 8.728389834180403], [24.71518377864896, 8.764667963972073], [24.697063475846498, 8.764667963972073], [24.697063475846498, 8.782808321359909], [24.66082287024157, 8.782808321359909], [24.66082287024157, 8.800949542938723], [24.642702567439105, 8.800949542938723], [24.642702567439105, 8.819091630606765], [24.624582264636643, 8.819091630606765], [24.624582264636643, 8.837234586263085], [24.606461961834178, 8.837234586263085], [24.606461961834178, 8.855378411807559], [24.588341659031713, 8.855378411807559], [24.588341659031713, 8.927962450892863], [24.570221356229254, 8.927962450892863], [24.570221356229254, 8.946110654404684], [24.55210105342679, 8.946110654404684], [24.55210105342679, 9.036864929656481], [24.570221356229254, 9.036864929656481], [24.570221356229254, 9.07317286228676], [24.588341659031713, 9.07317286228676], [24.588341659031713, 9.091328169638519], [24.606461961834178, 9.091328169638519], [24.606461961834178, 9.127641475972545], [24.624582264636643, 9.127641475972545], [24.624582264636643, 9.163958383900123], [24.642702567439105, 9.163958383900123], [24.642702567439105, 9.182118193246987], [24.66082287024157, 9.182118193246987], [24.66082287024157, 9.345597483954279], [24.678943173044033, 9.345597483954279], [24.678943173044033, 9.418278872220439], [24.697063475846498, 9.418278872220439], [24.697063475846498, 9.43645154228311], [24.71518377864896, 9.43645154228311], [24.71518377864896, 9.454625145398547], [24.896386806673593, 9.454625145398547], [24.896386806673593, 9.472799683495426], [24.91450710947606, 9.472799683495426], [24.91450710947606, 9.490975158503332], [24.95074771508099, 9.490975158503332], [24.95074771508099, 9.545507224302229], [24.932627412278524, 9.545507224302229], [24.932627412278524, 9.618229879338083], [24.95074771508099, 9.618229879338083], [24.95074771508099, 9.65459691339035], [24.932627412278524, 9.65459691339035], [24.932627412278524, 9.672781863830943], [24.91450710947606, 9.672781863830943], [24.91450710947606, 9.763721027783065], [24.896386806673593, 9.763721027783065], [24.896386806673593, 9.781911756518458], [24.878266503871135, 9.781911756518458], [24.878266503871135, 9.818296125488004], [24.932627412278524, 9.818296125488004], [24.932627412278524, 9.872879986890569], [24.95074771508099, 9.872879986890569], [24.95074771508099, 9.891076563937801], [24.96886801788345, 9.891076563937801], [24.96886801788345, 9.909274122524891], [24.95074771508099, 9.909274122524891], [24.95074771508099, 9.963872707044038], [25.00510862348838, 9.963872707044038], [25.00510862348838, 10.018480195728719], [25.041349229093303, 10.018480195728719], [25.041349229093303, 10.00027670689017], [25.05946953189577, 10.00027670689017], [25.05946953189577, 9.982074211313977], [25.077589834698234, 9.982074211313977], [25.077589834698234, 9.945672192125205], [25.095710137500696, 9.945672192125205], [25.095710137500696, 9.909274122524891], [25.11383044030316, 9.909274122524891], [25.11383044030316, 9.872879986890569], [25.095710137500696, 9.872879986890569]]]]}}, {"type": "Feature", "properties": {"uid": 3, "seed": "core proposal 3", "seed_kind": "optimized", "area_km2": 5868.0, "area_ha": 586800, "country": "SSD", "in_zones": "[\"PLAN Southern-NP-Wilderness_41'590km2\", \"PLAN zone-p\\u00e2turage-durable_Numatina_15'000km2\"]", "overlaps": "[\"PLAN Southern-NP-Wilderness_41'590km2 88%\", \"PLAN zone-p\\u00e2turage-durable_Numatina_15'000km2 56%\"]", "km_to_park": 111.2, "clusters": 9, "population_est": 68, "pop_per_km2": 0.012, "osm_places": 0, "new_since_2015": 0, "camps": 9, "built_km2": 0.0, "built_2000_km2": 0.0, "built_2015_km2": 0.0, "towns": "[]", "fire_det_2024_25": 52795, "fire_per_1000km2_yr": 4499, "fire_nov_feb_share": 0.94, "fronts": 2365, "fronts_per_1000km2": 403.0, "fronts_transhumance_pct": 98, "fronts_long": 1517, "fronts_long_per_1000km2": 258.52, "long_front_intensity": 198.03, "front_dirs": "{\"W\": 518, \"E\": 426, \"NE\": 279}", "front_dirs_all": "{\"SW\": 239, \"NE\": 279, \"SE\": 228, \"S\": 194, \"N\": 230, \"NW\": 251, \"E\": 426, \"W\": 518}", "clearing_events": 78, "clearing_km2": 2.68, "clearing_since_2020_km2": 0.22, "clearing_encroach_slash": 22, "mine_reported": 0, "mine_candidates": 0, "mine_top05_cells": 0, "mine_watchlist": 3, "mining_measured": true, "geology": "[\"PLu Undifferentiated metamorphic rocks, migm 98%\"]", "geo_affinity_mean": 0.03, "cropland_2003_pct": 0.0, "cropland_2019_pct": 0.0, "boundary_legibility": 0.52, "built_growth_x": null, "front_axis_coherence": 0.4, "front_axis": "E\u2013W", "rationale": "[\"corridor\", \"long fronts per 10 km width 198.03 >= 154.06: yes\", \"transhumance share % 98 >= 50: yes\", \"axis coherence (0.25 = random) 0.4 >= 0.4: yes\", \"people/km2 0.012 <= 2: yes\"]", "cls": "corridor", "boundary": "[\"Nahr al Jur on the W/SE (120 km)\", \"Ibba on the N/E (60 km)\", \"Uakie (1930s sheet) on the NW (24 km)\", \"K. Mogi (1930s sheet) on the SW (24 km)\", \"K. Dambu (1930s sheet) on the NE (22 km)\", \"K. Rose (1930s sheet) on the E/SE (20 km)\", \"12 km along a geological contact only (not visible on the ground \\u2014 needs beacons)\", \"landmarks on the unnamed stretches: Darumba (1930s village) (NE), Kisi (1930s village) (SE), Ironstone (1930s village) (N), Nabania (1930s village) (N), Mapus o (1930s village) (N), Bandima (1930s village) (NE), Nagbula (1930s village) (NE), Nanbala (1930s village) (NE)\"]", "perimeter_km": 554, "unattributed_pct": 30, "support_mean": 0.68, "contested_units": 8, "area_ha_p10_p50_p90": "[551200, 719200, 2226000]"}, "geometry": {"type": "Polygon", "coordinates": [[[28.574808275573705, 5.835992120667014], [28.592928578376167, 5.835992120667014], [28.592928578376167, 5.817967791779444], [28.629169183981098, 5.817967791779444], [28.629169183981098, 5.799944025312293], [28.64728948678356, 5.799944025312293], [28.64728948678356, 5.781920819475325], [28.665409789586025, 5.781920819475325], [28.665409789586025, 5.76389817247882], [28.683530092388484, 5.76389817247882], [28.683530092388484, 5.745876082533553], [28.70165039519095, 5.745876082533553], [28.70165039519095, 5.727854547850807], [28.71977069799341, 5.727854547850807], [28.71977069799341, 5.7098335666423665], [28.737891000795877, 5.7098335666423665], [28.737891000795877, 5.691813137120513], [28.756011303598342, 5.691813137120513], [28.756011303598342, 5.67379325749803], [28.774131606400804, 5.67379325749803], [28.774131606400804, 5.56568542762796], [28.79225190920327, 5.56568542762796], [28.79225190920327, 5.421571682545419], [28.774131606400804, 5.421571682545419], [28.774131606400804, 5.403559837280727], [28.71977069799341, 5.403559837280727], [28.71977069799341, 5.3855485133862615], [28.774131606400804, 5.3855485133862615], [28.774131606400804, 5.313508395937449], [28.71977069799341, 5.313508395937449], [28.71977069799341, 5.295499652218284], [28.70165039519095, 5.295499652218284], [28.70165039519095, 5.187457852517324], [28.71977069799341, 5.187457852517324], [28.71977069799341, 5.169452646435331], [28.737891000795877, 5.169452646435331], [28.737891000795877, 5.151447938632432], [28.756011303598342, 5.151447938632432], [28.756011303598342, 5.133443727335569], [28.79225190920327, 5.133443727335569], [28.79225190920327, 5.079434054757276], [28.828492514808197, 5.079434054757276], [28.828492514808197, 5.06143181176285], [28.900973726018048, 5.06143181176285], [28.900973726018048, 5.097436787169941], [28.919094028820513, 5.097436787169941], [28.919094028820513, 5.133443727335569], [28.93721433162298, 5.133443727335569], [28.93721433162298, 5.169452646435331], [28.955334634425444, 5.169452646435331], [28.955334634425444, 5.205463558651921], [29.027815845635292, 5.205463558651921], [29.027815845635292, 5.169452646435331], [29.045936148437757, 5.169452646435331], [29.045936148437757, 5.133443727335569], [29.064056451240223, 5.133443727335569], [29.064056451240223, 5.115440010772129], [29.08217675404269, 5.115440010772129], [29.08217675404269, 5.0074280015827295], [29.10029705684515, 5.0074280015827295], [29.10029705684515, 4.989427698557163], [29.027815845635292, 4.989427698557163], [29.027815845635292, 4.971427876099968], [28.991575240030365, 4.971427876099968], [28.991575240030365, 4.9534285324424605], [28.9734549372279, 4.9534285324424605], [28.9734549372279, 4.935429665816406], [28.93721433162298, 4.935429665816406], [28.93721433162298, 4.917431274453984], [28.882853423215586, 4.917431274453984], [28.882853423215586, 4.899433356587801], [28.846612817610655, 4.899433356587801], [28.846612817610655, 4.917431274453984], [28.828492514808197, 4.917431274453984], [28.828492514808197, 4.935429665816406], [28.810372212005735, 4.935429665816406], [28.810372212005735, 4.971427876099968], [28.79225190920327, 4.971427876099968], [28.79225190920327, 4.989427698557163], [28.828492514808197, 4.989427698557163], [28.828492514808197, 5.043430056415817], [28.774131606400804, 5.043430056415817], [28.774131606400804, 5.0074280015827295], [28.629169183981098, 5.0074280015827295], [28.629169183981098, 5.025428786945768], [28.574808275573705, 5.025428786945768], [28.574808275573705, 5.0074280015827295], [28.538567669968778, 5.0074280015827295], [28.538567669968778, 5.025428786945768], [28.50232706436385, 5.025428786945768], [28.50232706436385, 5.0074280015827295], [28.44796615595646, 5.0074280015827295], [28.44796615595646, 4.935429665816406], [28.50232706436385, 4.935429665816406], [28.50232706436385, 4.881435910450896], [28.538567669968778, 4.881435910450896], [28.538567669968778, 4.863438934276721], [28.55668797277124, 4.863438934276721], [28.55668797277124, 4.791455693891205], [28.574808275573705, 4.791455693891205], [28.574808275573705, 4.7554668475755335], [28.50232706436385, 4.7554668475755335], [28.50232706436385, 4.719479831694815], [28.48420676156139, 4.719479831694815], [28.48420676156139, 4.683494632144926], [28.429845853153996, 4.683494632144926], [28.429845853153996, 4.701487005759771], [28.41172555035153, 4.701487005759771], [28.41172555035153, 4.719479831694815], [28.375484944746606, 4.719479831694815], [28.375484944746606, 4.737473111712465], [28.284883430734286, 4.737473111712465], [28.284883430734286, 4.809450807871477], [28.266763127931824, 4.809450807871477], [28.266763127931824, 4.827446384752506], [28.248642825129362, 4.827446384752506], [28.248642825129362, 4.899433356587801], [28.230522522326897, 4.899433356587801], [28.230522522326897, 4.935429665816406], [28.21240221952443, 4.935429665816406], [28.21240221952443, 5.043430056415817], [28.230522522326897, 5.043430056415817], [28.230522522326897, 5.097436787169941], [28.21240221952443, 5.097436787169941], [28.21240221952443, 5.115440010772129], [28.19428191672197, 5.115440010772129], [28.19428191672197, 5.133443727335569], [28.176161613919508, 5.133443727335569], [28.176161613919508, 5.187457852517324], [28.158041311117042, 5.187457852517324], [28.158041311117042, 5.205463558651921], [28.13992100831458, 5.205463558651921], [28.13992100831458, 5.241476478175207], [28.121800705512115, 5.241476478175207], [28.121800705512115, 5.33151765213645], [28.10368040270965, 5.33151765213645], [28.10368040270965, 5.36753770908301], [28.067439797104726, 5.36753770908301], [28.067439797104726, 5.403559837280727], [28.04931949430226, 5.403559837280727], [28.04931949430226, 5.439584050959814], [28.067439797104726, 5.439584050959814], [28.067439797104726, 5.457596944303868], [28.04931949430226, 5.457596944303868], [28.04931949430226, 5.56568542762796], [28.067439797104726, 5.56568542762796], [28.067439797104726, 5.583702045358143], [28.121800705512115, 5.583702045358143], [28.121800705512115, 5.529653802592224], [28.13992100831458, 5.529653802592224], [28.13992100831458, 5.5116387917205625], [28.19428191672197, 5.5116387917205625], [28.19428191672197, 5.493624312903104], [28.21240221952443, 5.493624312903104], [28.21240221952443, 5.475610364357997], [28.35736464194414, 5.475610364357997], [28.35736464194414, 5.403559837280727], [28.375484944746606, 5.403559837280727], [28.375484944746606, 5.3855485133862615], [28.466086458758923, 5.3855485133862615], [28.466086458758923, 5.457596944303868], [28.48420676156139, 5.457596944303868], [28.48420676156139, 5.475610364357997], [28.50232706436385, 5.475610364357997], [28.50232706436385, 5.493624312903104], [28.48420676156139, 5.493624312903104], [28.48420676156139, 5.5116387917205625], [28.466086458758923, 5.5116387917205625], [28.466086458758923, 5.5476693473004195], [28.55668797277124, 5.5476693473004195], [28.55668797277124, 5.601719202274747], [28.574808275573705, 5.601719202274747], [28.574808275573705, 5.6197369001620405], [28.55668797277124, 5.6197369001620405], [28.55668797277124, 5.655773925988191], [28.574808275573705, 5.655773925988191], [28.574808275573705, 5.835992120667014]]]}}]}