<?xml version="1.0" encoding="UTF-8"?><kml xmlns="http://www.opengis.net/kml/2.2"><Document><Style id="core"><LineStyle><color>ff00a000</color><width>1.5</width></LineStyle><PolyStyle><color>7f00a000</color></PolyStyle></Style><Style id="wilderness"><LineStyle><color>ff00d0d0</color><width>1.5</width></LineStyle><PolyStyle><color>7f00d0d0</color></PolyStyle></Style><Style id="community"><LineStyle><color>ff0080ff</color><width>1.5</width></LineStyle><PolyStyle><color>7f0080ff</color></PolyStyle></Style><Style id="corridor"><LineStyle><color>ffd000d0</color><width>1.5</width></LineStyle><PolyStyle><color>7fd000d0</color></PolyStyle></Style><Placemark><name>community proposal 1 (117,600 ha, support 0.88)</name><description><![CDATA[community · 117,600 ha · 9 clusters, 52,494 people (GHSL lower bound), 0 new since 2015<br/>fire 4,593/1000km2/yr, 1450 fronts (99% transhumance, 1060 ≥150 km)<br/>clearing since 2020 0.68 km2; cropland 0.01→0.74%; mining reported/candidates/top5% 0/0/0<br/>boundary: J. ROVO I.S. – J. DURUYANZI (Granite) – Ironstone hill D(Low) ridge on the N/NE (26 km); R. Meridi (1930s sheet) on the NW/S (26 km); R. Era or Naam (1930s sheet) on the NE/E (24 km); unnamed river (order 4) on the W/SE (22 km); I. Wohko (1930s sheet) on the N/NE (20 km); 1930s Province Boundary on the SW (12 km) — 16% follows no nameable feature]]></description><styleUrl>#community</styleUrl><Polygon><outerBoundaryIs><LinearRing><coordinates>29.57142,5.25948,0 29.68015,5.25948,0 29.68015,5.24148,0 29.69827,5.24148,0 29.69827,5.22347,0 29.75263,5.22347,0 29.75263,5.20546,0 29.73451,5.20546,0 29.73451,5.18746,0 29.71639,5.18746,0 29.71639,5.16945,0 29.69827,5.16945,0 29.69827,5.15145,0 29.68015,5.15145,0 29.68015,5.13344,0 29.66203,5.13344,0 29.66203,5.06143,0 29.64391,5.06143,0 29.64391,5.02543,0 29.66203,5.02543,0 29.66203,4.98943,0 29.68015,4.98943,0 29.68015,4.93543,0 29.69827,4.93543,0 29.69827,4.91743,0 29.60767,4.91743,0 29.60767,4.89943,0 29.58955,4.89943,0 29.58955,4.88144,0 29.57142,4.88144,0 29.57142,4.86344,0 29.55330,4.86344,0 29.55330,4.84544,0 29.51706,4.84544,0 29.51706,4.82745,0 29.49894,4.82745,0 29.49894,4.80945,0 29.48082,4.80945,0 29.48082,4.84544,0 29.46270,4.84544,0 29.46270,4.88144,0 29.42646,4.88144,0 29.42646,4.84544,0 29.39022,4.84544,0 29.39022,4.88144,0 29.37210,4.88144,0 29.37210,4.89943,0 29.40834,4.89943,0 29.40834,4.93543,0 29.44458,4.93543,0 29.44458,5.00743,0 29.46270,5.00743,0 29.46270,5.04343,0 29.42646,5.04343,0 29.42646,5.06143,0 29.40834,5.06143,0 29.40834,5.09744,0 29.39022,5.09744,0 29.39022,5.13344,0 29.37210,5.13344,0 29.37210,5.16945,0 29.39022,5.16945,0 29.39022,5.22347,0 29.49894,5.22347,0 29.49894,5.20546,0 29.51706,5.20546,0 29.51706,5.18746,0 29.53518,5.18746,0 29.53518,5.09744,0 29.55330,5.09744,0 29.55330,5.11544,0 29.57142,5.11544,0 29.57142,5.13344,0 29.55330,5.13344,0 29.55330,5.24148,0 29.57142,5.24148,0 29.57142,5.25948,0</coordinates></LinearRing></outerBoundaryIs></Polygon></Placemark><Placemark><name>community proposal 2 (80,800 ha, support 0.83)</name><description><![CDATA[community · 80,800 ha · 10 clusters, 71,924 people (GHSL lower bound), 8 new since 2015<br/>fire 2,752/1000km2/yr, 486 fronts (97% transhumance, 272 ≥150 km)<br/>clearing since 2020 0.0 km2; cropland 0.22→5.54%; mining reported/candidates/top5% 0/0/6<br/>boundary: R.Lol (1930s sheet) on the NE/E (30 km); Lol on the W/NW (30 km); King River (1930s sheet) on the NW/NE (14 km); Lol Akway (1930s sheet) on the E/SE (4 km); unnamed river (order 4) on the E (2 km); 46 km along a geological contact only (not visible on the ground — needs beacons) — 44% follows no nameable feature]]></description><styleUrl>#community</styleUrl><Polygon><outerBoundaryIs><LinearRing><coordinates>27.61443,9.05502,0 27.63255,9.05502,0 27.63255,8.94611,0 27.65067,8.94611,0 27.65067,8.90982,0 27.63255,8.90982,0 27.63255,8.89167,0 27.61443,8.89167,0 27.61443,8.87352,0 27.57819,8.87352,0 27.57819,8.83723,0 27.56007,8.83723,0 27.56007,8.78281,0 27.57819,8.78281,0 27.57819,8.76467,0 27.48759,8.76467,0 27.48759,8.74653,0 27.45135,8.74653,0 27.45135,8.71025,0 27.41511,8.71025,0 27.41511,8.69212,0 27.39699,8.69212,0 27.39699,8.71025,0 27.37887,8.71025,0 27.37887,8.72839,0 27.36075,8.72839,0 27.36075,8.74653,0 27.34263,8.74653,0 27.34263,8.76467,0 27.32451,8.76467,0 27.32451,8.81909,0 27.28827,8.81909,0 27.28827,8.83723,0 27.27015,8.83723,0 27.27015,8.85538,0 27.25203,8.85538,0 27.25203,8.87352,0 27.21579,8.87352,0 27.21579,8.89167,0 27.23391,8.89167,0 27.23391,8.96426,0 27.27015,8.96426,0 27.27015,8.94611,0 27.34263,8.94611,0 27.34263,8.92796,0 27.39699,8.92796,0 27.39699,8.94611,0 27.43323,8.94611,0 27.43323,8.90982,0 27.48759,8.90982,0 27.48759,8.89167,0 27.50571,8.89167,0 27.50571,9.03686,0 27.52383,9.03686,0 27.52383,8.96426,0 27.54195,8.96426,0 27.54195,8.94611,0 27.57819,8.94611,0 27.57819,8.96426,0 27.61443,8.96426,0 27.61443,9.05502,0</coordinates></LinearRing></outerBoundaryIs></Polygon></Placemark><Placemark><name>community proposal 3 (109,600 ha, support 0.97)</name><description><![CDATA[community · 109,600 ha · 16 clusters, 29,181 people (GHSL lower bound), 7 new since 2015<br/>fire 2,628/1000km2/yr, 779 fronts (98% transhumance, 487 ≥150 km)<br/>clearing since 2020 0.0 km2; cropland 0.04→2.4%; mining reported/candidates/top5% 0/1/21<br/>boundary: Lol River on the NE/NW (46 km); Kuru River on the SW/NW (14 km); Kuru on the S (10 km); Lol on the E (6 km); unnamed river (order 4) on the N (2 km); R. Makedik (1930s sheet) on the NW (2 km); 70 km along a geological contact only (not visible on the ground — needs beacons) — 49% follows no nameable feature]]></description><styleUrl>#community</styleUrl><Polygon><outerBoundaryIs><LinearRing><coordinates>26.83526,9.23660,0 26.88962,9.23660,0 26.88962,9.20028,0 26.87150,9.20028,0 26.87150,9.14580,0 26.90774,9.14580,0 26.90774,9.12764,0 26.92586,9.12764,0 26.92586,9.10948,0 26.94398,9.10948,0 26.94398,9.12764,0 26.98022,9.12764,0 26.98022,9.14580,0 26.99834,9.14580,0 26.99834,9.23660,0 27.07082,9.23660,0 27.07082,9.16396,0 27.10706,9.16396,0 27.10706,9.14580,0 27.14330,9.14580,0 27.14330,9.10948,0 27.16142,9.10948,0 27.16142,9.09133,0 27.17954,9.09133,0 27.17954,9.07317,0 27.12518,9.07317,0 27.12518,9.05502,0 27.10706,9.05502,0 27.10706,9.01871,0 27.08894,9.01871,0 27.08894,8.96426,0 27.07082,8.96426,0 27.07082,8.90982,0 27.08894,8.90982,0 27.08894,8.87352,0 27.07082,8.87352,0 27.07082,8.85538,0 27.05270,8.85538,0 27.05270,8.87352,0 26.99834,8.87352,0 26.99834,8.85538,0 26.92586,8.85538,0 26.92586,8.87352,0 26.90774,8.87352,0 26.90774,8.92796,0 26.88962,8.92796,0 26.88962,8.96426,0 26.87150,8.96426,0 26.87150,8.98241,0 26.78090,8.98241,0 26.78090,9.00056,0 26.76278,9.00056,0 26.76278,9.05502,0 26.74466,9.05502,0 26.74466,9.12764,0 26.83526,9.12764,0 26.83526,9.20028,0 26.85338,9.20028,0 26.85338,9.21844,0 26.83526,9.21844,0 26.83526,9.23660,0</coordinates></LinearRing></outerBoundaryIs></Polygon></Placemark><Placemark><name>community proposal 4 (72,800 ha, support 1.0)</name><description><![CDATA[community · 72,800 ha · 4 clusters, 24,310 people (GHSL lower bound), 0 new since 2015<br/>fire 2,846/1000km2/yr, 819 fronts (99% transhumance, 568 ≥150 km)<br/>clearing since 2020 0.0 km2; cropland 0.0→0.0%; mining reported/candidates/top5% 0/0/0<br/>boundary: Raga River on the E/SE (26 km); 1930s sub-tribal boundary (1930s dotted) on the E (10 km); K. Birumbi (1930s sheet) on the SW/W (10 km); R. Boro (1930s sheet) on the W (8 km); unnamed river (order 4) on the SW/S (8 km); R. Timberi (1930s sheet) on the SW (6 km); 36 km along a geological contact only (not visible on the ground — needs beacons) — 46% follows no nameable feature]]></description><styleUrl>#community</styleUrl><Polygon><outerBoundaryIs><LinearRing><coordinates>25.42188,8.61958,0 25.51248,8.61958,0 25.51248,8.60144,0 25.54872,8.60144,0 25.54872,8.58331,0 25.56684,8.58331,0 25.56684,8.56518,0 25.58496,8.56518,0 25.58496,8.54705,0 25.60308,8.54705,0 25.60308,8.52892,0 25.62120,8.52892,0 25.62120,8.51079,0 25.63932,8.51079,0 25.63932,8.49267,0 25.69368,8.49267,0 25.69368,8.51079,0 25.72992,8.51079,0 25.72992,8.52892,0 25.74804,8.52892,0 25.74804,8.42016,0 25.67556,8.42016,0 25.67556,8.43829,0 25.65744,8.43829,0 25.65744,8.45641,0 25.63932,8.45641,0 25.63932,8.43829,0 25.62120,8.43829,0 25.62120,8.42016,0 25.58496,8.42016,0 25.58496,8.40204,0 25.54872,8.40204,0 25.54872,8.38392,0 25.47624,8.38392,0 25.47624,8.47454,0 25.45812,8.47454,0 25.45812,8.36579,0 25.44000,8.36579,0 25.44000,8.34767,0 25.42188,8.34767,0 25.42188,8.40204,0 25.38563,8.40204,0 25.38563,8.47454,0 25.33127,8.47454,0 25.33127,8.51079,0 25.31315,8.51079,0 25.31315,8.52892,0 25.33127,8.52892,0 25.33127,8.54705,0 25.38563,8.54705,0 25.38563,8.58331,0 25.40376,8.58331,0 25.40376,8.60144,0 25.42188,8.60144,0 25.42188,8.61958,0</coordinates></LinearRing></outerBoundaryIs></Polygon></Placemark><Placemark><name>community proposal 5 (268,000 ha, support 1.0)</name><description><![CDATA[community · 268,000 ha · 14 clusters, 28,190 people (GHSL lower bound), 12 new since 2015<br/>fire 1,212/1000km2/yr, 768 fronts (95% transhumance, 367 ≥150 km)<br/>clearing since 2020 0.0 km2; cropland 0.48→3.09%; mining reported/candidates/top5% 0/0/0<br/>boundary: unnamed river (order 4) on the NW/E (52 km); Wet Mading (1930s sheet) on the N/NE (38 km); King River (1930s sheet) on the S/SW (26 km); Lol on the W/SE (18 km); R.Lol (1930s sheet) on the SE/S (18 km); Lol River on the W (14 km); 62 km along a geological contact only (not visible on the ground — needs beacons) — 60% follows no nameable feature]]></description><styleUrl>#community</styleUrl><Polygon><outerBoundaryIs><LinearRing><coordinates>27.36075,9.36377,0 27.43323,9.36377,0 27.43323,9.21844,0 27.45135,9.21844,0 27.45135,9.36377,0 27.48759,9.36377,0 27.48759,9.34560,0 27.52383,9.34560,0 27.52383,9.21844,0 27.54195,9.21844,0 27.54195,9.30926,0 27.56007,9.30926,0 27.56007,9.32743,0 27.66879,9.32743,0 27.66879,9.34560,0 27.68691,9.34560,0 27.68691,9.32743,0 27.70503,9.32743,0 27.70503,9.30926,0 27.72315,9.30926,0 27.72315,9.29110,0 27.74127,9.29110,0 27.74127,9.27293,0 27.75939,9.27293,0 27.75939,9.25477,0 27.77751,9.25477,0 27.77751,9.23660,0 27.72315,9.23660,0 27.72315,9.21844,0 27.70503,9.21844,0 27.70503,9.20028,0 27.72315,9.20028,0 27.72315,9.18212,0 27.74127,9.18212,0 27.74127,9.16396,0 27.79564,9.16396,0 27.79564,9.14580,0 27.81376,9.14580,0 27.81376,9.16396,0 27.86812,9.16396,0 27.86812,9.14580,0 27.88624,9.14580,0 27.88624,9.12764,0 27.90436,9.12764,0 27.90436,9.10948,0 27.92248,9.10948,0 27.92248,9.09133,0 27.88624,9.09133,0 27.88624,9.07317,0 27.86812,9.07317,0 27.86812,9.05502,0 27.85000,9.05502,0 27.85000,9.03686,0 27.83188,9.03686,0 27.83188,9.01871,0 27.79564,9.01871,0 27.79564,8.98241,0 27.81376,8.98241,0 27.81376,8.94611,0 27.77751,8.94611,0 27.77751,9.00056,0 27.75939,9.00056,0 27.75939,9.03686,0 27.70503,9.03686,0 27.70503,8.90982,0 27.65067,8.90982,0 27.65067,8.94611,0 27.63255,8.94611,0 27.63255,9.05502,0 27.61443,9.05502,0 27.61443,8.96426,0 27.57819,8.96426,0 27.57819,8.94611,0 27.54195,8.94611,0 27.54195,8.96426,0 27.52383,8.96426,0 27.52383,9.03686,0 27.50571,9.03686,0 27.50571,8.89167,0 27.48759,8.89167,0 27.48759,8.90982,0 27.43323,8.90982,0 27.43323,9.05502,0 27.41511,9.05502,0 27.41511,8.94611,0 27.39699,8.94611,0 27.39699,8.92796,0 27.34263,8.92796,0 27.34263,9.05502,0 27.23391,9.05502,0 27.23391,9.03686,0 27.19767,9.03686,0 27.19767,9.05502,0 27.17954,9.05502,0 27.17954,9.09133,0 27.16142,9.09133,0 27.16142,9.10948,0 27.14330,9.10948,0 27.14330,9.14580,0 27.10706,9.14580,0 27.10706,9.16396,0 27.07082,9.16396,0 27.07082,9.23660,0 27.01646,9.23660,0 27.01646,9.25477,0 27.03458,9.25477,0 27.03458,9.27293,0 27.05270,9.27293,0 27.05270,9.29110,0 27.07082,9.29110,0 27.07082,9.30926,0 27.12518,9.30926,0 27.12518,9.29110,0 27.19767,9.29110,0 27.19767,9.30926,0 27.23391,9.30926,0 27.23391,9.32743,0 27.28827,9.32743,0 27.28827,9.21844,0 27.36075,9.21844,0 27.36075,9.36377,0</coordinates></LinearRing></outerBoundaryIs></Polygon></Placemark></Document></kml>