{"type": "FeatureCollection", "features": [{"type": "Feature", "properties": {"uid": 1, "seed": "community proposal 1", "seed_kind": "optimized", "area_km2": 1176.0, "area_ha": 117600, "country": "SSD", "in_zones": "[]", "overlaps": "[]", "km_to_park": 222.0, "clusters": 9, "population_est": 52494, "pop_per_km2": 44.638, "osm_places": 2, "new_since_2015": 0, "camps": 4, "built_km2": 1.05, "built_2000_km2": 0.07, "built_2015_km2": 0.4, "towns": "[\"Maridi 44,234\", \"Maridi 4,344\", \"Maridi* (nearest_place, unverified) 1,666\", \"Maridi 1,220\"]", "fire_det_2024_25": 10802, "fire_per_1000km2_yr": 4593, "fire_nov_feb_share": 0.86, "fronts": 1450, "fronts_per_1000km2": 1233.0, "fronts_transhumance_pct": 99, "fronts_long": 1060, "fronts_long_per_1000km2": 901.36, "long_front_intensity": 309.1, "front_dirs": "{\"E\": 298, \"W\": 257, \"NE\": 194}", "front_dirs_all": "{\"NW\": 121, \"SW\": 173, \"W\": 257, \"N\": 109, \"S\": 146, \"SE\": 152, \"NE\": 194, \"E\": 298}", "clearing_events": 66, "clearing_km2": 3.71, "clearing_since_2020_km2": 0.68, "clearing_encroach_slash": 22, "mine_reported": 0, "mine_candidates": 0, "mine_top05_cells": 0, "mine_watchlist": 0, "mining_measured": true, "geology": "[\"PLu Undifferentiated metamorphic rocks, migm 100%\"]", "geo_affinity_mean": 0.0, "cropland_2003_pct": 0.01, "cropland_2019_pct": 0.74, "boundary_legibility": 0.5, "built_growth_x": 15.0, "front_axis_coherence": 0.38, "front_axis": "E\u2013W", "rationale": "[\"community (settled / farmed / mining-exposed \\u2014 none of the above held)\", \"long fronts per 10 km width 309.1 >= 154.41: yes\", \"transhumance share % 99 >= 50: yes\", \"axis coherence (0.25 = random) 0.38 >= 0.4: no\", \"people/km2 44.638 <= 2: no\", \"\\u2014 not a corridor; core?\", \"people/km2 44.638 <= 0.02: no\", \"cropland 2019 % 0.74 <= 0.05: no\", \"clearing since 2020 km2/1000km2 0.578 <= 0.5: no\", \"reported workings 0 <= 0: yes\", \"\\u2014 not core; wilderness?\", \"people/km2 44.638 <= 0.5: no\", \"cropland 2019 % 0.74 <= 0.5: no\"]", "cls": "community", "boundary": "[\"J. ROVO I.S. \\u2013 J. DURUYANZI (Granite) \\u2013 Ironstone hill D(Low) ridge on the N/NE (26 km)\", \"R. Meridi (1930s sheet) on the NW/S (26 km)\", \"R. Era or Naam (1930s sheet) on the NE/E (24 km)\", \"unnamed river (order 4) on the W/SE (22 km)\", \"I. Wohko (1930s sheet) on the N/NE (20 km)\", \"1930s Province Boundary on the SW (12 km)\"]", "perimeter_km": 176, "unattributed_pct": 16, "support_mean": 0.88, "contested_units": 0, "area_ha_p10_p50_p90": "[112000, 117600, 134000]"}, "geometry": {"type": "Polygon", "coordinates": [[[29.571424929709206, 5.259483695113163], [29.680146746523985, 5.259483695113163], [29.680146746523985, 5.241476478175207], [29.69826704932645, 5.241476478175207], [29.69826704932645, 5.223469766613077], [29.752627957733836, 5.223469766613077], [29.752627957733836, 5.205463558651921], [29.734507654931377, 5.205463558651921], [29.734507654931377, 5.187457852517324], [29.716387352128912, 5.187457852517324], [29.716387352128912, 5.169452646435331], [29.69826704932645, 5.169452646435331], [29.69826704932645, 5.151447938632432], [29.680146746523985, 5.151447938632432], [29.680146746523985, 5.133443727335569], [29.66202644372152, 5.133443727335569], [29.66202644372152, 5.06143181176285], [29.643906140919057, 5.06143181176285], [29.643906140919057, 5.025428786945768], [29.66202644372152, 5.025428786945768], [29.66202644372152, 4.989427698557163], [29.680146746523985, 4.989427698557163], [29.680146746523985, 4.935429665816406], [29.69826704932645, 4.935429665816406], [29.69826704932645, 4.917431274453984], [29.607665535314126, 4.917431274453984], [29.607665535314126, 4.899433356587801], [29.589545232511664, 4.899433356587801], [29.589545232511664, 4.881435910450896], [29.571424929709206, 4.881435910450896], [29.571424929709206, 4.863438934276721], [29.55330462690674, 4.863438934276721], [29.55330462690674, 4.84544242629916], [29.517064021301813, 4.84544242629916], [29.517064021301813, 4.827446384752506], [29.498943718499348, 4.827446384752506], [29.498943718499348, 4.809450807871477], [29.480823415696882, 4.809450807871477], [29.480823415696882, 4.84544242629916], [29.46270311289442, 4.84544242629916], [29.46270311289442, 4.881435910450896], [29.426462507289497, 4.881435910450896], [29.426462507289497, 4.84544242629916], [29.39022190168457, 4.84544242629916], [29.39022190168457, 4.881435910450896], [29.372101598882104, 4.881435910450896], [29.372101598882104, 4.899433356587801], [29.40834220448703, 4.899433356587801], [29.40834220448703, 4.935429665816406], [29.444582810091955, 4.935429665816406], [29.444582810091955, 5.0074280015827295], [29.46270311289442, 5.0074280015827295], [29.46270311289442, 5.043430056415817], [29.426462507289497, 5.043430056415817], [29.426462507289497, 5.06143181176285], [29.40834220448703, 5.06143181176285], [29.40834220448703, 5.097436787169941], [29.39022190168457, 5.097436787169941], [29.39022190168457, 5.133443727335569], [29.372101598882104, 5.133443727335569], [29.372101598882104, 5.169452646435331], [29.39022190168457, 5.169452646435331], [29.39022190168457, 5.223469766613077], [29.498943718499348, 5.223469766613077], [29.498943718499348, 5.205463558651921], [29.517064021301813, 5.205463558651921], [29.517064021301813, 5.187457852517324], [29.535184324104275, 5.187457852517324], [29.535184324104275, 5.097436787169941], [29.55330462690674, 5.097436787169941], [29.55330462690674, 5.115440010772129], [29.571424929709206, 5.115440010772129], [29.571424929709206, 5.133443727335569], [29.55330462690674, 5.133443727335569], [29.55330462690674, 5.241476478175207], [29.571424929709206, 5.241476478175207], [29.571424929709206, 5.259483695113163]]]}}, {"type": "Feature", "properties": {"uid": 2, "seed": "community proposal 2", "seed_kind": "optimized", "area_km2": 808.0, "area_ha": 80800, "country": "SSD", "in_zones": "[]", "overlaps": "[]", "km_to_park": 148.7, "clusters": 10, "population_est": 71924, "pop_per_km2": 89.015, "osm_places": 0, "new_since_2015": 8, "camps": 0, "built_km2": 10.32, "built_2000_km2": 1.93, "built_2015_km2": 4.28, "towns": "[\"E. Kome (1930s village) 37,649\", \"Pan Nyel (1930s village) 10,082\", \"Win (1930s village) 7,558\", \"Busseri River* (nearest_place, unverified) 5,192\"]", "fire_det_2024_25": 4448, "fire_per_1000km2_yr": 2752, "fire_nov_feb_share": 0.59, "fronts": 486, "fronts_per_1000km2": 601.5, "fronts_transhumance_pct": 97, "fronts_long": 272, "fronts_long_per_1000km2": 336.63, "long_front_intensity": 95.69, "front_dirs": "{\"NW\": 101, \"N\": 90, \"E\": 71}", "front_dirs_all": "{\"SW\": 28, \"E\": 71, \"NE\": 59, \"W\": 45, \"SE\": 50, \"N\": 90, \"S\": 42, \"NW\": 101}", "clearing_events": 0, "clearing_km2": 0.0, "clearing_since_2020_km2": 0.0, "clearing_encroach_slash": 0, "mine_reported": 0, "mine_candidates": 0, "mine_top05_cells": 6, "mine_watchlist": 0, "mining_measured": true, "geology": "[\"QC Lacustrine deposits, alluvial fans, dune 64%\", \"QF Recent alluvium and wadi deposits 26% [gold]\"]", "geo_affinity_mean": 0.26, "cropland_2003_pct": 0.22, "cropland_2019_pct": 5.54, "boundary_legibility": 0.45, "built_growth_x": 5.3, "front_axis_coherence": 0.31, "front_axis": "SE\u2013NW", "rationale": "[\"community (settled / farmed / mining-exposed \\u2014 none of the above held)\", \"long fronts per 10 km width 95.69 >= 154.41: no\", \"transhumance share % 97 >= 50: yes\", \"axis coherence (0.25 = random) 0.31 >= 0.4: no\", \"people/km2 89.015 <= 2: no\", \"\\u2014 not a corridor; core?\", \"people/km2 89.015 <= 0.02: no\", \"cropland 2019 % 5.54 <= 0.05: no\", \"clearing since 2020 km2/1000km2 0.0 <= 0.5: yes\", \"reported workings 0 <= 0: yes\", \"\\u2014 not core; wilderness?\", \"people/km2 89.015 <= 0.5: no\", \"cropland 2019 % 5.54 <= 0.5: no\"]", "cls": "community", "boundary": "[\"R.Lol (1930s sheet) on the NE/E (30 km)\", \"Lol on the W/NW (30 km)\", \"King River (1930s sheet) on the NW/NE (14 km)\", \"Lol Akway (1930s sheet) on the E/SE (4 km)\", \"unnamed river (order 4) on the E (2 km)\", \"46 km along a geological contact only (not visible on the ground \\u2014 needs beacons)\"]", "perimeter_km": 142, "unattributed_pct": 44, "support_mean": 0.83, "contested_units": 3, "area_ha_p10_p50_p90": "[63800, 80800, 85600]"}, "geometry": {"type": "Polygon", "coordinates": [[[27.614432227043135, 9.055018449596284], [27.6325525298456, 9.055018449596284], [27.6325525298456, 8.946110654404684], [27.65067283264806, 8.946110654404684], [27.65067283264806, 8.909815126780787], [27.6325525298456, 8.909815126780787], [27.6325525298456, 8.8916686801645], [27.614432227043135, 8.8916686801645], [27.614432227043135, 8.873523109140864], [27.578191621438208, 8.873523109140864], [27.578191621438208, 8.837234586263085], [27.560071318635746, 8.837234586263085], [27.560071318635746, 8.782808321359909], [27.578191621438208, 8.782808321359909], [27.578191621438208, 8.764667963972073], [27.487590107425888, 8.764667963972073], [27.487590107425888, 8.74652846887778], [27.451349501820964, 8.74652846887778], [27.451349501820964, 8.710252057984116], [27.415108896216033, 8.710252057984116], [27.415108896216033, 8.692115138393888], [27.39698859341357, 8.692115138393888], [27.39698859341357, 8.710252057984116], [27.37886829061111, 8.710252057984116], [27.37886829061111, 8.728389834180403], [27.360747987808644, 8.728389834180403], [27.360747987808644, 8.74652846887778], [27.34262768500618, 8.74652846887778], [27.34262768500618, 8.764667963972073], [27.32450738220372, 8.764667963972073], [27.32450738220372, 8.819091630606765], [27.28826677659879, 8.819091630606765], [27.28826677659879, 8.837234586263085], [27.270146473796327, 8.837234586263085], [27.270146473796327, 8.855378411807559], [27.252026170993865, 8.855378411807559], [27.252026170993865, 8.873523109140864], [27.215785565388934, 8.873523109140864], [27.215785565388934, 8.8916686801645], [27.2339058681914, 8.8916686801645], [27.2339058681914, 8.964259739221042], [27.270146473796327, 8.964259739221042], [27.270146473796327, 8.946110654404684], [27.34262768500618, 8.946110654404684], [27.34262768500618, 8.927962450892863], [27.39698859341357, 8.927962450892863], [27.39698859341357, 8.946110654404684], [27.4332291990185, 8.946110654404684], [27.4332291990185, 8.909815126780787], [27.487590107425888, 8.909815126780787], [27.487590107425888, 8.8916686801645], [27.505710410228353, 8.8916686801645], [27.505710410228353, 9.036864929656481], [27.523830713030815, 9.036864929656481], [27.523830713030815, 8.964259739221042], [27.54195101583328, 8.964259739221042], [27.54195101583328, 8.946110654404684], [27.578191621438208, 8.946110654404684], [27.578191621438208, 8.964259739221042], [27.614432227043135, 8.964259739221042], [27.614432227043135, 9.055018449596284]]]}}, {"type": "Feature", "properties": {"uid": 3, "seed": "community proposal 3", "seed_kind": "optimized", "area_km2": 1096.0, "area_ha": 109600, "country": "SSD", "in_zones": "[]", "overlaps": "[\"WDPA Chelkou (Game Reserve) 17%\"]", "km_to_park": 160.0, "clusters": 16, "population_est": 29181, "pop_per_km2": 26.625, "osm_places": 0, "new_since_2015": 7, "camps": 4, "built_km2": 6.52, "built_2000_km2": 0.22, "built_2015_km2": 1.57, "towns": "[\"Koko (Rian Kuj) 9,914\", \"Garren (1930s village) 4,920\", \"Dulit (1930s) 4,843\", \"Langlen (1930s village) 4,065\"]", "fire_det_2024_25": 5760, "fire_per_1000km2_yr": 2628, "fire_nov_feb_share": 0.64, "fronts": 779, "fronts_per_1000km2": 710.8, "fronts_transhumance_pct": 98, "fronts_long": 487, "fronts_long_per_1000km2": 444.34, "long_front_intensity": 147.1, "front_dirs": "{\"NW\": 201, \"N\": 140, \"E\": 98}", "front_dirs_all": "{\"N\": 140, \"S\": 77, \"E\": 98, \"NW\": 201, \"SE\": 88, \"SW\": 41, \"W\": 55, \"NE\": 79}", "clearing_events": 0, "clearing_km2": 0.0, "clearing_since_2020_km2": 0.0, "clearing_encroach_slash": 0, "mine_reported": 0, "mine_candidates": 1, "mine_top05_cells": 21, "mine_watchlist": 3, "mining_measured": true, "geology": "[\"QF Recent alluvium and wadi deposits 47% [gold]\", \"PLu Undifferentiated metamorphic rocks, migm 41%\"]", "geo_affinity_mean": 0.55, "cropland_2003_pct": 0.04, "cropland_2019_pct": 2.4, "boundary_legibility": 0.45, "built_growth_x": 29.6, "front_axis_coherence": 0.37, "front_axis": "SE\u2013NW", "rationale": "[\"community (settled / farmed / mining-exposed \\u2014 none of the above held)\", \"long fronts per 10 km width 147.1 >= 154.41: no\", \"transhumance share % 98 >= 50: yes\", \"axis coherence (0.25 = random) 0.37 >= 0.4: no\", \"people/km2 26.625 <= 2: no\", \"\\u2014 not a corridor; core?\", \"people/km2 26.625 <= 0.02: no\", \"cropland 2019 % 2.4 <= 0.05: no\", \"clearing since 2020 km2/1000km2 0.0 <= 0.5: yes\", \"reported workings 0 <= 0: yes\", \"\\u2014 not core; wilderness?\", \"people/km2 26.625 <= 0.5: no\", \"cropland 2019 % 2.4 <= 0.5: no\"]", "cls": "community", "boundary": "[\"Lol River on the NE/NW (46 km)\", \"Kuru River on the SW/NW (14 km)\", \"Kuru on the S (10 km)\", \"Lol on the E (6 km)\", \"unnamed river (order 4) on the N (2 km)\", \"R. Makedik (1930s sheet) on the NW (2 km)\", \"70 km along a geological contact only (not visible on the ground \\u2014 needs beacons)\"]", "perimeter_km": 160, "unattributed_pct": 49, "support_mean": 0.97, "contested_units": 0, "area_ha_p10_p50_p90": "[108600, 109600, 112800]"}, "geometry": {"type": "Polygon", "coordinates": [[[26.8352592065372, 9.2366030658107], [26.88962011494459, 9.2366030658107], [26.88962011494459, 9.200278908736538], [26.87149981214213, 9.200278908736538], [26.87149981214213, 9.145799478780253], [26.907740417747053, 9.145799478780253], [26.907740417747053, 9.127641475972545], [26.92586072054952, 9.127641475972545], [26.92586072054952, 9.109484373563015], [26.943981023351984, 9.109484373563015], [26.943981023351984, 9.127641475972545], [26.980221628956908, 9.127641475972545], [26.980221628956908, 9.145799478780253], [26.998341931759374, 9.145799478780253], [26.998341931759374, 9.2366030658107], [27.07082314296923, 9.2366030658107], [27.07082314296923, 9.163958383900123], [27.107063748574152, 9.163958383900123], [27.107063748574152, 9.145799478780253], [27.143304354179083, 9.145799478780253], [27.143304354179083, 9.109484373563015], [27.161424656981545, 9.109484373563015], [27.161424656981545, 9.091328169638519], [27.17954495978401, 9.091328169638519], [27.17954495978401, 9.07317286228676], [27.125184051376618, 9.07317286228676], [27.125184051376618, 9.055018449596284], [27.107063748574152, 9.055018449596284], [27.107063748574152, 9.018712300557576], [27.08894344577169, 9.018712300557576], [27.08894344577169, 8.964259739221042], [27.07082314296923, 8.964259739221042], [27.07082314296923, 8.909815126780787], [27.08894344577169, 8.909815126780787], [27.08894344577169, 8.873523109140864], [27.07082314296923, 8.873523109140864], [27.07082314296923, 8.855378411807559], [27.052702840166763, 8.855378411807559], [27.052702840166763, 8.873523109140864], [26.998341931759374, 8.873523109140864], [26.998341931759374, 8.855378411807559], [26.92586072054952, 8.855378411807559], [26.92586072054952, 8.873523109140864], [26.907740417747053, 8.873523109140864], [26.907740417747053, 8.927962450892863], [26.88962011494459, 8.927962450892863], [26.88962011494459, 8.964259739221042], [26.87149981214213, 8.964259739221042], [26.87149981214213, 8.982409707247543], [26.78089829812981, 8.982409707247543], [26.78089829812981, 9.00056056039063], [26.762777995327347, 9.00056056039063], [26.762777995327347, 9.055018449596284], [26.744657692524882, 9.055018449596284], [26.744657692524882, 9.127641475972545], [26.8352592065372, 9.127641475972545], [26.8352592065372, 9.200278908736538], [26.853379509339664, 9.200278908736538], [26.853379509339664, 9.21844053228531], [26.8352592065372, 9.21844053228531], [26.8352592065372, 9.2366030658107]]]}}, {"type": "Feature", "properties": {"uid": 4, "seed": "community proposal 4", "seed_kind": "optimized", "area_km2": 728.0, "area_ha": 72800, "country": "SSD", "in_zones": "[]", "overlaps": "[]", "km_to_park": 133.0, "clusters": 4, "population_est": 24310, "pop_per_km2": 33.393, "osm_places": 0, "new_since_2015": 0, "camps": 2, "built_km2": 0.84, "built_2000_km2": 0.66, "built_2015_km2": 0.75, "towns": "[\"Raga (Raja) 24,018\"]", "fire_det_2024_25": 4144, "fire_per_1000km2_yr": 2846, "fire_nov_feb_share": 0.97, "fronts": 819, "fronts_per_1000km2": 1125.0, "fronts_transhumance_pct": 99, "fronts_long": 568, "fronts_long_per_1000km2": 780.22, "long_front_intensity": 210.51, "front_dirs": "{\"W\": 139, \"NW\": 127, \"SE\": 118}", "front_dirs_all": "{\"SW\": 84, \"W\": 139, \"N\": 69, \"NE\": 89, \"NW\": 127, \"E\": 111, \"S\": 82, \"SE\": 118}", "clearing_events": 0, "clearing_km2": 0.0, "clearing_since_2020_km2": 0.0, "clearing_encroach_slash": 0, "mine_reported": 0, "mine_candidates": 0, "mine_top05_cells": 0, "mine_watchlist": 0, "mining_measured": true, "geology": "[\"PLu Undifferentiated metamorphic rocks, migm 95%\"]", "geo_affinity_mean": 0.0, "cropland_2003_pct": 0.0, "cropland_2019_pct": 0.0, "boundary_legibility": 0.38, "built_growth_x": 1.3, "front_axis_coherence": 0.31, "front_axis": "E\u2013W", "rationale": "[\"community (settled / farmed / mining-exposed \\u2014 none of the above held)\", \"long fronts per 10 km width 210.51 >= 154.41: yes\", \"transhumance share % 99 >= 50: yes\", \"axis coherence (0.25 = random) 0.31 >= 0.4: no\", \"people/km2 33.393 <= 2: no\", \"\\u2014 not a corridor; core?\", \"people/km2 33.393 <= 0.02: no\", \"cropland 2019 % 0 <= 0.05: yes\", \"clearing since 2020 km2/1000km2 0.0 <= 0.5: yes\", \"reported workings 0 <= 0: yes\", \"\\u2014 not core; wilderness?\", \"people/km2 33.393 <= 0.5: no\", \"cropland 2019 % 0 <= 0.5: yes\"]", "cls": "community", "boundary": "[\"Raga River on the E/SE (26 km)\", \"1930s sub-tribal boundary (1930s dotted) on the E (10 km)\", \"K. Birumbi (1930s sheet) on the SW/W (10 km)\", \"R. Boro (1930s sheet) on the W (8 km)\", \"unnamed river (order 4) on the SW/S (8 km)\", \"R. Timberi (1930s sheet) on the SW (6 km)\", \"36 km along a geological contact only (not visible on the ground \\u2014 needs beacons)\"]", "perimeter_km": 134, "unattributed_pct": 46, "support_mean": 1.0, "contested_units": 2, "area_ha_p10_p50_p90": "[74000, 76400, 88000]"}, "geometry": {"type": "Polygon", "coordinates": [[[25.421875587945042, 8.619575988221177], [25.51247710195736, 8.619575988221177], [25.51247710195736, 8.601443323263892], [25.548717707562286, 8.601443323263892], [25.548717707562286, 8.583311503559282], [25.56683801036475, 8.583311503559282], [25.56683801036475, 8.565180527217883], [25.58495831316721, 8.565180527217883], [25.58495831316721, 8.547050392351023], [25.603078615969675, 8.547050392351023], [25.603078615969675, 8.528921097070821], [25.62119891877214, 8.528921097070821], [25.62119891877214, 8.510792639490163], [25.639319221574606, 8.510792639490163], [25.639319221574606, 8.492665017722729], [25.693680129981995, 8.492665017722729], [25.693680129981995, 8.510792639490163], [25.729920735586923, 8.510792639490163], [25.729920735586923, 8.528921097070821], [25.748041038389385, 8.528921097070821], [25.748041038389385, 8.420162851085982], [25.67555982717953, 8.420162851085982], [25.67555982717953, 8.438287148448207], [25.657439524377065, 8.438287148448207], [25.657439524377065, 8.456412274086132], [25.639319221574606, 8.456412274086132], [25.639319221574606, 8.438287148448207], [25.62119891877214, 8.438287148448207], [25.62119891877214, 8.420162851085982], [25.58495831316721, 8.420162851085982], [25.58495831316721, 8.402039380117008], [25.548717707562286, 8.402039380117008], [25.548717707562286, 8.38391673365961], [25.47623649635243, 8.38391673365961], [25.47623649635243, 8.474538229882974], [25.458116193549966, 8.474538229882974], [25.458116193549966, 8.36579490983287], [25.439995890747504, 8.36579490983287], [25.439995890747504, 8.347673906756647], [25.421875587945042, 8.347673906756647], [25.421875587945042, 8.402039380117008], [25.385634982340115, 8.402039380117008], [25.385634982340115, 8.474538229882974], [25.331274073932722, 8.474538229882974], [25.331274073932722, 8.510792639490163], [25.31315377113026, 8.510792639490163], [25.31315377113026, 8.528921097070821], [25.331274073932722, 8.528921097070821], [25.331274073932722, 8.547050392351023], [25.385634982340115, 8.547050392351023], [25.385634982340115, 8.583311503559282], [25.403755285142577, 8.583311503559282], [25.403755285142577, 8.601443323263892], [25.421875587945042, 8.601443323263892], [25.421875587945042, 8.619575988221177]]]}}, {"type": "Feature", "properties": {"uid": 5, "seed": "community proposal 5", "seed_kind": "optimized", "area_km2": 2680.0, "area_ha": 268000, "country": "SSD", "in_zones": "[]", "overlaps": "[]", "km_to_park": 172.2, "clusters": 14, "population_est": 28190, "pop_per_km2": 10.519, "osm_places": 0, "new_since_2015": 12, "camps": 0, "built_km2": 5.08, "built_2000_km2": 0.35, "built_2015_km2": 1.02, "towns": "[\"Busseri River* (nearest_place, unverified) 4,927\", \"Aryat (1930s) 3,097\", \"Mayong (1930s village) 2,757\", \"Busseri River* (nearest_place, unverified) 2,622\"]", "fire_det_2024_25": 6498, "fire_per_1000km2_yr": 1212, "fire_nov_feb_share": 0.39, "fronts": 768, "fronts_per_1000km2": 286.6, "fronts_transhumance_pct": 95, "fronts_long": 367, "fronts_long_per_1000km2": 136.94, "long_front_intensity": 70.89, "front_dirs": "{\"N\": 172, \"NE\": 129, \"NW\": 121}", "front_dirs_all": "{\"NE\": 129, \"S\": 55, \"E\": 106, \"SW\": 30, \"W\": 61, \"SE\": 94, \"N\": 172, \"NW\": 121}", "clearing_events": 0, "clearing_km2": 0.0, "clearing_since_2020_km2": 0.0, "clearing_encroach_slash": 0, "mine_reported": 0, "mine_candidates": 0, "mine_top05_cells": 0, "mine_watchlist": 0, "mining_measured": true, "geology": "[\"QC Lacustrine deposits, alluvial fans, dune 91%\", \"QF Recent alluvium and wadi deposits 6% [gold]\"]", "geo_affinity_mean": 0.06, "cropland_2003_pct": 0.48, "cropland_2019_pct": 3.09, "boundary_legibility": 0.33, "built_growth_x": 14.5, "front_axis_coherence": 0.3, "front_axis": "N\u2013S", "rationale": "[\"community (settled / farmed / mining-exposed \\u2014 none of the above held)\", \"long fronts per 10 km width 70.89 >= 154.41: no\", \"transhumance share % 95 >= 50: yes\", \"axis coherence (0.25 = random) 0.3 >= 0.4: no\", \"people/km2 10.519 <= 2: no\", \"\\u2014 not a corridor; core?\", \"people/km2 10.519 <= 0.02: no\", \"cropland 2019 % 3.09 <= 0.05: no\", \"clearing since 2020 km2/1000km2 0.0 <= 0.5: yes\", \"reported workings 0 <= 0: yes\", \"\\u2014 not core; wilderness?\", \"people/km2 10.519 <= 0.5: no\", \"cropland 2019 % 3.09 <= 0.5: no\"]", "cls": "community", "boundary": "[\"unnamed river (order 4) on the NW/E (52 km)\", \"Wet Mading (1930s sheet) on the N/NE (38 km)\", \"King River (1930s sheet) on the S/SW (26 km)\", \"Lol on the W/SE (18 km)\", \"R.Lol (1930s sheet) on the SE/S (18 km)\", \"Lol River on the W (14 km)\", \"62 km along a geological contact only (not visible on the ground \\u2014 needs beacons)\"]", "perimeter_km": 438, "unattributed_pct": 60, "support_mean": 1.0, "contested_units": 0, "area_ha_p10_p50_p90": "[268000, 268000, 268000]"}, "geometry": {"type": "Polygon", "coordinates": [[[27.360747987808644, 9.363766441075246], [27.4332291990185, 9.363766441075246], [27.4332291990185, 9.21844053228531], [27.451349501820964, 9.21844053228531], [27.451349501820964, 9.363766441075246], [27.487590107425888, 9.363766441075246], [27.487590107425888, 9.345597483954279], [27.523830713030815, 9.345597483954279], [27.523830713030815, 9.21844053228531], [27.54195101583328, 9.21844053228531], [27.54195101583328, 9.309262338056346], [27.560071318635746, 9.309262338056346], [27.560071318635746, 9.327429450255787], [27.668793135450525, 9.327429450255787], [27.668793135450525, 9.345597483954279], [27.68691343825299, 9.345597483954279], [27.68691343825299, 9.327429450255787], [27.705033741055455, 9.327429450255787], [27.705033741055455, 9.309262338056346], [27.723154043857914, 9.309262338056346], [27.723154043857914, 9.291096145433379], [27.74127434666038, 9.291096145433379], [27.74127434666038, 9.272930870465194], [27.759394649462845, 9.272930870465194], [27.759394649462845, 9.25476651123096], [27.777514952265307, 9.25476651123096], [27.777514952265307, 9.2366030658107], [27.723154043857914, 9.2366030658107], [27.723154043857914, 9.21844053228531], [27.705033741055455, 9.21844053228531], [27.705033741055455, 9.200278908736538], [27.723154043857914, 9.200278908736538], [27.723154043857914, 9.182118193246987], [27.74127434666038, 9.182118193246987], [27.74127434666038, 9.163958383900123], [27.79563525506777, 9.163958383900123], [27.79563525506777, 9.145799478780253], [27.813755557870234, 9.145799478780253], [27.813755557870234, 9.163958383900123], [27.868116466277627, 9.163958383900123], [27.868116466277627, 9.145799478780253], [27.88623676908009, 9.145799478780253], [27.88623676908009, 9.127641475972545], [27.90435707188255, 9.127641475972545], [27.90435707188255, 9.109484373563015], [27.922477374685016, 9.109484373563015], [27.922477374685016, 9.091328169638519], [27.88623676908009, 9.091328169638519], [27.88623676908009, 9.07317286228676], [27.868116466277627, 9.07317286228676], [27.868116466277627, 9.055018449596284], [27.84999616347516, 9.055018449596284], [27.84999616347516, 9.036864929656481], [27.8318758606727, 9.036864929656481], [27.8318758606727, 9.018712300557576], [27.79563525506777, 9.018712300557576], [27.79563525506777, 8.982409707247543], [27.813755557870234, 8.982409707247543], [27.813755557870234, 8.946110654404684], [27.777514952265307, 8.946110654404684], [27.777514952265307, 9.00056056039063], [27.759394649462845, 9.00056056039063], [27.759394649462845, 9.036864929656481], [27.705033741055455, 9.036864929656481], [27.705033741055455, 8.909815126780787], [27.65067283264806, 8.909815126780787], [27.65067283264806, 8.946110654404684], [27.6325525298456, 8.946110654404684], [27.6325525298456, 9.055018449596284], [27.614432227043135, 9.055018449596284], [27.614432227043135, 8.964259739221042], [27.578191621438208, 8.964259739221042], [27.578191621438208, 8.946110654404684], [27.54195101583328, 8.946110654404684], [27.54195101583328, 8.964259739221042], [27.523830713030815, 8.964259739221042], [27.523830713030815, 9.036864929656481], [27.505710410228353, 9.036864929656481], [27.505710410228353, 8.8916686801645], [27.487590107425888, 8.8916686801645], [27.487590107425888, 8.909815126780787], [27.4332291990185, 8.909815126780787], [27.4332291990185, 9.055018449596284], [27.415108896216033, 9.055018449596284], [27.415108896216033, 8.946110654404684], [27.39698859341357, 8.946110654404684], [27.39698859341357, 8.927962450892863], [27.34262768500618, 8.927962450892863], [27.34262768500618, 9.055018449596284], [27.2339058681914, 9.055018449596284], [27.2339058681914, 9.036864929656481], [27.197665262586472, 9.036864929656481], [27.197665262586472, 9.055018449596284], [27.17954495978401, 9.055018449596284], [27.17954495978401, 9.091328169638519], [27.161424656981545, 9.091328169638519], [27.161424656981545, 9.109484373563015], [27.143304354179083, 9.109484373563015], [27.143304354179083, 9.145799478780253], [27.107063748574152, 9.145799478780253], [27.107063748574152, 9.163958383900123], [27.07082314296923, 9.163958383900123], [27.07082314296923, 9.2366030658107], [27.01646223456184, 9.2366030658107], [27.01646223456184, 9.25476651123096], [27.034582537364297, 9.25476651123096], [27.034582537364297, 9.272930870465194], [27.052702840166763, 9.272930870465194], [27.052702840166763, 9.291096145433379], [27.07082314296923, 9.291096145433379], [27.07082314296923, 9.309262338056346], [27.125184051376618, 9.309262338056346], [27.125184051376618, 9.291096145433379], [27.197665262586472, 9.291096145433379], [27.197665262586472, 9.309262338056346], [27.2339058681914, 9.309262338056346], [27.2339058681914, 9.327429450255787], [27.28826677659879, 9.327429450255787], [27.28826677659879, 9.21844053228531], [27.360747987808644, 9.21844053228531], [27.360747987808644, 9.363766441075246]]]}}]}