{"type": "FeatureCollection", "features": [{"type": "Feature", "properties": {"support": 0.25, "want": "community"}, "geometry": {"type": "MultiPolygon", "coordinates": [[[[27.59631192424067, 6.268749403756095], [27.68691343825299, 6.268749403756095], [27.68691343825299, 6.286788376496282], [27.777514952265307, 6.286788376496282], [27.777514952265307, 6.268749403756095], [27.84999616347516, 6.268749403756095], [27.84999616347516, 6.250711038361766], [27.8318758606727, 6.250711038361766], [27.8318758606727, 6.23267327850984], [27.84999616347516, 6.23267327850984], [27.84999616347516, 6.214636122397419], [27.8318758606727, 6.214636122397419], [27.8318758606727, 6.196599568222144], [27.813755557870234, 6.196599568222144], [27.813755557870234, 6.178563614182206], [27.79563525506777, 6.178563614182206], [27.79563525506777, 6.142493499303824], [27.813755557870234, 6.142493499303824], [27.813755557870234, 6.106425763358651], [27.8318758606727, 6.106425763358651], [27.8318758606727, 6.070360391951696], [27.813755557870234, 6.070360391951696], [27.813755557870234, 6.052328588453958], [27.8318758606727, 6.052328588453958], [27.8318758606727, 6.034297370696531], [27.84999616347516, 6.034297370696531], [27.84999616347516, 5.9982366852152476], [27.777514952265307, 5.9982366852152476], [27.777514952265307, 5.980207213899033], [27.74127434666038, 5.980207213899033], [27.74127434666038, 5.962178321138402], [27.723154043857914, 5.962178321138402], [27.723154043857914, 5.9441500051384875], [27.705033741055455, 5.9441500051384875], [27.705033741055455, 5.890068499762194], [27.68691343825299, 5.890068499762194], [27.68691343825299, 5.835992120667014], [27.668793135450525, 5.835992120667014], [27.668793135450525, 5.76389817247882], [27.6325525298456, 5.76389817247882], [27.6325525298456, 5.745876082533553], [27.614432227043135, 5.745876082533553], [27.614432227043135, 5.7098335666423665], [27.59631192424067, 5.7098335666423665], [27.59631192424067, 5.67379325749803], [27.578191621438208, 5.67379325749803], [27.578191621438208, 5.6197369001620405], [27.54195101583328, 5.6197369001620405], [27.54195101583328, 5.601719202274747], [27.39698859341357, 5.601719202274747], [27.39698859341357, 5.583702045358143], [27.252026170993865, 5.583702045358143], [27.252026170993865, 5.56568542762796], [27.215785565388934, 5.56568542762796], [27.215785565388934, 5.6377551408047735], [27.197665262586472, 5.6377551408047735], [27.197665262586472, 5.655773925988191], [27.252026170993865, 5.655773925988191], [27.252026170993865, 5.67379325749803], [27.28826677659879, 5.67379325749803], [27.28826677659879, 5.691813137120513], [27.306387079401254, 5.691813137120513], [27.306387079401254, 5.7098335666423665], [27.32450738220372, 5.7098335666423665], [27.32450738220372, 5.727854547850807], [27.34262768500618, 5.727854547850807], [27.34262768500618, 5.745876082533553], [27.360747987808644, 5.745876082533553], [27.360747987808644, 5.76389817247882], [27.39698859341357, 5.76389817247882], [27.39698859341357, 5.799944025312293], [27.37886829061111, 5.799944025312293], [27.37886829061111, 5.817967791779444], [27.39698859341357, 5.817967791779444], [27.39698859341357, 5.854017013765743], [27.37886829061111, 5.854017013765743], [27.37886829061111, 5.872042472866882], [27.360747987808644, 5.872042472866882], [27.360747987808644, 5.9441500051384875], [27.4332291990185, 5.9441500051384875], [27.4332291990185, 5.962178321138402], [27.451349501820964, 5.962178321138402], [27.451349501820964, 5.980207213899033], [27.469469804623426, 5.980207213899033], [27.469469804623426, 5.9982366852152476], [27.487590107425888, 5.9982366852152476], [27.487590107425888, 6.016266736882443], [27.505710410228353, 6.016266736882443], [27.505710410228353, 6.034297370696531], [27.54195101583328, 6.034297370696531], [27.54195101583328, 6.016266736882443], [27.560071318635746, 6.016266736882443], [27.560071318635746, 5.962178321138402], [27.59631192424067, 5.962178321138402], [27.59631192424067, 5.980207213899033], [27.614432227043135, 5.980207213899033], [27.614432227043135, 5.9982366852152476], [27.65067283264806, 5.9982366852152476], [27.65067283264806, 6.106425763358651], [27.668793135450525, 6.106425763358651], [27.668793135450525, 6.124459334864475], [27.65067283264806, 6.124459334864475], [27.65067283264806, 6.196599568222144], [27.59631192424067, 6.196599568222144], [27.59631192424067, 6.160528258476339], [27.578191621438208, 6.160528258476339], [27.578191621438208, 6.106425763358651], [27.560071318635746, 6.106425763358651], [27.560071318635746, 6.088392782987249], [27.54195101583328, 6.088392782987249], [27.54195101583328, 6.070360391951696], [27.523830713030815, 6.070360391951696], [27.523830713030815, 6.088392782987249], [27.469469804623426, 6.088392782987249], [27.469469804623426, 6.106425763358651], [27.451349501820964, 6.106425763358651], [27.451349501820964, 6.196599568222144], [27.4332291990185, 6.196599568222144], [27.4332291990185, 6.214636122397419], [27.451349501820964, 6.214636122397419], [27.451349501820964, 6.23267327850984], [27.487590107425888, 6.23267327850984], [27.487590107425888, 6.250711038361766], [27.505710410228353, 6.250711038361766], [27.505710410228353, 6.268749403756095], [27.523830713030815, 6.268749403756095], [27.523830713030815, 6.286788376496282], [27.54195101583328, 6.286788376496282], [27.54195101583328, 6.304827958386333], [27.560071318635746, 6.304827958386333], [27.560071318635746, 6.322868151230804], [27.578191621438208, 6.322868151230804], [27.578191621438208, 6.358950377004004], [27.59631192424067, 6.358950377004004], [27.59631192424067, 6.268749403756095]]], [[[26.12856739724112, 6.593545587239368], [26.146687700043582, 6.593545587239368], [26.146687700043582, 6.575496013150397], [26.201048608450975, 6.575496013150397], [26.201048608450975, 6.539398777430352], [26.237289214055902, 6.539398777430352], [26.237289214055902, 6.503304079569989], [26.219168911253437, 6.503304079569989], [26.219168911253437, 6.46721190507637], [26.201048608450975, 6.46721190507637], [26.201048608450975, 6.449166759565559], [26.182928305648513, 6.449166759565559], [26.182928305648513, 6.413078342967868], [26.164808002846048, 6.413078342967868], [26.164808002846048, 6.395035068263468], [26.12856739724112, 6.395035068263468], [26.12856739724112, 6.37699241354463], [26.092326791636193, 6.37699241354463], [26.092326791636193, 6.395035068263468], [26.110447094438655, 6.395035068263468], [26.110447094438655, 6.449166759565559], [26.12856739724112, 6.449166759565559], [26.12856739724112, 6.503304079569989], [26.110447094438655, 6.503304079569989], [26.110447094438655, 6.521351112173735], [26.092326791636193, 6.521351112173735], [26.092326791636193, 6.557447077151746], [26.07420648883373, 6.557447077151746], [26.07420648883373, 6.593545587239368], [26.092326791636193, 6.593545587239368], [26.092326791636193, 6.6115958012322995], [26.12856739724112, 6.6115958012322995], [26.12856739724112, 6.593545587239368]]], [[[26.92586072054952, 8.130285205045478], [26.943981023351984, 8.130285205045478], [26.943981023351984, 8.112174700977448], [26.998341931759374, 8.112174700977448], [26.998341931759374, 8.094064991417186], [27.052702840166763, 8.094064991417186], [27.052702840166763, 8.112174700977448], [27.08894344577169, 8.112174700977448], [27.08894344577169, 8.094064991417186], [27.143304354179083, 8.094064991417186], [27.143304354179083, 8.075956074495794], [27.17954495978401, 8.075956074495794], [27.17954495978401, 8.0216340608869], [27.161424656981545, 8.0216340608869], [27.161424656981545, 7.967319113817935], [27.17954495978401, 7.967319113817935], [27.17954495978401, 7.949215693101051], [27.161424656981545, 7.949215693101051], [27.161424656981545, 7.931113050098162], [27.143304354179083, 7.931113050098162], [27.143304354179083, 7.894910089785711], [27.28826677659879, 7.894910089785711], [27.28826677659879, 7.8768097687535885], [27.360747987808644, 7.8768097687535885], [27.360747987808644, 7.894910089785711], [27.37886829061111, 7.894910089785711], [27.37886829061111, 8.039740611097713], [27.451349501820964, 8.039740611097713], [27.451349501820964, 8.0216340608869], [27.505710410228353, 8.0216340608869], [27.505710410228353, 8.003528295846708], [27.54195101583328, 8.003528295846708], [27.54195101583328, 7.985423314111889], [27.578191621438208, 7.985423314111889], [27.578191621438208, 7.967319113817935], [27.614432227043135, 7.967319113817935], [27.614432227043135, 7.949215693101051], [27.6325525298456, 7.949215693101051], [27.6325525298456, 7.931113050098162], [27.668793135450525, 7.931113050098162], [27.668793135450525, 7.9130111829469305], [27.68691343825299, 7.9130111829469305], [27.68691343825299, 7.894910089785711], [27.705033741055455, 7.894910089785711], [27.705033741055455, 7.8768097687535885], [27.723154043857914, 7.8768097687535885], [27.723154043857914, 7.804416168722675], [27.74127434666038, 7.804416168722675], [27.74127434666038, 7.768223953150242], [27.759394649462845, 7.768223953150242], [27.759394649462845, 7.750128984975846], [27.868116466277627, 7.750128984975846], [27.868116466277627, 7.732034774068742], [27.90435707188255, 7.732034774068742], [27.90435707188255, 7.713941318574386], [27.922477374685016, 7.713941318574386], [27.922477374685016, 7.695848616638902], [27.94059767748748, 7.695848616638902], [27.94059767748748, 7.677756666409125], [27.958717980289943, 7.677756666409125], [27.958717980289943, 7.659665466032585], [27.976838283092405, 7.659665466032585], [27.976838283092405, 7.641575013657493], [27.99495858589487, 7.641575013657493], [27.99495858589487, 7.623485307432754], [28.013078888697336, 7.623485307432754], [28.013078888697336, 7.60539634550797], [28.031199191499795, 7.60539634550797], [28.031199191499795, 7.5873081260334105], [28.04931949430226, 7.5873081260334105], [28.04931949430226, 7.569220647160049], [28.067439797104726, 7.569220647160049], [28.067439797104726, 7.5511339070395245], [28.085560099907187, 7.5511339070395245], [28.085560099907187, 7.533047903824164], [28.10368040270965, 7.533047903824164], [28.10368040270965, 7.496878100721639], [28.121800705512115, 7.496878100721639], [28.121800705512115, 7.478794297142507], [28.13992100831458, 7.478794297142507], [28.13992100831458, 7.442628876703652], [28.158041311117042, 7.442628876703652], [28.158041311117042, 7.4245472561559955], [28.21240221952443, 7.4245472561559955], [28.21240221952443, 7.4064663595986815], [28.248642825129362, 7.4064663595986815], [28.248642825129362, 7.3883861851894075], [28.284883430734286, 7.3883861851894075], [28.284883430734286, 7.370306731086544], [28.321124036339217, 7.370306731086544], [28.321124036339217, 7.352227995449113], [28.35736464194414, 7.352227995449113], [28.35736464194414, 7.334149976436806], [28.375484944746606, 7.334149976436806], [28.375484944746606, 7.31607267220997], [28.41172555035153, 7.31607267220997], [28.41172555035153, 7.2979960809295985], [28.429845853153996, 7.2979960809295985], [28.429845853153996, 7.27992020075736], [28.41172555035153, 7.27992020075736], [28.41172555035153, 7.225696808515738], [28.393605247549072, 7.225696808515738], [28.393605247549072, 7.207623754405596], [28.375484944746606, 7.207623754405596], [28.375484944746606, 7.189551402221619], [28.35736464194414, 7.189551402221619], [28.35736464194414, 7.171479750129345], [28.339244339141676, 7.171479750129345], [28.339244339141676, 7.1534087962949675], [28.321124036339217, 7.1534087962949675], [28.321124036339217, 7.135338538885316], [28.284883430734286, 7.135338538885316], [28.284883430734286, 7.117268976067851], [28.266763127931824, 7.117268976067851], [28.266763127931824, 7.135338538885316], [28.230522522326897, 7.135338538885316], [28.230522522326897, 7.1534087962949675], [28.176161613919508, 7.1534087962949675], [28.176161613919508, 7.171479750129345], [28.10368040270965, 7.171479750129345], [28.10368040270965, 7.189551402221619], [28.085560099907187, 7.189551402221619], [28.085560099907187, 7.207623754405596], [27.99495858589487, 7.207623754405596], [27.99495858589487, 7.225696808515738], [28.085560099907187, 7.225696808515738], [28.085560099907187, 7.2979960809295985], [28.031199191499795, 7.2979960809295985], [28.031199191499795, 7.31607267220997], [27.99495858589487, 7.31607267220997], [27.99495858589487, 7.334149976436806], [27.958717980289943, 7.334149976436806], [27.958717980289943, 7.442628876703652], [27.94059767748748, 7.442628876703652], [27.94059767748748, 7.496878100721639], [27.90435707188255, 7.496878100721639], [27.90435707188255, 7.478794297142507], [27.868116466277627, 7.478794297142507], [27.868116466277627, 7.460711223084615], [27.84999616347516, 7.460711223084615], [27.84999616347516, 7.442628876703652], [27.79563525506777, 7.442628876703652], [27.79563525506777, 7.460711223084615], [27.777514952265307, 7.460711223084615], [27.777514952265307, 7.478794297142507], [27.74127434666038, 7.478794297142507], [27.74127434666038, 7.496878100721639], [27.705033741055455, 7.496878100721639], [27.705033741055455, 7.460711223084615], [27.54195101583328, 7.460711223084615], [27.54195101583328, 7.5511339070395245], [27.560071318635746, 7.5511339070395245], [27.560071318635746, 7.659665466032585], [27.578191621438208, 7.659665466032585], [27.578191621438208, 7.677756666409125], [27.59631192424067, 7.677756666409125], [27.59631192424067, 7.695848616638902], [27.614432227043135, 7.695848616638902], [27.614432227043135, 7.713941318574386], [27.6325525298456, 7.713941318574386], [27.6325525298456, 7.732034774068742], [27.65067283264806, 7.732034774068742], [27.65067283264806, 7.750128984975846], [27.6325525298456, 7.750128984975846], [27.6325525298456, 7.768223953150242], [27.578191621438208, 7.768223953150242], [27.578191621438208, 7.786319680447201], [27.505710410228353, 7.786319680447201], [27.505710410228353, 7.750128984975846], [27.487590107425888, 7.750128984975846], [27.487590107425888, 7.732034774068742], [27.451349501820964, 7.732034774068742], [27.451349501820964, 7.768223953150242], [27.4332291990185, 7.768223953150242], [27.4332291990185, 7.786319680447201], [27.415108896216033, 7.786319680447201], [27.415108896216033, 7.804416168722675], [27.39698859341357, 7.804416168722675], [27.39698859341357, 7.8225134198333315], [27.34262768500618, 7.8225134198333315], [27.34262768500618, 7.840611435636537], [27.32450738220372, 7.840611435636537], [27.32450738220372, 7.8225134198333315], [27.306387079401254, 7.8225134198333315], [27.306387079401254, 7.768223953150242], [27.270146473796327, 7.768223953150242], [27.270146473796327, 7.750128984975846], [27.252026170993865, 7.750128984975846], [27.252026170993865, 7.786319680447201], [27.2339058681914, 7.786319680447201], [27.2339058681914, 7.804416168722675], [27.215785565388934, 7.804416168722675], [27.215785565388934, 7.8225134198333315], [27.161424656981545, 7.8225134198333315], [27.161424656981545, 7.786319680447201], [27.125184051376618, 7.786319680447201], [27.125184051376618, 7.840611435636537], [27.01646223456184, 7.840611435636537], [27.01646223456184, 7.858710217990361], [27.034582537364297, 7.858710217990361], [27.034582537364297, 7.894910089785711], [27.052702840166763, 7.894910089785711], [27.052702840166763, 7.931113050098162], [27.01646223456184, 7.931113050098162], [27.01646223456184, 7.9130111829469305], [26.943981023351984, 7.9130111829469305], [26.943981023351984, 7.967319113817935], [26.907740417747053, 7.967319113817935], [26.907740417747053, 7.985423314111889], [26.88962011494459, 7.985423314111889], [26.88962011494459, 8.0216340608869], [26.8352592065372, 8.0216340608869], [26.8352592065372, 8.112174700977448], [26.853379509339664, 8.112174700977448], [26.853379509339664, 8.130285205045478], [26.88962011494459, 8.130285205045478], [26.88962011494459, 8.148396505490906], [26.92586072054952, 8.148396505490906], [26.92586072054952, 8.130285205045478]]], [[[26.273529819660826, 7.804416168722675], [26.29165012246329, 7.804416168722675], [26.29165012246329, 7.768223953150242], [26.273529819660826, 7.768223953150242], [26.273529819660826, 7.713941318574386], [26.182928305648513, 7.713941318574386], [26.182928305648513, 7.768223953150242], [26.164808002846048, 7.768223953150242], [26.164808002846048, 7.786319680447201], [26.182928305648513, 7.786319680447201], [26.182928305648513, 7.804416168722675], [26.201048608450975, 7.804416168722675], [26.201048608450975, 7.840611435636537], [26.219168911253437, 7.840611435636537], [26.219168911253437, 7.858710217990361], [26.237289214055902, 7.858710217990361], [26.237289214055902, 7.8768097687535885], [26.273529819660826, 7.8768097687535885], [26.273529819660826, 7.804416168722675]]]]}}, {"type": "Feature", "properties": {"support": 0.5, "want": "community"}, "geometry": {"type": "MultiPolygon", "coordinates": [[[[27.59631192424067, 6.268749403756095], [27.68691343825299, 6.268749403756095], [27.68691343825299, 6.286788376496282], [27.777514952265307, 6.286788376496282], [27.777514952265307, 6.268749403756095], [27.84999616347516, 6.268749403756095], [27.84999616347516, 6.250711038361766], [27.8318758606727, 6.250711038361766], [27.8318758606727, 6.23267327850984], [27.84999616347516, 6.23267327850984], [27.84999616347516, 6.214636122397419], [27.8318758606727, 6.214636122397419], [27.8318758606727, 6.196599568222144], [27.813755557870234, 6.196599568222144], [27.813755557870234, 6.178563614182206], [27.79563525506777, 6.178563614182206], [27.79563525506777, 6.142493499303824], [27.813755557870234, 6.142493499303824], [27.813755557870234, 6.106425763358651], [27.8318758606727, 6.106425763358651], [27.8318758606727, 6.070360391951696], [27.813755557870234, 6.070360391951696], [27.813755557870234, 5.9982366852152476], [27.777514952265307, 5.9982366852152476], [27.777514952265307, 5.980207213899033], [27.74127434666038, 5.980207213899033], [27.74127434666038, 5.962178321138402], [27.723154043857914, 5.962178321138402], [27.723154043857914, 5.9441500051384875], [27.705033741055455, 5.9441500051384875], [27.705033741055455, 5.890068499762194], [27.68691343825299, 5.890068499762194], [27.68691343825299, 5.872042472866882], [27.6325525298456, 5.872042472866882], [27.6325525298456, 5.854017013765743], [27.59631192424067, 5.854017013765743], [27.59631192424067, 5.872042472866882], [27.578191621438208, 5.872042472866882], [27.578191621438208, 5.890068499762194], [27.54195101583328, 5.890068499762194], [27.54195101583328, 5.9441500051384875], [27.578191621438208, 5.9441500051384875], [27.578191621438208, 5.962178321138402], [27.59631192424067, 5.962178321138402], [27.59631192424067, 5.980207213899033], [27.614432227043135, 5.980207213899033], [27.614432227043135, 5.9982366852152476], [27.65067283264806, 5.9982366852152476], [27.65067283264806, 6.106425763358651], [27.668793135450525, 6.106425763358651], [27.668793135450525, 6.124459334864475], [27.65067283264806, 6.124459334864475], [27.65067283264806, 6.196599568222144], [27.59631192424067, 6.196599568222144], [27.59631192424067, 6.160528258476339], [27.578191621438208, 6.160528258476339], [27.578191621438208, 6.106425763358651], [27.560071318635746, 6.106425763358651], [27.560071318635746, 6.088392782987249], [27.54195101583328, 6.088392782987249], [27.54195101583328, 6.070360391951696], [27.523830713030815, 6.070360391951696], [27.523830713030815, 6.088392782987249], [27.469469804623426, 6.088392782987249], [27.469469804623426, 6.106425763358651], [27.451349501820964, 6.106425763358651], [27.451349501820964, 6.196599568222144], [27.4332291990185, 6.196599568222144], [27.4332291990185, 6.214636122397419], [27.451349501820964, 6.214636122397419], [27.451349501820964, 6.23267327850984], [27.487590107425888, 6.23267327850984], [27.487590107425888, 6.250711038361766], [27.505710410228353, 6.250711038361766], [27.505710410228353, 6.268749403756095], [27.523830713030815, 6.268749403756095], [27.523830713030815, 6.286788376496282], [27.54195101583328, 6.286788376496282], [27.54195101583328, 6.304827958386333], [27.560071318635746, 6.304827958386333], [27.560071318635746, 6.322868151230804], [27.578191621438208, 6.322868151230804], [27.578191621438208, 6.358950377004004], [27.59631192424067, 6.358950377004004], [27.59631192424067, 6.268749403756095]]], [[[26.12856739724112, 6.593545587239368], [26.146687700043582, 6.593545587239368], [26.146687700043582, 6.575496013150397], [26.201048608450975, 6.575496013150397], [26.201048608450975, 6.539398777430352], [26.237289214055902, 6.539398777430352], [26.237289214055902, 6.503304079569989], [26.219168911253437, 6.503304079569989], [26.219168911253437, 6.46721190507637], [26.201048608450975, 6.46721190507637], [26.201048608450975, 6.449166759565559], [26.182928305648513, 6.449166759565559], [26.182928305648513, 6.413078342967868], [26.164808002846048, 6.413078342967868], [26.164808002846048, 6.395035068263468], [26.12856739724112, 6.395035068263468], [26.12856739724112, 6.37699241354463], [26.092326791636193, 6.37699241354463], [26.092326791636193, 6.395035068263468], [26.110447094438655, 6.395035068263468], [26.110447094438655, 6.449166759565559], [26.12856739724112, 6.449166759565559], [26.12856739724112, 6.503304079569989], [26.110447094438655, 6.503304079569989], [26.110447094438655, 6.521351112173735], [26.092326791636193, 6.521351112173735], [26.092326791636193, 6.557447077151746], [26.07420648883373, 6.557447077151746], [26.07420648883373, 6.593545587239368], [26.092326791636193, 6.593545587239368], [26.092326791636193, 6.6115958012322995], [26.12856739724112, 6.6115958012322995], [26.12856739724112, 6.593545587239368]]], [[[28.013078888697336, 7.60539634550797], [28.031199191499795, 7.60539634550797], [28.031199191499795, 7.5873081260334105], [28.04931949430226, 7.5873081260334105], [28.04931949430226, 7.569220647160049], [28.067439797104726, 7.569220647160049], [28.067439797104726, 7.5511339070395245], [28.085560099907187, 7.5511339070395245], [28.085560099907187, 7.533047903824164], [28.10368040270965, 7.533047903824164], [28.10368040270965, 7.496878100721639], [28.121800705512115, 7.496878100721639], [28.121800705512115, 7.478794297142507], [28.13992100831458, 7.478794297142507], [28.13992100831458, 7.442628876703652], [28.121800705512115, 7.442628876703652], [28.121800705512115, 7.4064663595986815], [28.10368040270965, 7.4064663595986815], [28.10368040270965, 7.3883861851894075], [28.176161613919508, 7.3883861851894075], [28.176161613919508, 7.4064663595986815], [28.248642825129362, 7.4064663595986815], [28.248642825129362, 7.3883861851894075], [28.284883430734286, 7.3883861851894075], [28.284883430734286, 7.370306731086544], [28.321124036339217, 7.370306731086544], [28.321124036339217, 7.352227995449113], [28.35736464194414, 7.352227995449113], [28.35736464194414, 7.334149976436806], [28.375484944746606, 7.334149976436806], [28.375484944746606, 7.31607267220997], [28.41172555035153, 7.31607267220997], [28.41172555035153, 7.2979960809295985], [28.429845853153996, 7.2979960809295985], [28.429845853153996, 7.27992020075736], [28.41172555035153, 7.27992020075736], [28.41172555035153, 7.225696808515738], [28.393605247549072, 7.225696808515738], [28.393605247549072, 7.207623754405596], [28.375484944746606, 7.207623754405596], [28.375484944746606, 7.189551402221619], [28.35736464194414, 7.189551402221619], [28.35736464194414, 7.171479750129345], [28.339244339141676, 7.171479750129345], [28.339244339141676, 7.1534087962949675], [28.321124036339217, 7.1534087962949675], [28.321124036339217, 7.135338538885316], [28.284883430734286, 7.135338538885316], [28.284883430734286, 7.117268976067851], [28.266763127931824, 7.117268976067851], [28.266763127931824, 7.135338538885316], [28.230522522326897, 7.135338538885316], [28.230522522326897, 7.1534087962949675], [28.176161613919508, 7.1534087962949675], [28.176161613919508, 7.171479750129345], [28.10368040270965, 7.171479750129345], [28.10368040270965, 7.189551402221619], [28.085560099907187, 7.189551402221619], [28.085560099907187, 7.2979960809295985], [28.031199191499795, 7.2979960809295985], [28.031199191499795, 7.31607267220997], [27.99495858589487, 7.31607267220997], [27.99495858589487, 7.334149976436806], [27.958717980289943, 7.334149976436806], [27.958717980289943, 7.442628876703652], [27.94059767748748, 7.442628876703652], [27.94059767748748, 7.496878100721639], [27.976838283092405, 7.496878100721639], [27.976838283092405, 7.5511339070395245], [27.99495858589487, 7.5511339070395245], [27.99495858589487, 7.623485307432754], [28.013078888697336, 7.623485307432754], [28.013078888697336, 7.60539634550797]]], [[[27.505710410228353, 8.0216340608869], [27.505710410228353, 8.003528295846708], [27.54195101583328, 8.003528295846708], [27.54195101583328, 7.985423314111889], [27.578191621438208, 7.985423314111889], [27.578191621438208, 7.967319113817935], [27.614432227043135, 7.967319113817935], [27.614432227043135, 7.949215693101051], [27.6325525298456, 7.949215693101051], [27.6325525298456, 7.931113050098162], [27.668793135450525, 7.931113050098162], [27.668793135450525, 7.9130111829469305], [27.68691343825299, 7.9130111829469305], [27.68691343825299, 7.894910089785711], [27.705033741055455, 7.894910089785711], [27.705033741055455, 7.8768097687535885], [27.723154043857914, 7.8768097687535885], [27.723154043857914, 7.804416168722675], [27.74127434666038, 7.804416168722675], [27.74127434666038, 7.768223953150242], [27.759394649462845, 7.768223953150242], [27.759394649462845, 7.750128984975846], [27.868116466277627, 7.750128984975846], [27.868116466277627, 7.732034774068742], [27.90435707188255, 7.732034774068742], [27.90435707188255, 7.713941318574386], [27.922477374685016, 7.713941318574386], [27.922477374685016, 7.695848616638902], [27.94059767748748, 7.695848616638902], [27.94059767748748, 7.677756666409125], [27.958717980289943, 7.677756666409125], [27.958717980289943, 7.659665466032585], [27.976838283092405, 7.659665466032585], [27.976838283092405, 7.641575013657493], [27.99495858589487, 7.641575013657493], [27.99495858589487, 7.623485307432754], [27.958717980289943, 7.623485307432754], [27.958717980289943, 7.569220647160049], [27.90435707188255, 7.569220647160049], [27.90435707188255, 7.478794297142507], [27.868116466277627, 7.478794297142507], [27.868116466277627, 7.460711223084615], [27.84999616347516, 7.460711223084615], [27.84999616347516, 7.442628876703652], [27.79563525506777, 7.442628876703652], [27.79563525506777, 7.460711223084615], [27.777514952265307, 7.460711223084615], [27.777514952265307, 7.478794297142507], [27.74127434666038, 7.478794297142507], [27.74127434666038, 7.496878100721639], [27.705033741055455, 7.496878100721639], [27.705033741055455, 7.460711223084615], [27.54195101583328, 7.460711223084615], [27.54195101583328, 7.5511339070395245], [27.560071318635746, 7.5511339070395245], [27.560071318635746, 7.659665466032585], [27.578191621438208, 7.659665466032585], [27.578191621438208, 7.677756666409125], [27.59631192424067, 7.677756666409125], [27.59631192424067, 7.695848616638902], [27.614432227043135, 7.695848616638902], [27.614432227043135, 7.713941318574386], [27.6325525298456, 7.713941318574386], [27.6325525298456, 7.732034774068742], [27.65067283264806, 7.732034774068742], [27.65067283264806, 7.750128984975846], [27.6325525298456, 7.750128984975846], [27.6325525298456, 7.768223953150242], [27.578191621438208, 7.768223953150242], [27.578191621438208, 7.786319680447201], [27.505710410228353, 7.786319680447201], [27.505710410228353, 7.750128984975846], [27.487590107425888, 7.750128984975846], [27.487590107425888, 7.732034774068742], [27.451349501820964, 7.732034774068742], [27.451349501820964, 7.768223953150242], [27.4332291990185, 7.768223953150242], [27.4332291990185, 7.786319680447201], [27.415108896216033, 7.786319680447201], [27.415108896216033, 7.804416168722675], [27.39698859341357, 7.804416168722675], [27.39698859341357, 7.858710217990361], [27.37886829061111, 7.858710217990361], [27.37886829061111, 7.8768097687535885], [27.360747987808644, 7.8768097687535885], [27.360747987808644, 7.894910089785711], [27.37886829061111, 7.894910089785711], [27.37886829061111, 8.039740611097713], [27.451349501820964, 8.039740611097713], [27.451349501820964, 8.0216340608869], [27.505710410228353, 8.0216340608869]]], [[[26.943981023351984, 8.130285205045478], [26.943981023351984, 8.112174700977448], [26.998341931759374, 8.112174700977448], [26.998341931759374, 8.094064991417186], [27.052702840166763, 8.094064991417186], [27.052702840166763, 8.112174700977448], [27.08894344577169, 8.112174700977448], [27.08894344577169, 8.094064991417186], [27.143304354179083, 8.094064991417186], [27.143304354179083, 8.075956074495794], [27.17954495978401, 8.075956074495794], [27.17954495978401, 8.0216340608869], [27.161424656981545, 8.0216340608869], [27.161424656981545, 7.967319113817935], [27.17954495978401, 7.967319113817935], [27.17954495978401, 7.949215693101051], [27.161424656981545, 7.949215693101051], [27.161424656981545, 7.931113050098162], [27.143304354179083, 7.931113050098162], [27.143304354179083, 7.894910089785711], [27.107063748574152, 7.894910089785711], [27.107063748574152, 7.931113050098162], [27.01646223456184, 7.931113050098162], [27.01646223456184, 7.9130111829469305], [26.943981023351984, 7.9130111829469305], [26.943981023351984, 7.967319113817935], [26.907740417747053, 7.967319113817935], [26.907740417747053, 7.985423314111889], [26.88962011494459, 7.985423314111889], [26.88962011494459, 8.0216340608869], [26.8352592065372, 8.0216340608869], [26.8352592065372, 8.112174700977448], [26.853379509339664, 8.112174700977448], [26.853379509339664, 8.130285205045478], [26.88962011494459, 8.130285205045478], [26.88962011494459, 8.148396505490906], [26.92586072054952, 8.148396505490906], [26.92586072054952, 8.130285205045478], [26.943981023351984, 8.130285205045478]]]]}}, {"type": "Feature", "properties": {"support": 0.75, "want": "community"}, "geometry": {"type": "MultiPolygon", "coordinates": [[[[27.777514952265307, 6.268749403756095], [27.84999616347516, 6.268749403756095], [27.84999616347516, 6.250711038361766], [27.8318758606727, 6.250711038361766], [27.8318758606727, 6.23267327850984], [27.84999616347516, 6.23267327850984], [27.84999616347516, 6.214636122397419], [27.8318758606727, 6.214636122397419], [27.8318758606727, 6.196599568222144], [27.813755557870234, 6.196599568222144], [27.813755557870234, 6.178563614182206], [27.79563525506777, 6.178563614182206], [27.79563525506777, 6.142493499303824], [27.813755557870234, 6.142493499303824], [27.813755557870234, 6.106425763358651], [27.8318758606727, 6.106425763358651], [27.8318758606727, 6.070360391951696], [27.813755557870234, 6.070360391951696], [27.813755557870234, 5.9982366852152476], [27.777514952265307, 5.9982366852152476], [27.777514952265307, 5.980207213899033], [27.74127434666038, 5.980207213899033], [27.74127434666038, 5.962178321138402], [27.723154043857914, 5.962178321138402], [27.723154043857914, 5.9441500051384875], [27.705033741055455, 5.9441500051384875], [27.705033741055455, 5.890068499762194], [27.68691343825299, 5.890068499762194], [27.68691343825299, 5.872042472866882], [27.6325525298456, 5.872042472866882], [27.6325525298456, 5.854017013765743], [27.59631192424067, 5.854017013765743], [27.59631192424067, 5.872042472866882], [27.578191621438208, 5.872042472866882], [27.578191621438208, 5.890068499762194], [27.54195101583328, 5.890068499762194], [27.54195101583328, 5.9441500051384875], [27.578191621438208, 5.9441500051384875], [27.578191621438208, 5.962178321138402], [27.59631192424067, 5.962178321138402], [27.59631192424067, 5.980207213899033], [27.614432227043135, 5.980207213899033], [27.614432227043135, 5.9982366852152476], [27.65067283264806, 5.9982366852152476], [27.65067283264806, 6.106425763358651], [27.668793135450525, 6.106425763358651], [27.668793135450525, 6.124459334864475], [27.65067283264806, 6.124459334864475], [27.65067283264806, 6.196599568222144], [27.59631192424067, 6.196599568222144], [27.59631192424067, 6.214636122397419], [27.614432227043135, 6.214636122397419], [27.614432227043135, 6.268749403756095], [27.68691343825299, 6.268749403756095], [27.68691343825299, 6.286788376496282], [27.777514952265307, 6.286788376496282], [27.777514952265307, 6.268749403756095]]], [[[28.031199191499795, 7.5873081260334105], [28.04931949430226, 7.5873081260334105], [28.04931949430226, 7.569220647160049], [28.067439797104726, 7.569220647160049], [28.067439797104726, 7.5511339070395245], [28.085560099907187, 7.5511339070395245], [28.085560099907187, 7.533047903824164], [28.10368040270965, 7.533047903824164], [28.10368040270965, 7.496878100721639], [28.121800705512115, 7.496878100721639], [28.121800705512115, 7.478794297142507], [28.13992100831458, 7.478794297142507], [28.13992100831458, 7.442628876703652], [28.121800705512115, 7.442628876703652], [28.121800705512115, 7.4064663595986815], [28.10368040270965, 7.4064663595986815], [28.10368040270965, 7.3883861851894075], [28.176161613919508, 7.3883861851894075], [28.176161613919508, 7.4064663595986815], [28.248642825129362, 7.4064663595986815], [28.248642825129362, 7.3883861851894075], [28.284883430734286, 7.3883861851894075], [28.284883430734286, 7.370306731086544], [28.321124036339217, 7.370306731086544], [28.321124036339217, 7.352227995449113], [28.35736464194414, 7.352227995449113], [28.35736464194414, 7.334149976436806], [28.375484944746606, 7.334149976436806], [28.375484944746606, 7.31607267220997], [28.41172555035153, 7.31607267220997], [28.41172555035153, 7.2979960809295985], [28.429845853153996, 7.2979960809295985], [28.429845853153996, 7.27992020075736], [28.41172555035153, 7.27992020075736], [28.41172555035153, 7.225696808515738], [28.393605247549072, 7.225696808515738], [28.393605247549072, 7.207623754405596], [28.375484944746606, 7.207623754405596], [28.375484944746606, 7.189551402221619], [28.35736464194414, 7.189551402221619], [28.35736464194414, 7.171479750129345], [28.339244339141676, 7.171479750129345], [28.339244339141676, 7.1534087962949675], [28.321124036339217, 7.1534087962949675], [28.321124036339217, 7.135338538885316], [28.284883430734286, 7.135338538885316], [28.284883430734286, 7.117268976067851], [28.266763127931824, 7.117268976067851], [28.266763127931824, 7.135338538885316], [28.230522522326897, 7.135338538885316], [28.230522522326897, 7.1534087962949675], [28.176161613919508, 7.1534087962949675], [28.176161613919508, 7.171479750129345], [28.10368040270965, 7.171479750129345], [28.10368040270965, 7.189551402221619], [28.085560099907187, 7.189551402221619], [28.085560099907187, 7.2979960809295985], [28.031199191499795, 7.2979960809295985], [28.031199191499795, 7.31607267220997], [27.99495858589487, 7.31607267220997], [27.99495858589487, 7.334149976436806], [27.958717980289943, 7.334149976436806], [27.958717980289943, 7.442628876703652], [27.94059767748748, 7.442628876703652], [27.94059767748748, 7.496878100721639], [27.976838283092405, 7.496878100721639], [27.976838283092405, 7.5511339070395245], [27.99495858589487, 7.5511339070395245], [27.99495858589487, 7.5873081260334105], [28.013078888697336, 7.5873081260334105], [28.013078888697336, 7.60539634550797], [28.031199191499795, 7.60539634550797], [28.031199191499795, 7.5873081260334105]]], [[[27.723154043857914, 7.713941318574386], [27.79563525506777, 7.713941318574386], [27.79563525506777, 7.641575013657493], [27.813755557870234, 7.641575013657493], [27.813755557870234, 7.623485307432754], [27.84999616347516, 7.623485307432754], [27.84999616347516, 7.60539634550797], [27.8318758606727, 7.60539634550797], [27.8318758606727, 7.5873081260334105], [27.84999616347516, 7.5873081260334105], [27.84999616347516, 7.569220647160049], [27.8318758606727, 7.569220647160049], [27.8318758606727, 7.496878100721639], [27.84999616347516, 7.496878100721639], [27.84999616347516, 7.442628876703652], [27.79563525506777, 7.442628876703652], [27.79563525506777, 7.460711223084615], [27.777514952265307, 7.460711223084615], [27.777514952265307, 7.478794297142507], [27.74127434666038, 7.478794297142507], [27.74127434666038, 7.496878100721639], [27.705033741055455, 7.496878100721639], [27.705033741055455, 7.460711223084615], [27.54195101583328, 7.460711223084615], [27.54195101583328, 7.5511339070395245], [27.560071318635746, 7.5511339070395245], [27.560071318635746, 7.659665466032585], [27.578191621438208, 7.659665466032585], [27.578191621438208, 7.677756666409125], [27.59631192424067, 7.677756666409125], [27.59631192424067, 7.641575013657493], [27.65067283264806, 7.641575013657493], [27.65067283264806, 7.750128984975846], [27.668793135450525, 7.750128984975846], [27.668793135450525, 7.768223953150242], [27.705033741055455, 7.768223953150242], [27.705033741055455, 7.786319680447201], [27.723154043857914, 7.786319680447201], [27.723154043857914, 7.713941318574386]]], [[[26.88962011494459, 8.094064991417186], [26.962101326154443, 8.094064991417186], [26.962101326154443, 8.112174700977448], [26.998341931759374, 8.112174700977448], [26.998341931759374, 8.094064991417186], [27.052702840166763, 8.094064991417186], [27.052702840166763, 8.112174700977448], [27.08894344577169, 8.112174700977448], [27.08894344577169, 8.094064991417186], [27.143304354179083, 8.094064991417186], [27.143304354179083, 8.075956074495794], [27.17954495978401, 8.075956074495794], [27.17954495978401, 8.0216340608869], [27.161424656981545, 8.0216340608869], [27.161424656981545, 7.967319113817935], [27.17954495978401, 7.967319113817935], [27.17954495978401, 7.949215693101051], [27.161424656981545, 7.949215693101051], [27.161424656981545, 7.931113050098162], [27.143304354179083, 7.931113050098162], [27.143304354179083, 7.894910089785711], [27.107063748574152, 7.894910089785711], [27.107063748574152, 7.931113050098162], [27.01646223456184, 7.931113050098162], [27.01646223456184, 7.9130111829469305], [26.943981023351984, 7.9130111829469305], [26.943981023351984, 7.967319113817935], [26.907740417747053, 7.967319113817935], [26.907740417747053, 7.985423314111889], [26.88962011494459, 7.985423314111889], [26.88962011494459, 8.0216340608869], [26.8352592065372, 8.0216340608869], [26.8352592065372, 8.112174700977448], [26.853379509339664, 8.112174700977448], [26.853379509339664, 8.130285205045478], [26.88962011494459, 8.130285205045478], [26.88962011494459, 8.094064991417186]]]]}}]}