{"type": "FeatureCollection", "features": [{"type": "Feature", "properties": {"uid": 1, "seed": "community proposal 1", "seed_kind": "optimized", "area_km2": 1104.0, "area_ha": 110400, "country": "SSD", "in_zones": "[]", "overlaps": "[]", "km_to_park": 30.3, "clusters": 31, "population_est": 733, "pop_per_km2": 0.664, "osm_places": 0, "new_since_2015": 0, "camps": 28, "built_km2": 0.04, "built_2000_km2": 0.03, "built_2015_km2": 0.03, "towns": "[]", "fire_det_2024_25": 8349, "fire_per_1000km2_yr": 3781, "fire_nov_feb_share": 0.83, "fronts": 1398, "fronts_per_1000km2": 1266.3, "fronts_transhumance_pct": 99, "fronts_long": 947, "fronts_long_per_1000km2": 857.79, "long_front_intensity": 285.01, "front_dirs": "{\"SE\": 277, \"W\": 227, \"NW\": 225}", "front_dirs_all": "{\"SE\": 277, \"S\": 140, \"NE\": 99, \"N\": 105, \"E\": 181, \"NW\": 225, \"SW\": 144, \"W\": 227}", "clearing_events": 95, "clearing_km2": 7.56, "clearing_since_2020_km2": 0.47, "clearing_encroach_slash": 26, "mine_reported": 0, "mine_candidates": 0, "mine_top05_cells": 10, "mine_watchlist": 0, "mining_measured": true, "geology": "[\"PLu Undifferentiated metamorphic rocks, migm 87%\", \"QF Recent alluvium and wadi deposits 11% [gold]\"]", "geo_affinity_mean": 0.11, "cropland_2003_pct": 0.0, "cropland_2019_pct": 0.01, "boundary_legibility": 0.53, "built_growth_x": 1.3, "front_axis_coherence": 0.36, "front_axis": "SE\u2013NW", "rationale": "[\"community (settled / farmed / mining-exposed \\u2014 none of the above held)\", \"long fronts per 10 km width 285.01 >= 154.06: yes\", \"transhumance share % 99 >= 50: yes\", \"axis coherence (0.25 = random) 0.36 >= 0.4: no\", \"people/km2 0.664 <= 2: yes\", \"\\u2014 not a corridor; core?\", \"people/km2 0.664 <= 0.02: no\", \"cropland 2019 % 0.01 <= 0.05: yes\", \"clearing since 2020 km2/1000km2 0.426 <= 0.5: yes\", \"reported workings 0 <= 0: yes\", \"\\u2014 not core; wilderness?\", \"people/km2 0.664 <= 0.5: no\", \"cropland 2019 % 0.01 <= 0.5: yes\"]", "cls": "community", "boundary": "[\"Nahr al Jur on the S/SE (44 km)\", \"Busseri River on the N (16 km)\", \"R. Sue (1930s sheet) on the NE/S (8 km)\", \"K. Nyadok (1930s sheet) on the NW (6 km)\", \"K. Ungoa (1930s sheet) on the W (6 km)\", \"22 km along a geological contact only (not visible on the ground \\u2014 needs beacons)\", \"landmarks on the unnamed stretches: Peili (1930s village) (SW), Udu Burnus (1930s village) (SW), Wadshi (1930s village) (N), Uburi (1930s village) (N), Wadi (1930s village) (N), Bazia (1930s village) (SW), Ubu (1930s village) (N), Ch. Kwot (1930s village) (N)\"]", "perimeter_km": 138, "unattributed_pct": 42, "support_mean": 0.62, "contested_units": 7, "area_ha_p10_p50_p90": "[114200, 117600, 121200]"}, "geometry": {"type": "Polygon", "coordinates": [[[28.013078888697336, 7.60539634550797], [28.031199191499795, 7.60539634550797], [28.031199191499795, 7.5873081260334105], [28.04931949430226, 7.5873081260334105], [28.04931949430226, 7.569220647160049], [28.067439797104726, 7.569220647160049], [28.067439797104726, 7.5511339070395245], [28.085560099907187, 7.5511339070395245], [28.085560099907187, 7.533047903824164], [28.10368040270965, 7.533047903824164], [28.10368040270965, 7.496878100721639], [28.121800705512115, 7.496878100721639], [28.121800705512115, 7.478794297142507], [28.13992100831458, 7.478794297142507], [28.13992100831458, 7.442628876703652], [28.121800705512115, 7.442628876703652], [28.121800705512115, 7.4064663595986815], [28.10368040270965, 7.4064663595986815], [28.10368040270965, 7.3883861851894075], [28.121800705512115, 7.3883861851894075], [28.121800705512115, 7.352227995449113], [28.10368040270965, 7.352227995449113], [28.10368040270965, 7.31607267220997], [28.085560099907187, 7.31607267220997], [28.085560099907187, 7.189551402221619], [28.10368040270965, 7.189551402221619], [28.10368040270965, 7.171479750129345], [28.085560099907187, 7.171479750129345], [28.085560099907187, 7.1534087962949675], [28.067439797104726, 7.1534087962949675], [28.067439797104726, 7.117268976067851], [28.04931949430226, 7.117268976067851], [28.04931949430226, 7.0811319268825255], [28.031199191499795, 7.0811319268825255], [28.031199191499795, 7.044997634091408], [28.013078888697336, 7.044997634091408], [28.013078888697336, 7.0269315167690705], [27.976838283092405, 7.0269315167690705], [27.976838283092405, 7.008866083057012], [27.958717980289943, 7.008866083057012], [27.958717980289943, 7.099200106010676], [27.90435707188255, 7.099200106010676], [27.90435707188255, 7.135338538885316], [27.88623676908009, 7.135338538885316], [27.88623676908009, 7.1534087962949675], [27.868116466277627, 7.1534087962949675], [27.868116466277627, 7.171479750129345], [27.84999616347516, 7.171479750129345], [27.84999616347516, 7.27992020075736], [27.868116466277627, 7.27992020075736], [27.868116466277627, 7.2979960809295985], [27.90435707188255, 7.2979960809295985], [27.90435707188255, 7.31607267220997], [27.922477374685016, 7.31607267220997], [27.922477374685016, 7.334149976436806], [27.958717980289943, 7.334149976436806], [27.958717980289943, 7.496878100721639], [27.976838283092405, 7.496878100721639], [27.976838283092405, 7.5511339070395245], [27.99495858589487, 7.5511339070395245], [27.99495858589487, 7.5873081260334105], [28.013078888697336, 7.5873081260334105], [28.013078888697336, 7.60539634550797]]]}}, {"type": "Feature", "properties": {"uid": 2, "seed": "community proposal 2", "seed_kind": "optimized", "area_km2": 1364.0, "area_ha": 136400, "country": "SSD", "in_zones": "[]", "overlaps": "[\"PLAN Wau-Wilderness_30,329km2 40%\", \"PLAN zone-p\\u00e2turage-durable_Numatina_15'000km2 16%\"]", "km_to_park": 12.8, "clusters": 16, "population_est": 2873, "pop_per_km2": 2.106, "osm_places": 2, "new_since_2015": 0, "camps": 11, "built_km2": 0.1, "built_2000_km2": 0.04, "built_2015_km2": 0.06, "towns": "[]", "fire_det_2024_25": 9910, "fire_per_1000km2_yr": 3633, "fire_nov_feb_share": 0.93, "fronts": 1257, "fronts_per_1000km2": 921.6, "fronts_transhumance_pct": 99, "fronts_long": 833, "fronts_long_per_1000km2": 610.7, "long_front_intensity": 225.55, "front_dirs": "{\"NW\": 226, \"N\": 183, \"SE\": 174}", "front_dirs_all": "{\"W\": 153, \"S\": 144, \"SE\": 174, \"SW\": 128, \"N\": 183, \"NW\": 226, \"E\": 135, \"NE\": 114}", "clearing_events": 32, "clearing_km2": 6.67, "clearing_since_2020_km2": 1.1, "clearing_encroach_slash": 15, "mine_reported": 2, "mine_candidates": 1, "mine_top05_cells": 14, "mine_watchlist": 1, "mining_measured": true, "geology": "[\"PLp Para schist 63%\", \"IU Undifferentiated syn- to late-orogenic i 13% [gold,lithium]\"]", "geo_affinity_mean": 0.46, "cropland_2003_pct": 0.0, "cropland_2019_pct": 0.01, "boundary_legibility": 0.4, "built_growth_x": 2.5, "front_axis_coherence": 0.32, "front_axis": "SE\u2013NW", "rationale": "[\"community (settled / farmed / mining-exposed \\u2014 none of the above held)\", \"long fronts per 10 km width 225.55 >= 154.06: yes\", \"transhumance share % 99 >= 50: yes\", \"axis coherence (0.25 = random) 0.32 >= 0.4: no\", \"people/km2 2.106 <= 2: no\", \"\\u2014 not a corridor; core?\", \"people/km2 2.106 <= 0.02: no\", \"cropland 2019 % 0.01 <= 0.05: yes\", \"clearing since 2020 km2/1000km2 0.806 <= 0.5: no\", \"reported workings 2 <= 0: no\", \"\\u2014 not core; wilderness?\", \"people/km2 2.106 <= 0.5: no\", \"cropland 2019 % 0.01 <= 0.5: yes\"]", "cls": "community", "boundary": "[\"Bo River on the N/NE (32 km)\", \"R. Chamika (1930s sheet) on the S/SW (28 km)\", \"K. Barange (1930s sheet) on the S/SE (16 km)\", \"R. Lile (1930s sheet) on the SW (14 km)\", \"CAF border on the SW (14 km)\", \"K. Bashi (1930s sheet) on the SW (8 km)\", \"78 km along a geological contact only (not visible on the ground \\u2014 needs beacons)\", \"landmarks on the unnamed stretches: Senekpuro (village today) (S), Senekpuro (village today) (S), MARRA HILLS (NE), Mouni (1930s village) (N), Kira (1930s village) (N), Kiringo Laringa (1930s village) (N), L. Dafraka (1930s sheet) (E), L. Kortuba (1930s sheet) (NE)\"]", "perimeter_km": 234, "unattributed_pct": 47, "support_mean": 0.5, "contested_units": 4, "area_ha_p10_p50_p90": "[89800, 138200, 142600]"}, "geometry": {"type": "Polygon", "coordinates": [[[27.578191621438208, 6.358950377004004], [27.59631192424067, 6.358950377004004], [27.59631192424067, 6.286788376496282], [27.614432227043135, 6.286788376496282], [27.614432227043135, 6.214636122397419], [27.59631192424067, 6.214636122397419], [27.59631192424067, 6.160528258476339], [27.578191621438208, 6.160528258476339], [27.578191621438208, 6.106425763358651], [27.560071318635746, 6.106425763358651], [27.560071318635746, 6.088392782987249], [27.54195101583328, 6.088392782987249], [27.54195101583328, 6.052328588453958], [27.523830713030815, 6.052328588453958], [27.523830713030815, 6.034297370696531], [27.54195101583328, 6.034297370696531], [27.54195101583328, 6.016266736882443], [27.560071318635746, 6.016266736882443], [27.560071318635746, 5.962178321138402], [27.578191621438208, 5.962178321138402], [27.578191621438208, 5.9441500051384875], [27.54195101583328, 5.9441500051384875], [27.54195101583328, 5.890068499762194], [27.578191621438208, 5.890068499762194], [27.578191621438208, 5.872042472866882], [27.560071318635746, 5.872042472866882], [27.560071318635746, 5.854017013765743], [27.54195101583328, 5.854017013765743], [27.54195101583328, 5.799944025312293], [27.523830713030815, 5.799944025312293], [27.523830713030815, 5.781920819475325], [27.451349501820964, 5.781920819475325], [27.451349501820964, 5.76389817247882], [27.415108896216033, 5.76389817247882], [27.415108896216033, 5.745876082533553], [27.4332291990185, 5.745876082533553], [27.4332291990185, 5.727854547850807], [27.451349501820964, 5.727854547850807], [27.451349501820964, 5.7098335666423665], [27.469469804623426, 5.7098335666423665], [27.469469804623426, 5.691813137120513], [27.523830713030815, 5.691813137120513], [27.523830713030815, 5.67379325749803], [27.578191621438208, 5.67379325749803], [27.578191621438208, 5.6197369001620405], [27.54195101583328, 5.6197369001620405], [27.54195101583328, 5.601719202274747], [27.39698859341357, 5.601719202274747], [27.39698859341357, 5.583702045358143], [27.252026170993865, 5.583702045358143], [27.252026170993865, 5.56568542762796], [27.215785565388934, 5.56568542762796], [27.215785565388934, 5.6197369001620405], [27.197665262586472, 5.6197369001620405], [27.197665262586472, 5.655773925988191], [27.252026170993865, 5.655773925988191], [27.252026170993865, 5.67379325749803], [27.28826677659879, 5.67379325749803], [27.28826677659879, 5.691813137120513], [27.306387079401254, 5.691813137120513], [27.306387079401254, 5.7098335666423665], [27.32450738220372, 5.7098335666423665], [27.32450738220372, 5.727854547850807], [27.34262768500618, 5.727854547850807], [27.34262768500618, 5.745876082533553], [27.360747987808644, 5.745876082533553], [27.360747987808644, 5.76389817247882], [27.39698859341357, 5.76389817247882], [27.39698859341357, 5.799944025312293], [27.37886829061111, 5.799944025312293], [27.37886829061111, 5.817967791779444], [27.39698859341357, 5.817967791779444], [27.39698859341357, 5.854017013765743], [27.37886829061111, 5.854017013765743], [27.37886829061111, 5.872042472866882], [27.360747987808644, 5.872042472866882], [27.360747987808644, 5.890068499762194], [27.37886829061111, 5.890068499762194], [27.37886829061111, 5.908095096243951], [27.39698859341357, 5.908095096243951], [27.39698859341357, 5.926122264104947], [27.415108896216033, 5.926122264104947], [27.415108896216033, 5.9441500051384875], [27.4332291990185, 5.9441500051384875], [27.4332291990185, 5.962178321138402], [27.469469804623426, 5.962178321138402], [27.469469804623426, 5.980207213899033], [27.451349501820964, 5.980207213899033], [27.451349501820964, 6.016266736882443], [27.4332291990185, 6.016266736882443], [27.4332291990185, 6.070360391951696], [27.451349501820964, 6.070360391951696], [27.451349501820964, 6.196599568222144], [27.4332291990185, 6.196599568222144], [27.4332291990185, 6.214636122397419], [27.451349501820964, 6.214636122397419], [27.451349501820964, 6.23267327850984], [27.487590107425888, 6.23267327850984], [27.487590107425888, 6.250711038361766], [27.505710410228353, 6.250711038361766], [27.505710410228353, 6.268749403756095], [27.523830713030815, 6.268749403756095], [27.523830713030815, 6.286788376496282], [27.54195101583328, 6.286788376496282], [27.54195101583328, 6.304827958386333], [27.560071318635746, 6.304827958386333], [27.560071318635746, 6.322868151230804], [27.578191621438208, 6.322868151230804], [27.578191621438208, 6.358950377004004]]]}}, {"type": "Feature", "properties": {"uid": 3, "seed": "community proposal 3", "seed_kind": "optimized", "area_km2": 1104.0, "area_ha": 110400, "country": "SSD", "in_zones": "[]", "overlaps": "[]", "km_to_park": 51.1, "clusters": 31, "population_est": 895, "pop_per_km2": 0.811, "osm_places": 0, "new_since_2015": 3, "camps": 27, "built_km2": 0.08, "built_2000_km2": 0.03, "built_2015_km2": 0.04, "towns": "[]", "fire_det_2024_25": 9320, "fire_per_1000km2_yr": 4221, "fire_nov_feb_share": 0.67, "fronts": 1514, "fronts_per_1000km2": 1371.4, "fronts_transhumance_pct": 99, "fronts_long": 989, "fronts_long_per_1000km2": 895.83, "long_front_intensity": 297.65, "front_dirs": "{\"NW\": 229, \"SE\": 196, \"S\": 195}", "front_dirs_all": "{\"SE\": 196, \"SW\": 181, \"S\": 195, \"W\": 177, \"N\": 193, \"NW\": 229, \"E\": 194, \"NE\": 149}", "clearing_events": 57, "clearing_km2": 2.69, "clearing_since_2020_km2": 0.2, "clearing_encroach_slash": 1, "mine_reported": 0, "mine_candidates": 0, "mine_top05_cells": 7, "mine_watchlist": 0, "mining_measured": true, "geology": "[\"PLu Undifferentiated metamorphic rocks, migm 97%\"]", "geo_affinity_mean": 0.02, "cropland_2003_pct": 0.0, "cropland_2019_pct": 0.0, "boundary_legibility": 0.35, "built_growth_x": 2.7, "front_axis_coherence": 0.28, "front_axis": "SE\u2013NW", "rationale": "[\"community (settled / farmed / mining-exposed \\u2014 none of the above held)\", \"long fronts per 10 km width 297.65 >= 154.06: yes\", \"transhumance share % 99 >= 50: yes\", \"axis coherence (0.25 = random) 0.28 >= 0.4: no\", \"people/km2 0.811 <= 2: yes\", \"\\u2014 not a corridor; core?\", \"people/km2 0.811 <= 0.02: no\", \"cropland 2019 % 0 <= 0.05: yes\", \"clearing since 2020 km2/1000km2 0.181 <= 0.5: yes\", \"reported workings 0 <= 0: yes\", \"\\u2014 not core; wilderness?\", \"people/km2 0.811 <= 0.5: no\", \"cropland 2019 % 0 <= 0.5: yes\"]", "cls": "community", "boundary": "[\"K. Ngoko (1930s sheet) on the SE/SW (24 km)\", \"unnamed river (order 4) on the W/NW (20 km)\", \"R. Pongo (1930s sheet) on the NW (10 km)\", \"Gandu (1930s sheet) on the W (6 km)\", \"K. Nowondo (1930s sheet) on the E (6 km)\", \"K. Ahill (1930s sheet) on the N (4 km)\", \"10 km along a geological contact only (not visible on the ground \\u2014 needs beacons)\", \"landmarks on the unnamed stretches: Hill 0 (SE), village site (1930s village symbol) (SE), Mbora (1930s village) (SE), Abdullah K (1930s village) (SE), Maari (1930s village) (SE), Masri (1930s village) (SE), Angisa (1930s village) (SE), Kondongo (1930s village) (NE)\"]", "perimeter_km": 144, "unattributed_pct": 44, "support_mean": 0.86, "contested_units": 3, "area_ha_p10_p50_p90": "[107600, 110400, 122600]"}, "geometry": {"type": "Polygon", "coordinates": [[[27.37886829061111, 8.039740611097713], [27.451349501820964, 8.039740611097713], [27.451349501820964, 8.0216340608869], [27.505710410228353, 8.0216340608869], [27.505710410228353, 8.003528295846708], [27.54195101583328, 8.003528295846708], [27.54195101583328, 7.985423314111889], [27.578191621438208, 7.985423314111889], [27.578191621438208, 7.967319113817935], [27.614432227043135, 7.967319113817935], [27.614432227043135, 7.949215693101051], [27.6325525298456, 7.949215693101051], [27.6325525298456, 7.931113050098162], [27.668793135450525, 7.931113050098162], [27.668793135450525, 7.9130111829469305], [27.68691343825299, 7.9130111829469305], [27.68691343825299, 7.894910089785711], [27.705033741055455, 7.894910089785711], [27.705033741055455, 7.8768097687535885], [27.723154043857914, 7.8768097687535885], [27.723154043857914, 7.804416168722675], [27.74127434666038, 7.804416168722675], [27.74127434666038, 7.768223953150242], [27.759394649462845, 7.768223953150242], [27.759394649462845, 7.750128984975846], [27.777514952265307, 7.750128984975846], [27.777514952265307, 7.732034774068742], [27.79563525506777, 7.732034774068742], [27.79563525506777, 7.713941318574386], [27.777514952265307, 7.713941318574386], [27.777514952265307, 7.695848616638902], [27.79563525506777, 7.695848616638902], [27.79563525506777, 7.659665466032585], [27.777514952265307, 7.659665466032585], [27.777514952265307, 7.60539634550797], [27.723154043857914, 7.60539634550797], [27.723154043857914, 7.623485307432754], [27.705033741055455, 7.623485307432754], [27.705033741055455, 7.659665466032585], [27.68691343825299, 7.659665466032585], [27.68691343825299, 7.677756666409125], [27.668793135450525, 7.677756666409125], [27.668793135450525, 7.750128984975846], [27.6325525298456, 7.750128984975846], [27.6325525298456, 7.768223953150242], [27.578191621438208, 7.768223953150242], [27.578191621438208, 7.786319680447201], [27.505710410228353, 7.786319680447201], [27.505710410228353, 7.750128984975846], [27.487590107425888, 7.750128984975846], [27.487590107425888, 7.732034774068742], [27.451349501820964, 7.732034774068742], [27.451349501820964, 7.768223953150242], [27.4332291990185, 7.768223953150242], [27.4332291990185, 7.786319680447201], [27.415108896216033, 7.786319680447201], [27.415108896216033, 7.804416168722675], [27.39698859341357, 7.804416168722675], [27.39698859341357, 7.8225134198333315], [27.34262768500618, 7.8225134198333315], [27.34262768500618, 7.858710217990361], [27.360747987808644, 7.858710217990361], [27.360747987808644, 7.894910089785711], [27.37886829061111, 7.894910089785711], [27.37886829061111, 8.039740611097713]]]}}, {"type": "Feature", "properties": {"uid": 4, "seed": "community proposal 4", "seed_kind": "optimized", "area_km2": 908.0, "area_ha": 90800, "country": "SSD", "in_zones": "[]", "overlaps": "[]", "km_to_park": 32.8, "clusters": 17, "population_est": 614, "pop_per_km2": 0.676, "osm_places": 0, "new_since_2015": 1, "camps": 12, "built_km2": 0.17, "built_2000_km2": 0.06, "built_2015_km2": 0.07, "towns": "[]", "fire_det_2024_25": 6104, "fire_per_1000km2_yr": 3361, "fire_nov_feb_share": 0.86, "fronts": 1033, "fronts_per_1000km2": 1137.7, "fronts_transhumance_pct": 98, "fronts_long": 733, "fronts_long_per_1000km2": 807.27, "long_front_intensity": 243.25, "front_dirs": "{\"SE\": 191, \"NW\": 172, \"W\": 136}", "front_dirs_all": "{\"SE\": 191, \"W\": 136, \"E\": 115, \"NW\": 172, \"S\": 135, \"SW\": 112, \"N\": 110, \"NE\": 62}", "clearing_events": 63, "clearing_km2": 3.91, "clearing_since_2020_km2": 0.64, "clearing_encroach_slash": 0, "mine_reported": 0, "mine_candidates": 0, "mine_top05_cells": 0, "mine_watchlist": 1, "mining_measured": true, "geology": "[\"PLu Undifferentiated metamorphic rocks, migm 100%\"]", "geo_affinity_mean": 0.0, "cropland_2003_pct": 0.0, "cropland_2019_pct": 0.0, "boundary_legibility": 0.34, "built_growth_x": 2.8, "front_axis_coherence": 0.35, "front_axis": "SE\u2013NW", "rationale": "[\"community (settled / farmed / mining-exposed \\u2014 none of the above held)\", \"long fronts per 10 km width 243.25 >= 154.06: yes\", \"transhumance share % 98 >= 50: yes\", \"axis coherence (0.25 = random) 0.35 >= 0.4: no\", \"people/km2 0.676 <= 2: yes\", \"\\u2014 not a corridor; core?\", \"people/km2 0.676 <= 0.02: no\", \"cropland 2019 % 0 <= 0.05: yes\", \"clearing since 2020 km2/1000km2 0.705 <= 0.5: no\", \"reported workings 0 <= 0: yes\", \"\\u2014 not core; wilderness?\", \"people/km2 0.676 <= 0.5: no\", \"cropland 2019 % 0 <= 0.5: yes\"]", "cls": "community", "boundary": "[\"R. Busseri (1930s sheet) on the S/SE (20 km)\", \"K. Getti (1930s sheet) on the N/NW (16 km)\", \"Busseri River on the E/SE (12 km)\", \"K. Megwalima (1930s sheet) on the E (10 km)\", \"K. Ngor (1930s sheet) on the NE (4 km)\", \"K. Uimbadi (1930s sheet) on the SE (2 km)\", \"2 km along a geological contact only (not visible on the ground \\u2014 needs beacons)\", \"landmarks on the unnamed stretches: Mbora (1930s village) (N), Angisa (1930s village) (N), Witia (1930s village) (NE), Rabeh (1930s village) (SW), Sirur (1930s village) (SW), village site (1930s village symbol) (NE), Duniaka (1930s village) (E), Duniaka (1930s village) (E)\"]", "perimeter_km": 116, "unattributed_pct": 43, "support_mean": 0.65, "contested_units": 2, "area_ha_p10_p50_p90": "[41400, 90800, 94800]"}, "geometry": {"type": "Polygon", "coordinates": [[[27.65067283264806, 7.750128984975846], [27.668793135450525, 7.750128984975846], [27.668793135450525, 7.677756666409125], [27.68691343825299, 7.677756666409125], [27.68691343825299, 7.659665466032585], [27.705033741055455, 7.659665466032585], [27.705033741055455, 7.623485307432754], [27.723154043857914, 7.623485307432754], [27.723154043857914, 7.60539634550797], [27.8318758606727, 7.60539634550797], [27.8318758606727, 7.5873081260334105], [27.84999616347516, 7.5873081260334105], [27.84999616347516, 7.569220647160049], [27.8318758606727, 7.569220647160049], [27.8318758606727, 7.514962635666978], [27.84999616347516, 7.514962635666978], [27.84999616347516, 7.496878100721639], [27.90435707188255, 7.496878100721639], [27.90435707188255, 7.478794297142507], [27.868116466277627, 7.478794297142507], [27.868116466277627, 7.460711223084615], [27.84999616347516, 7.460711223084615], [27.84999616347516, 7.442628876703652], [27.813755557870234, 7.442628876703652], [27.813755557870234, 7.4245472561559955], [27.79563525506777, 7.4245472561559955], [27.79563525506777, 7.3883861851894075], [27.705033741055455, 7.3883861851894075], [27.705033741055455, 7.352227995449113], [27.68691343825299, 7.352227995449113], [27.68691343825299, 7.370306731086544], [27.6325525298456, 7.370306731086544], [27.6325525298456, 7.4064663595986815], [27.59631192424067, 7.4064663595986815], [27.59631192424067, 7.4245472561559955], [27.578191621438208, 7.4245472561559955], [27.578191621438208, 7.460711223084615], [27.54195101583328, 7.460711223084615], [27.54195101583328, 7.5511339070395245], [27.560071318635746, 7.5511339070395245], [27.560071318635746, 7.659665466032585], [27.578191621438208, 7.659665466032585], [27.578191621438208, 7.677756666409125], [27.59631192424067, 7.677756666409125], [27.59631192424067, 7.695848616638902], [27.614432227043135, 7.695848616638902], [27.614432227043135, 7.713941318574386], [27.6325525298456, 7.713941318574386], [27.6325525298456, 7.732034774068742], [27.65067283264806, 7.732034774068742], [27.65067283264806, 7.750128984975846]]]}}, {"type": "Feature", "properties": {"uid": 5, "seed": "community proposal 5", "seed_kind": "optimized", "area_km2": 624.0, "area_ha": 62400, "country": "SSD", "in_zones": "[]", "overlaps": "[]", "km_to_park": 55.8, "clusters": 4, "population_est": 477, "pop_per_km2": 0.764, "osm_places": 0, "new_since_2015": 0, "camps": 3, "built_km2": 0.04, "built_2000_km2": 0.02, "built_2015_km2": 0.02, "towns": "[]", "fire_det_2024_25": 6856, "fire_per_1000km2_yr": 5494, "fire_nov_feb_share": 0.94, "fronts": 571, "fronts_per_1000km2": 915.1, "fronts_transhumance_pct": 98, "fronts_long": 425, "fronts_long_per_1000km2": 681.09, "long_front_intensity": 170.14, "front_dirs": "{\"NW\": 115, \"W\": 83, \"E\": 74}", "front_dirs_all": "{\"NE\": 57, \"SW\": 57, \"W\": 83, \"E\": 74, \"NW\": 115, \"SE\": 72, \"S\": 65, \"N\": 48}", "clearing_events": 14, "clearing_km2": 2.81, "clearing_since_2020_km2": 2.07, "clearing_encroach_slash": 1, "mine_reported": 1, "mine_candidates": 0, "mine_top05_cells": 0, "mine_watchlist": 0, "mining_measured": true, "geology": "[\"PLu Undifferentiated metamorphic rocks, migm 86%\", \"IU Undifferentiated syn- to late-orogenic i 10% [gold,lithium]\"]", "geo_affinity_mean": 0.29, "cropland_2003_pct": 0.0, "cropland_2019_pct": 0.0, "boundary_legibility": 0.39, "built_growth_x": 2.0, "front_axis_coherence": 0.33, "front_axis": "SE\u2013NW", "rationale": "[\"community (settled / farmed / mining-exposed \\u2014 none of the above held)\", \"long fronts per 10 km width 170.14 >= 154.06: yes\", \"transhumance share % 98 >= 50: yes\", \"axis coherence (0.25 = random) 0.33 >= 0.4: no\", \"people/km2 0.764 <= 2: yes\", \"\\u2014 not a corridor; core?\", \"people/km2 0.764 <= 0.02: no\", \"cropland 2019 % 0 <= 0.05: yes\", \"clearing since 2020 km2/1000km2 3.317 <= 0.5: no\", \"reported workings 1 <= 0: no\", \"\\u2014 not core; wilderness?\", \"people/km2 0.764 <= 0.5: no\", \"cropland 2019 % 0 <= 0.5: yes\"]", "cls": "community", "boundary": "[\"R. Nangundi (1930s sheet) on the NE/N (26 km)\", \"J. DOMBILI \\u2013 J. BALI \\u2013 AKOBO HILLS ridge on the S/SE (16 km)\", \"K.Gairi (1930s sheet) on the E/SE (10 km)\", \"K. Wem (1930s sheet) on the NW (4 km)\", \"K.Adonb (1930s sheet) on the SE (2 km)\", \"34 km along a geological contact only (not visible on the ground \\u2014 needs beacons)\", \"landmarks on the unnamed stretches: J. KA LTA (W), small oval lake (1930s water symbol) (SE), Jorro (1930s village) (SE), Kukwagi (1930s village) (SE)\"]", "perimeter_km": 102, "unattributed_pct": 43, "support_mean": 0.75, "contested_units": 3, "area_ha_p10_p50_p90": "[24400, 64000, 110200]"}, "geometry": {"type": "Polygon", "coordinates": [[[26.853379509339664, 8.130285205045478], [26.88962011494459, 8.130285205045478], [26.88962011494459, 8.094064991417186], [26.962101326154443, 8.094064991417186], [26.962101326154443, 8.112174700977448], [26.998341931759374, 8.112174700977448], [26.998341931759374, 8.094064991417186], [27.052702840166763, 8.094064991417186], [27.052702840166763, 8.112174700977448], [27.08894344577169, 8.112174700977448], [27.08894344577169, 8.094064991417186], [27.143304354179083, 8.094064991417186], [27.143304354179083, 8.075956074495794], [27.17954495978401, 8.075956074495794], [27.17954495978401, 8.0216340608869], [27.161424656981545, 8.0216340608869], [27.161424656981545, 7.967319113817935], [27.17954495978401, 7.967319113817935], [27.17954495978401, 7.949215693101051], [27.161424656981545, 7.949215693101051], [27.161424656981545, 7.931113050098162], [27.143304354179083, 7.931113050098162], [27.143304354179083, 7.894910089785711], [27.125184051376618, 7.894910089785711], [27.125184051376618, 7.931113050098162], [27.107063748574152, 7.931113050098162], [27.107063748574152, 7.949215693101051], [27.07082314296923, 7.949215693101051], [27.07082314296923, 7.931113050098162], [27.01646223456184, 7.931113050098162], [27.01646223456184, 7.9130111829469305], [26.943981023351984, 7.9130111829469305], [26.943981023351984, 7.967319113817935], [26.907740417747053, 7.967319113817935], [26.907740417747053, 7.985423314111889], [26.88962011494459, 7.985423314111889], [26.88962011494459, 8.0216340608869], [26.8352592065372, 8.0216340608869], [26.8352592065372, 8.112174700977448], [26.853379509339664, 8.112174700977448], [26.853379509339664, 8.130285205045478]]]}}, {"type": "Feature", "properties": {"uid": 6, "seed": "community proposal 6", "seed_kind": "optimized", "area_km2": 228.0, "area_ha": 22800, "country": "SSD", "in_zones": "[]", "overlaps": "[]", "km_to_park": 41.2, "clusters": 1, "population_est": 156, "pop_per_km2": 0.684, "osm_places": 0, "new_since_2015": 0, "camps": 0, "built_km2": 0.01, "built_2000_km2": 0.01, "built_2015_km2": 0.01, "towns": "[]", "fire_det_2024_25": 2070, "fire_per_1000km2_yr": 4539, "fire_nov_feb_share": 0.92, "fronts": 385, "fronts_per_1000km2": 1688.6, "fronts_transhumance_pct": 100, "fronts_long": 299, "fronts_long_per_1000km2": 1311.4, "long_front_intensity": 198.02, "front_dirs": "{\"SE\": 82, \"W\": 74, \"NW\": 55}", "front_dirs_all": "{\"N\": 35, \"SE\": 82, \"SW\": 36, \"S\": 43, \"NE\": 15, \"W\": 74, \"E\": 45, \"NW\": 55}", "clearing_events": 9, "clearing_km2": 1.61, "clearing_since_2020_km2": 0.97, "clearing_encroach_slash": 0, "mine_reported": 0, "mine_candidates": 0, "mine_top05_cells": 0, "mine_watchlist": 0, "mining_measured": true, "geology": "[\"PLu Undifferentiated metamorphic rocks, migm 100%\"]", "geo_affinity_mean": 0.0, "cropland_2003_pct": 0.0, "cropland_2019_pct": 0.0, "boundary_legibility": 0.57, "built_growth_x": null, "front_axis_coherence": 0.36, "front_axis": "SE\u2013NW", "rationale": "[\"community (settled / farmed / mining-exposed \\u2014 none of the above held)\", \"long fronts per 10 km width 198.02 >= 154.06: yes\", \"transhumance share % 100 >= 50: yes\", \"axis coherence (0.25 = random) 0.36 >= 0.4: no\", \"people/km2 0.684 <= 2: yes\", \"\\u2014 not a corridor; core?\", \"people/km2 0.684 <= 0.02: no\", \"cropland 2019 % 0 <= 0.05: yes\", \"clearing since 2020 km2/1000km2 4.254 <= 0.5: no\", \"reported workings 0 <= 0: yes\", \"\\u2014 not core; wilderness?\", \"people/km2 0.684 <= 0.5: no\", \"cropland 2019 % 0 <= 0.5: yes\"]", "cls": "community", "boundary": "[\"Biri on the W/NE (18 km)\", \"Ghanam/ Kujana on the S/E (8 km)\", \"J. KREDI \\u2013 J. MUTKUBI \\u2013 J. TABARI ridge on the N/NE (6 km)\", \"R. Biri (1930s sheet) on the NE/E (6 km)\", \"Ghanam / Kujana on the NE (4 km)\", \"Mborombo on the S (2 km)\", \"landmarks on the unnamed stretches: Deim Zubeir (1930s village) (SW), Mufed La (1930s village) (SW), Mutad (1930s village) (SW), Adam Yanga (1930s village) (SW), unnamed hills (SW), Umm'a Saidai (1930s village) (SW), Adam Yanga (1930s village) (SW), Deim Zubeir (1930s village) (SW)\"]", "perimeter_km": 54, "unattributed_pct": 19, "support_mean": 0.56, "contested_units": 0, "area_ha_p10_p50_p90": "[22800, 22800, 27280]"}, "geometry": {"type": "Polygon", "coordinates": [[[26.29165012246329, 7.9130111829469305], [26.327890728068223, 7.9130111829469305], [26.327890728068223, 7.840611435636537], [26.309770425265757, 7.840611435636537], [26.309770425265757, 7.8225134198333315], [26.29165012246329, 7.8225134198333315], [26.29165012246329, 7.786319680447201], [26.273529819660826, 7.786319680447201], [26.273529819660826, 7.713941318574386], [26.164808002846048, 7.713941318574386], [26.164808002846048, 7.786319680447201], [26.182928305648513, 7.786319680447201], [26.182928305648513, 7.804416168722675], [26.201048608450975, 7.804416168722675], [26.201048608450975, 7.840611435636537], [26.219168911253437, 7.840611435636537], [26.219168911253437, 7.858710217990361], [26.237289214055902, 7.858710217990361], [26.237289214055902, 7.8768097687535885], [26.273529819660826, 7.8768097687535885], [26.273529819660826, 7.894910089785711], [26.29165012246329, 7.894910089785711], [26.29165012246329, 7.9130111829469305]]]}}]}