{"type": "FeatureCollection", "features": [{"type": "Feature", "properties": {"support": 0.25, "want": "community"}, "geometry": {"type": "MultiPolygon", "coordinates": [[[[29.680146746523985, 5.259483695113163], [29.680146746523985, 5.241476478175207], [29.69826704932645, 5.241476478175207], [29.69826704932645, 5.223469766613077], [29.752627957733836, 5.223469766613077], [29.752627957733836, 5.205463558651921], [29.734507654931377, 5.205463558651921], [29.734507654931377, 5.187457852517324], [29.716387352128912, 5.187457852517324], [29.716387352128912, 5.169452646435331], [29.69826704932645, 5.169452646435331], [29.69826704932645, 5.151447938632432], [29.680146746523985, 5.151447938632432], [29.680146746523985, 5.133443727335569], [29.66202644372152, 5.133443727335569], [29.66202644372152, 5.06143181176285], [29.643906140919057, 5.06143181176285], [29.643906140919057, 5.025428786945768], [29.66202644372152, 5.025428786945768], [29.66202644372152, 4.989427698557163], [29.680146746523985, 4.989427698557163], [29.680146746523985, 4.935429665816406], [29.69826704932645, 4.935429665816406], [29.69826704932645, 4.917431274453984], [29.607665535314126, 4.917431274453984], [29.607665535314126, 4.899433356587801], [29.589545232511664, 4.899433356587801], [29.589545232511664, 4.881435910450896], [29.571424929709206, 4.881435910450896], [29.571424929709206, 4.863438934276721], [29.55330462690674, 4.863438934276721], [29.55330462690674, 4.84544242629916], [29.517064021301813, 4.84544242629916], [29.517064021301813, 4.827446384752506], [29.498943718499348, 4.827446384752506], [29.498943718499348, 4.809450807871477], [29.480823415696882, 4.809450807871477], [29.480823415696882, 4.84544242629916], [29.46270311289442, 4.84544242629916], [29.46270311289442, 4.881435910450896], [29.426462507289497, 4.881435910450896], [29.426462507289497, 4.84544242629916], [29.39022190168457, 4.84544242629916], [29.39022190168457, 4.881435910450896], [29.372101598882104, 4.881435910450896], [29.372101598882104, 4.899433356587801], [29.40834220448703, 4.899433356587801], [29.40834220448703, 4.935429665816406], [29.444582810091955, 4.935429665816406], [29.444582810091955, 5.0074280015827295], [29.46270311289442, 5.0074280015827295], [29.46270311289442, 5.043430056415817], [29.426462507289497, 5.043430056415817], [29.426462507289497, 5.06143181176285], [29.40834220448703, 5.06143181176285], [29.40834220448703, 5.097436787169941], [29.39022190168457, 5.097436787169941], [29.39022190168457, 5.133443727335569], [29.372101598882104, 5.133443727335569], [29.372101598882104, 5.169452646435331], [29.39022190168457, 5.169452646435331], [29.39022190168457, 5.223469766613077], [29.498943718499348, 5.223469766613077], [29.498943718499348, 5.205463558651921], [29.517064021301813, 5.205463558651921], [29.517064021301813, 5.187457852517324], [29.535184324104275, 5.187457852517324], [29.535184324104275, 5.097436787169941], [29.55330462690674, 5.097436787169941], [29.55330462690674, 5.115440010772129], [29.571424929709206, 5.115440010772129], [29.571424929709206, 5.133443727335569], [29.55330462690674, 5.133443727335569], [29.55330462690674, 5.241476478175207], [29.571424929709206, 5.241476478175207], [29.571424929709206, 5.259483695113163], [29.680146746523985, 5.259483695113163]]], [[[25.51247710195736, 8.601443323263892], [25.548717707562286, 8.601443323263892], [25.548717707562286, 8.583311503559282], [25.56683801036475, 8.583311503559282], [25.56683801036475, 8.565180527217883], [25.58495831316721, 8.565180527217883], [25.58495831316721, 8.547050392351023], [25.603078615969675, 8.547050392351023], [25.603078615969675, 8.528921097070821], [25.62119891877214, 8.528921097070821], [25.62119891877214, 8.510792639490163], [25.639319221574606, 8.510792639490163], [25.639319221574606, 8.492665017722729], [25.693680129981995, 8.492665017722729], [25.693680129981995, 8.510792639490163], [25.729920735586923, 8.510792639490163], [25.729920735586923, 8.528921097070821], [25.748041038389385, 8.528921097070821], [25.748041038389385, 8.420162851085982], [25.67555982717953, 8.420162851085982], [25.67555982717953, 8.36579490983287], [25.657439524377065, 8.36579490983287], [25.657439524377065, 8.347673906756647], [25.639319221574606, 8.347673906756647], [25.639319221574606, 8.438287148448207], [25.62119891877214, 8.438287148448207], [25.62119891877214, 8.420162851085982], [25.58495831316721, 8.420162851085982], [25.58495831316721, 8.402039380117008], [25.548717707562286, 8.402039380117008], [25.548717707562286, 8.38391673365961], [25.47623649635243, 8.38391673365961], [25.47623649635243, 8.36579490983287], [25.439995890747504, 8.36579490983287], [25.439995890747504, 8.347673906756647], [25.421875587945042, 8.347673906756647], [25.421875587945042, 8.402039380117008], [25.385634982340115, 8.402039380117008], [25.385634982340115, 8.474538229882974], [25.331274073932722, 8.474538229882974], [25.331274073932722, 8.510792639490163], [25.31315377113026, 8.510792639490163], [25.31315377113026, 8.528921097070821], [25.331274073932722, 8.528921097070821], [25.331274073932722, 8.547050392351023], [25.385634982340115, 8.547050392351023], [25.385634982340115, 8.583311503559282], [25.403755285142577, 8.583311503559282], [25.403755285142577, 8.601443323263892], [25.421875587945042, 8.601443323263892], [25.421875587945042, 8.619575988221177], [25.51247710195736, 8.619575988221177], [25.51247710195736, 8.601443323263892]]], [[[27.4332291990185, 9.21844053228531], [27.451349501820964, 9.21844053228531], [27.451349501820964, 9.363766441075246], [27.487590107425888, 9.363766441075246], [27.487590107425888, 9.345597483954279], [27.523830713030815, 9.345597483954279], [27.523830713030815, 9.21844053228531], [27.54195101583328, 9.21844053228531], [27.54195101583328, 9.309262338056346], [27.560071318635746, 9.309262338056346], [27.560071318635746, 9.327429450255787], [27.668793135450525, 9.327429450255787], [27.668793135450525, 9.345597483954279], [27.68691343825299, 9.345597483954279], [27.68691343825299, 9.327429450255787], [27.705033741055455, 9.327429450255787], [27.705033741055455, 9.309262338056346], [27.723154043857914, 9.309262338056346], [27.723154043857914, 9.291096145433379], [27.74127434666038, 9.291096145433379], [27.74127434666038, 9.272930870465194], [27.759394649462845, 9.272930870465194], [27.759394649462845, 9.25476651123096], [27.777514952265307, 9.25476651123096], [27.777514952265307, 9.2366030658107], [27.723154043857914, 9.2366030658107], [27.723154043857914, 9.21844053228531], [27.705033741055455, 9.21844053228531], [27.705033741055455, 9.200278908736538], [27.723154043857914, 9.200278908736538], [27.723154043857914, 9.182118193246987], [27.74127434666038, 9.182118193246987], [27.74127434666038, 9.163958383900123], [27.79563525506777, 9.163958383900123], [27.79563525506777, 9.145799478780253], [27.813755557870234, 9.145799478780253], [27.813755557870234, 9.163958383900123], [27.868116466277627, 9.163958383900123], [27.868116466277627, 9.145799478780253], [27.88623676908009, 9.145799478780253], [27.88623676908009, 9.127641475972545], [27.90435707188255, 9.127641475972545], [27.90435707188255, 9.109484373563015], [27.922477374685016, 9.109484373563015], [27.922477374685016, 9.091328169638519], [27.88623676908009, 9.091328169638519], [27.88623676908009, 9.07317286228676], [27.868116466277627, 9.07317286228676], [27.868116466277627, 9.055018449596284], [27.84999616347516, 9.055018449596284], [27.84999616347516, 9.036864929656481], [27.8318758606727, 9.036864929656481], [27.8318758606727, 9.018712300557576], [27.79563525506777, 9.018712300557576], [27.79563525506777, 8.982409707247543], [27.813755557870234, 8.982409707247543], [27.813755557870234, 8.946110654404684], [27.777514952265307, 8.946110654404684], [27.777514952265307, 9.00056056039063], [27.759394649462845, 9.00056056039063], [27.759394649462845, 9.036864929656481], [27.705033741055455, 9.036864929656481], [27.705033741055455, 8.909815126780787], [27.6325525298456, 8.909815126780787], [27.6325525298456, 8.8916686801645], [27.614432227043135, 8.8916686801645], [27.614432227043135, 8.873523109140864], [27.6325525298456, 8.873523109140864], [27.6325525298456, 8.819091630606765], [27.614432227043135, 8.819091630606765], [27.614432227043135, 8.837234586263085], [27.59631192424067, 8.837234586263085], [27.59631192424067, 8.873523109140864], [27.578191621438208, 8.873523109140864], [27.578191621438208, 8.837234586263085], [27.560071318635746, 8.837234586263085], [27.560071318635746, 8.782808321359909], [27.578191621438208, 8.782808321359909], [27.578191621438208, 8.764667963972073], [27.523830713030815, 8.764667963972073], [27.523830713030815, 8.728389834180403], [27.505710410228353, 8.728389834180403], [27.505710410228353, 8.710252057984116], [27.487590107425888, 8.710252057984116], [27.487590107425888, 8.728389834180403], [27.451349501820964, 8.728389834180403], [27.451349501820964, 8.710252057984116], [27.415108896216033, 8.710252057984116], [27.415108896216033, 8.692115138393888], [27.39698859341357, 8.692115138393888], [27.39698859341357, 8.710252057984116], [27.37886829061111, 8.710252057984116], [27.37886829061111, 8.728389834180403], [27.360747987808644, 8.728389834180403], [27.360747987808644, 8.74652846887778], [27.34262768500618, 8.74652846887778], [27.34262768500618, 8.764667963972073], [27.32450738220372, 8.764667963972073], [27.32450738220372, 8.819091630606765], [27.28826677659879, 8.819091630606765], [27.28826677659879, 8.837234586263085], [27.270146473796327, 8.837234586263085], [27.270146473796327, 8.855378411807559], [27.252026170993865, 8.855378411807559], [27.252026170993865, 8.873523109140864], [27.215785565388934, 8.873523109140864], [27.215785565388934, 8.8916686801645], [27.2339058681914, 8.8916686801645], [27.2339058681914, 8.964259739221042], [27.270146473796327, 8.964259739221042], [27.270146473796327, 8.946110654404684], [27.34262768500618, 8.946110654404684], [27.34262768500618, 9.055018449596284], [27.2339058681914, 9.055018449596284], [27.2339058681914, 9.036864929656481], [27.197665262586472, 9.036864929656481], [27.197665262586472, 9.055018449596284], [27.17954495978401, 9.055018449596284], [27.17954495978401, 9.07317286228676], [27.125184051376618, 9.07317286228676], [27.125184051376618, 9.055018449596284], [27.107063748574152, 9.055018449596284], [27.107063748574152, 9.018712300557576], [27.08894344577169, 9.018712300557576], [27.08894344577169, 8.964259739221042], [27.07082314296923, 8.964259739221042], [27.07082314296923, 8.909815126780787], [27.08894344577169, 8.909815126780787], [27.08894344577169, 8.873523109140864], [27.07082314296923, 8.873523109140864], [27.07082314296923, 8.855378411807559], [27.052702840166763, 8.855378411807559], [27.052702840166763, 8.873523109140864], [26.998341931759374, 8.873523109140864], [26.998341931759374, 8.855378411807559], [26.92586072054952, 8.855378411807559], [26.92586072054952, 8.873523109140864], [26.907740417747053, 8.873523109140864], [26.907740417747053, 8.927962450892863], [26.88962011494459, 8.927962450892863], [26.88962011494459, 8.964259739221042], [26.87149981214213, 8.964259739221042], [26.87149981214213, 8.982409707247543], [26.78089829812981, 8.982409707247543], [26.78089829812981, 9.00056056039063], [26.762777995327347, 9.00056056039063], [26.762777995327347, 9.055018449596284], [26.744657692524882, 9.055018449596284], [26.744657692524882, 9.127641475972545], [26.8352592065372, 9.127641475972545], [26.8352592065372, 9.200278908736538], [26.853379509339664, 9.200278908736538], [26.853379509339664, 9.21844053228531], [26.8352592065372, 9.21844053228531], [26.8352592065372, 9.2366030658107], [26.88962011494459, 9.2366030658107], [26.88962011494459, 9.200278908736538], [26.87149981214213, 9.200278908736538], [26.87149981214213, 9.145799478780253], [26.907740417747053, 9.145799478780253], [26.907740417747053, 9.127641475972545], [26.92586072054952, 9.127641475972545], [26.92586072054952, 9.109484373563015], [26.943981023351984, 9.109484373563015], [26.943981023351984, 9.127641475972545], [26.980221628956908, 9.127641475972545], [26.980221628956908, 9.145799478780253], [26.998341931759374, 9.145799478780253], [26.998341931759374, 9.2366030658107], [27.01646223456184, 9.2366030658107], [27.01646223456184, 9.25476651123096], [27.034582537364297, 9.25476651123096], [27.034582537364297, 9.272930870465194], [27.052702840166763, 9.272930870465194], [27.052702840166763, 9.291096145433379], [27.07082314296923, 9.291096145433379], [27.07082314296923, 9.309262338056346], [27.125184051376618, 9.309262338056346], [27.125184051376618, 9.291096145433379], [27.197665262586472, 9.291096145433379], [27.197665262586472, 9.309262338056346], [27.2339058681914, 9.309262338056346], [27.2339058681914, 9.327429450255787], [27.28826677659879, 9.327429450255787], [27.28826677659879, 9.21844053228531], [27.360747987808644, 9.21844053228531], [27.360747987808644, 9.363766441075246], [27.4332291990185, 9.363766441075246], [27.4332291990185, 9.21844053228531]], [[27.270146473796327, 9.21844053228531], [27.270146473796327, 9.309262338056346], [27.252026170993865, 9.309262338056346], [27.252026170993865, 9.21844053228531], [27.270146473796327, 9.21844053228531]], [[27.4332291990185, 9.109484373563015], [27.4332291990185, 9.127641475972545], [27.306387079401254, 9.127641475972545], [27.306387079401254, 9.109484373563015], [27.4332291990185, 9.109484373563015]]]]}}, {"type": "Feature", "properties": {"support": 0.5, "want": "community"}, "geometry": {"type": "MultiPolygon", "coordinates": [[[[29.680146746523985, 5.259483695113163], [29.680146746523985, 5.241476478175207], [29.69826704932645, 5.241476478175207], [29.69826704932645, 5.223469766613077], [29.752627957733836, 5.223469766613077], [29.752627957733836, 5.205463558651921], [29.734507654931377, 5.205463558651921], [29.734507654931377, 5.187457852517324], [29.716387352128912, 5.187457852517324], [29.716387352128912, 5.169452646435331], [29.69826704932645, 5.169452646435331], [29.69826704932645, 5.151447938632432], [29.680146746523985, 5.151447938632432], [29.680146746523985, 5.133443727335569], [29.66202644372152, 5.133443727335569], [29.66202644372152, 5.06143181176285], [29.643906140919057, 5.06143181176285], [29.643906140919057, 5.025428786945768], [29.66202644372152, 5.025428786945768], [29.66202644372152, 4.989427698557163], [29.680146746523985, 4.989427698557163], [29.680146746523985, 4.935429665816406], [29.69826704932645, 4.935429665816406], [29.69826704932645, 4.917431274453984], [29.607665535314126, 4.917431274453984], [29.607665535314126, 4.899433356587801], [29.589545232511664, 4.899433356587801], [29.589545232511664, 4.881435910450896], [29.571424929709206, 4.881435910450896], [29.571424929709206, 4.863438934276721], [29.55330462690674, 4.863438934276721], [29.55330462690674, 4.84544242629916], [29.517064021301813, 4.84544242629916], [29.517064021301813, 4.827446384752506], [29.498943718499348, 4.827446384752506], [29.498943718499348, 4.809450807871477], [29.480823415696882, 4.809450807871477], [29.480823415696882, 4.84544242629916], [29.46270311289442, 4.84544242629916], [29.46270311289442, 4.881435910450896], [29.426462507289497, 4.881435910450896], [29.426462507289497, 4.84544242629916], [29.39022190168457, 4.84544242629916], [29.39022190168457, 4.881435910450896], [29.372101598882104, 4.881435910450896], [29.372101598882104, 4.899433356587801], [29.40834220448703, 4.899433356587801], [29.40834220448703, 4.935429665816406], [29.444582810091955, 4.935429665816406], [29.444582810091955, 5.0074280015827295], [29.46270311289442, 5.0074280015827295], [29.46270311289442, 5.043430056415817], [29.426462507289497, 5.043430056415817], [29.426462507289497, 5.06143181176285], [29.40834220448703, 5.06143181176285], [29.40834220448703, 5.097436787169941], [29.39022190168457, 5.097436787169941], [29.39022190168457, 5.133443727335569], [29.372101598882104, 5.133443727335569], [29.372101598882104, 5.169452646435331], [29.39022190168457, 5.169452646435331], [29.39022190168457, 5.223469766613077], [29.498943718499348, 5.223469766613077], [29.498943718499348, 5.205463558651921], [29.517064021301813, 5.205463558651921], [29.517064021301813, 5.187457852517324], [29.535184324104275, 5.187457852517324], [29.535184324104275, 5.097436787169941], [29.55330462690674, 5.097436787169941], [29.55330462690674, 5.115440010772129], [29.571424929709206, 5.115440010772129], [29.571424929709206, 5.133443727335569], [29.55330462690674, 5.133443727335569], [29.55330462690674, 5.241476478175207], [29.571424929709206, 5.241476478175207], [29.571424929709206, 5.259483695113163], [29.680146746523985, 5.259483695113163]]], [[[25.51247710195736, 8.601443323263892], [25.548717707562286, 8.601443323263892], [25.548717707562286, 8.583311503559282], [25.56683801036475, 8.583311503559282], [25.56683801036475, 8.565180527217883], [25.58495831316721, 8.565180527217883], [25.58495831316721, 8.547050392351023], [25.603078615969675, 8.547050392351023], [25.603078615969675, 8.528921097070821], [25.62119891877214, 8.528921097070821], [25.62119891877214, 8.510792639490163], [25.639319221574606, 8.510792639490163], [25.639319221574606, 8.492665017722729], [25.693680129981995, 8.492665017722729], [25.693680129981995, 8.510792639490163], [25.729920735586923, 8.510792639490163], [25.729920735586923, 8.528921097070821], [25.748041038389385, 8.528921097070821], [25.748041038389385, 8.420162851085982], [25.67555982717953, 8.420162851085982], [25.67555982717953, 8.438287148448207], [25.657439524377065, 8.438287148448207], [25.657439524377065, 8.456412274086132], [25.639319221574606, 8.456412274086132], [25.639319221574606, 8.438287148448207], [25.62119891877214, 8.438287148448207], [25.62119891877214, 8.420162851085982], [25.58495831316721, 8.420162851085982], [25.58495831316721, 8.402039380117008], [25.548717707562286, 8.402039380117008], [25.548717707562286, 8.38391673365961], [25.47623649635243, 8.38391673365961], [25.47623649635243, 8.474538229882974], [25.458116193549966, 8.474538229882974], [25.458116193549966, 8.36579490983287], [25.439995890747504, 8.36579490983287], [25.439995890747504, 8.347673906756647], [25.421875587945042, 8.347673906756647], [25.421875587945042, 8.402039380117008], [25.385634982340115, 8.402039380117008], [25.385634982340115, 8.474538229882974], [25.331274073932722, 8.474538229882974], [25.331274073932722, 8.510792639490163], [25.31315377113026, 8.510792639490163], [25.31315377113026, 8.528921097070821], [25.331274073932722, 8.528921097070821], [25.331274073932722, 8.547050392351023], [25.385634982340115, 8.547050392351023], [25.385634982340115, 8.583311503559282], [25.403755285142577, 8.583311503559282], [25.403755285142577, 8.601443323263892], [25.421875587945042, 8.601443323263892], [25.421875587945042, 8.619575988221177], [25.51247710195736, 8.619575988221177], [25.51247710195736, 8.601443323263892]]], [[[27.4332291990185, 9.21844053228531], [27.451349501820964, 9.21844053228531], [27.451349501820964, 9.363766441075246], [27.487590107425888, 9.363766441075246], [27.487590107425888, 9.345597483954279], [27.523830713030815, 9.345597483954279], [27.523830713030815, 9.21844053228531], [27.54195101583328, 9.21844053228531], [27.54195101583328, 9.309262338056346], [27.560071318635746, 9.309262338056346], [27.560071318635746, 9.327429450255787], [27.668793135450525, 9.327429450255787], [27.668793135450525, 9.345597483954279], [27.68691343825299, 9.345597483954279], [27.68691343825299, 9.327429450255787], [27.705033741055455, 9.327429450255787], [27.705033741055455, 9.309262338056346], [27.723154043857914, 9.309262338056346], [27.723154043857914, 9.291096145433379], [27.74127434666038, 9.291096145433379], [27.74127434666038, 9.272930870465194], [27.759394649462845, 9.272930870465194], [27.759394649462845, 9.25476651123096], [27.777514952265307, 9.25476651123096], [27.777514952265307, 9.2366030658107], [27.723154043857914, 9.2366030658107], [27.723154043857914, 9.21844053228531], [27.705033741055455, 9.21844053228531], [27.705033741055455, 9.200278908736538], [27.723154043857914, 9.200278908736538], [27.723154043857914, 9.182118193246987], [27.74127434666038, 9.182118193246987], [27.74127434666038, 9.163958383900123], [27.79563525506777, 9.163958383900123], [27.79563525506777, 9.145799478780253], [27.813755557870234, 9.145799478780253], [27.813755557870234, 9.163958383900123], [27.868116466277627, 9.163958383900123], [27.868116466277627, 9.145799478780253], [27.88623676908009, 9.145799478780253], [27.88623676908009, 9.127641475972545], [27.90435707188255, 9.127641475972545], [27.90435707188255, 9.109484373563015], [27.922477374685016, 9.109484373563015], [27.922477374685016, 9.091328169638519], [27.88623676908009, 9.091328169638519], [27.88623676908009, 9.07317286228676], [27.868116466277627, 9.07317286228676], [27.868116466277627, 9.055018449596284], [27.84999616347516, 9.055018449596284], [27.84999616347516, 9.036864929656481], [27.8318758606727, 9.036864929656481], [27.8318758606727, 9.018712300557576], [27.79563525506777, 9.018712300557576], [27.79563525506777, 8.982409707247543], [27.813755557870234, 8.982409707247543], [27.813755557870234, 8.946110654404684], [27.777514952265307, 8.946110654404684], [27.777514952265307, 9.00056056039063], [27.759394649462845, 9.00056056039063], [27.759394649462845, 9.036864929656481], [27.705033741055455, 9.036864929656481], [27.705033741055455, 8.909815126780787], [27.6325525298456, 8.909815126780787], [27.6325525298456, 8.8916686801645], [27.614432227043135, 8.8916686801645], [27.614432227043135, 8.873523109140864], [27.578191621438208, 8.873523109140864], [27.578191621438208, 8.837234586263085], [27.560071318635746, 8.837234586263085], [27.560071318635746, 8.782808321359909], [27.578191621438208, 8.782808321359909], [27.578191621438208, 8.764667963972073], [27.487590107425888, 8.764667963972073], [27.487590107425888, 8.74652846887778], [27.451349501820964, 8.74652846887778], [27.451349501820964, 8.710252057984116], [27.415108896216033, 8.710252057984116], [27.415108896216033, 8.692115138393888], [27.39698859341357, 8.692115138393888], [27.39698859341357, 8.710252057984116], [27.37886829061111, 8.710252057984116], [27.37886829061111, 8.728389834180403], [27.360747987808644, 8.728389834180403], [27.360747987808644, 8.74652846887778], [27.34262768500618, 8.74652846887778], [27.34262768500618, 8.764667963972073], [27.32450738220372, 8.764667963972073], [27.32450738220372, 8.819091630606765], [27.28826677659879, 8.819091630606765], [27.28826677659879, 8.837234586263085], [27.270146473796327, 8.837234586263085], [27.270146473796327, 8.855378411807559], [27.252026170993865, 8.855378411807559], [27.252026170993865, 8.873523109140864], [27.215785565388934, 8.873523109140864], [27.215785565388934, 8.8916686801645], [27.2339058681914, 8.8916686801645], [27.2339058681914, 8.964259739221042], [27.270146473796327, 8.964259739221042], [27.270146473796327, 8.946110654404684], [27.34262768500618, 8.946110654404684], [27.34262768500618, 9.055018449596284], [27.2339058681914, 9.055018449596284], [27.2339058681914, 9.036864929656481], [27.197665262586472, 9.036864929656481], [27.197665262586472, 9.055018449596284], [27.17954495978401, 9.055018449596284], [27.17954495978401, 9.07317286228676], [27.125184051376618, 9.07317286228676], [27.125184051376618, 9.055018449596284], [27.107063748574152, 9.055018449596284], [27.107063748574152, 9.018712300557576], [27.08894344577169, 9.018712300557576], [27.08894344577169, 8.964259739221042], [27.07082314296923, 8.964259739221042], [27.07082314296923, 8.909815126780787], [27.08894344577169, 8.909815126780787], [27.08894344577169, 8.873523109140864], [27.07082314296923, 8.873523109140864], [27.07082314296923, 8.855378411807559], [27.052702840166763, 8.855378411807559], [27.052702840166763, 8.873523109140864], [26.998341931759374, 8.873523109140864], [26.998341931759374, 8.855378411807559], [26.92586072054952, 8.855378411807559], [26.92586072054952, 8.873523109140864], [26.907740417747053, 8.873523109140864], [26.907740417747053, 8.927962450892863], [26.88962011494459, 8.927962450892863], [26.88962011494459, 8.964259739221042], [26.87149981214213, 8.964259739221042], [26.87149981214213, 8.982409707247543], [26.78089829812981, 8.982409707247543], [26.78089829812981, 9.00056056039063], [26.762777995327347, 9.00056056039063], [26.762777995327347, 9.055018449596284], [26.744657692524882, 9.055018449596284], [26.744657692524882, 9.127641475972545], [26.8352592065372, 9.127641475972545], [26.8352592065372, 9.200278908736538], [26.853379509339664, 9.200278908736538], [26.853379509339664, 9.21844053228531], [26.8352592065372, 9.21844053228531], [26.8352592065372, 9.2366030658107], [26.88962011494459, 9.2366030658107], [26.88962011494459, 9.200278908736538], [26.87149981214213, 9.200278908736538], [26.87149981214213, 9.145799478780253], [26.907740417747053, 9.145799478780253], [26.907740417747053, 9.127641475972545], [26.92586072054952, 9.127641475972545], [26.92586072054952, 9.109484373563015], [26.943981023351984, 9.109484373563015], [26.943981023351984, 9.127641475972545], [26.980221628956908, 9.127641475972545], [26.980221628956908, 9.145799478780253], [26.998341931759374, 9.145799478780253], [26.998341931759374, 9.2366030658107], [27.01646223456184, 9.2366030658107], [27.01646223456184, 9.25476651123096], [27.034582537364297, 9.25476651123096], [27.034582537364297, 9.272930870465194], [27.052702840166763, 9.272930870465194], [27.052702840166763, 9.291096145433379], [27.07082314296923, 9.291096145433379], [27.07082314296923, 9.309262338056346], [27.125184051376618, 9.309262338056346], [27.125184051376618, 9.291096145433379], [27.197665262586472, 9.291096145433379], [27.197665262586472, 9.309262338056346], [27.2339058681914, 9.309262338056346], [27.2339058681914, 9.327429450255787], [27.28826677659879, 9.327429450255787], [27.28826677659879, 9.21844053228531], [27.360747987808644, 9.21844053228531], [27.360747987808644, 9.363766441075246], [27.4332291990185, 9.363766441075246], [27.4332291990185, 9.21844053228531]], [[27.270146473796327, 9.21844053228531], [27.270146473796327, 9.309262338056346], [27.252026170993865, 9.309262338056346], [27.252026170993865, 9.21844053228531], [27.270146473796327, 9.21844053228531]], [[27.4332291990185, 9.109484373563015], [27.4332291990185, 9.127641475972545], [27.306387079401254, 9.127641475972545], [27.306387079401254, 9.109484373563015], [27.4332291990185, 9.109484373563015]], [[27.4332291990185, 8.946110654404684], [27.4332291990185, 9.055018449596284], [27.415108896216033, 9.055018449596284], [27.415108896216033, 8.946110654404684], [27.4332291990185, 8.946110654404684]]]]}}, {"type": "Feature", "properties": {"support": 0.75, "want": "community"}, "geometry": {"type": "MultiPolygon", "coordinates": [[[[29.680146746523985, 5.259483695113163], [29.680146746523985, 5.241476478175207], [29.69826704932645, 5.241476478175207], [29.69826704932645, 5.223469766613077], [29.752627957733836, 5.223469766613077], [29.752627957733836, 5.205463558651921], [29.734507654931377, 5.205463558651921], [29.734507654931377, 5.187457852517324], [29.716387352128912, 5.187457852517324], [29.716387352128912, 5.169452646435331], [29.69826704932645, 5.169452646435331], [29.69826704932645, 5.151447938632432], [29.680146746523985, 5.151447938632432], [29.680146746523985, 5.133443727335569], [29.66202644372152, 5.133443727335569], [29.66202644372152, 5.06143181176285], [29.643906140919057, 5.06143181176285], [29.643906140919057, 5.025428786945768], [29.66202644372152, 5.025428786945768], [29.66202644372152, 4.989427698557163], [29.680146746523985, 4.989427698557163], [29.680146746523985, 4.935429665816406], [29.69826704932645, 4.935429665816406], [29.69826704932645, 4.917431274453984], [29.607665535314126, 4.917431274453984], [29.607665535314126, 4.899433356587801], [29.589545232511664, 4.899433356587801], [29.589545232511664, 4.881435910450896], [29.571424929709206, 4.881435910450896], [29.571424929709206, 4.863438934276721], [29.55330462690674, 4.863438934276721], [29.55330462690674, 4.84544242629916], [29.517064021301813, 4.84544242629916], [29.517064021301813, 4.827446384752506], [29.498943718499348, 4.827446384752506], [29.498943718499348, 4.809450807871477], [29.480823415696882, 4.809450807871477], [29.480823415696882, 4.84544242629916], [29.46270311289442, 4.84544242629916], [29.46270311289442, 4.881435910450896], [29.426462507289497, 4.881435910450896], [29.426462507289497, 4.84544242629916], [29.39022190168457, 4.84544242629916], [29.39022190168457, 4.881435910450896], [29.372101598882104, 4.881435910450896], [29.372101598882104, 4.899433356587801], [29.40834220448703, 4.899433356587801], [29.40834220448703, 4.935429665816406], [29.444582810091955, 4.935429665816406], [29.444582810091955, 5.0074280015827295], [29.46270311289442, 5.0074280015827295], [29.46270311289442, 5.043430056415817], [29.426462507289497, 5.043430056415817], [29.426462507289497, 5.06143181176285], [29.40834220448703, 5.06143181176285], [29.40834220448703, 5.097436787169941], [29.39022190168457, 5.097436787169941], [29.39022190168457, 5.133443727335569], [29.372101598882104, 5.133443727335569], [29.372101598882104, 5.169452646435331], [29.39022190168457, 5.169452646435331], [29.39022190168457, 5.223469766613077], [29.498943718499348, 5.223469766613077], [29.498943718499348, 5.205463558651921], [29.517064021301813, 5.205463558651921], [29.517064021301813, 5.187457852517324], [29.535184324104275, 5.187457852517324], [29.535184324104275, 5.097436787169941], [29.55330462690674, 5.097436787169941], [29.55330462690674, 5.115440010772129], [29.571424929709206, 5.115440010772129], [29.571424929709206, 5.133443727335569], [29.55330462690674, 5.133443727335569], [29.55330462690674, 5.241476478175207], [29.571424929709206, 5.241476478175207], [29.571424929709206, 5.259483695113163], [29.680146746523985, 5.259483695113163]]], [[[25.51247710195736, 8.601443323263892], [25.548717707562286, 8.601443323263892], [25.548717707562286, 8.583311503559282], [25.56683801036475, 8.583311503559282], [25.56683801036475, 8.565180527217883], [25.58495831316721, 8.565180527217883], [25.58495831316721, 8.547050392351023], [25.603078615969675, 8.547050392351023], [25.603078615969675, 8.528921097070821], [25.62119891877214, 8.528921097070821], [25.62119891877214, 8.510792639490163], [25.639319221574606, 8.510792639490163], [25.639319221574606, 8.492665017722729], [25.693680129981995, 8.492665017722729], [25.693680129981995, 8.510792639490163], [25.729920735586923, 8.510792639490163], [25.729920735586923, 8.528921097070821], [25.748041038389385, 8.528921097070821], [25.748041038389385, 8.420162851085982], [25.67555982717953, 8.420162851085982], [25.67555982717953, 8.438287148448207], [25.657439524377065, 8.438287148448207], [25.657439524377065, 8.456412274086132], [25.639319221574606, 8.456412274086132], [25.639319221574606, 8.438287148448207], [25.62119891877214, 8.438287148448207], [25.62119891877214, 8.420162851085982], [25.58495831316721, 8.420162851085982], [25.58495831316721, 8.402039380117008], [25.548717707562286, 8.402039380117008], [25.548717707562286, 8.38391673365961], [25.47623649635243, 8.38391673365961], [25.47623649635243, 8.474538229882974], [25.458116193549966, 8.474538229882974], [25.458116193549966, 8.36579490983287], [25.439995890747504, 8.36579490983287], [25.439995890747504, 8.347673906756647], [25.421875587945042, 8.347673906756647], [25.421875587945042, 8.402039380117008], [25.385634982340115, 8.402039380117008], [25.385634982340115, 8.474538229882974], [25.331274073932722, 8.474538229882974], [25.331274073932722, 8.510792639490163], [25.31315377113026, 8.510792639490163], [25.31315377113026, 8.528921097070821], [25.331274073932722, 8.528921097070821], [25.331274073932722, 8.547050392351023], [25.385634982340115, 8.547050392351023], [25.385634982340115, 8.583311503559282], [25.403755285142577, 8.583311503559282], [25.403755285142577, 8.601443323263892], [25.421875587945042, 8.601443323263892], [25.421875587945042, 8.619575988221177], [25.51247710195736, 8.619575988221177], [25.51247710195736, 8.601443323263892]]], [[[27.4332291990185, 9.21844053228531], [27.451349501820964, 9.21844053228531], [27.451349501820964, 9.363766441075246], [27.487590107425888, 9.363766441075246], [27.487590107425888, 9.345597483954279], [27.523830713030815, 9.345597483954279], [27.523830713030815, 9.21844053228531], [27.54195101583328, 9.21844053228531], [27.54195101583328, 9.309262338056346], [27.560071318635746, 9.309262338056346], [27.560071318635746, 9.327429450255787], [27.668793135450525, 9.327429450255787], [27.668793135450525, 9.345597483954279], [27.68691343825299, 9.345597483954279], [27.68691343825299, 9.327429450255787], [27.705033741055455, 9.327429450255787], [27.705033741055455, 9.309262338056346], [27.723154043857914, 9.309262338056346], [27.723154043857914, 9.291096145433379], [27.74127434666038, 9.291096145433379], [27.74127434666038, 9.272930870465194], [27.759394649462845, 9.272930870465194], [27.759394649462845, 9.25476651123096], [27.777514952265307, 9.25476651123096], [27.777514952265307, 9.2366030658107], [27.723154043857914, 9.2366030658107], [27.723154043857914, 9.21844053228531], [27.705033741055455, 9.21844053228531], [27.705033741055455, 9.200278908736538], [27.723154043857914, 9.200278908736538], [27.723154043857914, 9.182118193246987], [27.74127434666038, 9.182118193246987], [27.74127434666038, 9.163958383900123], [27.79563525506777, 9.163958383900123], [27.79563525506777, 9.145799478780253], [27.813755557870234, 9.145799478780253], [27.813755557870234, 9.163958383900123], [27.868116466277627, 9.163958383900123], [27.868116466277627, 9.145799478780253], [27.88623676908009, 9.145799478780253], [27.88623676908009, 9.127641475972545], [27.90435707188255, 9.127641475972545], [27.90435707188255, 9.109484373563015], [27.922477374685016, 9.109484373563015], [27.922477374685016, 9.091328169638519], [27.88623676908009, 9.091328169638519], [27.88623676908009, 9.07317286228676], [27.868116466277627, 9.07317286228676], [27.868116466277627, 9.055018449596284], [27.84999616347516, 9.055018449596284], [27.84999616347516, 9.036864929656481], [27.8318758606727, 9.036864929656481], [27.8318758606727, 9.018712300557576], [27.79563525506777, 9.018712300557576], [27.79563525506777, 8.982409707247543], [27.813755557870234, 8.982409707247543], [27.813755557870234, 8.946110654404684], [27.777514952265307, 8.946110654404684], [27.777514952265307, 9.00056056039063], [27.759394649462845, 9.00056056039063], [27.759394649462845, 9.036864929656481], [27.705033741055455, 9.036864929656481], [27.705033741055455, 8.909815126780787], [27.6325525298456, 8.909815126780787], [27.6325525298456, 8.8916686801645], [27.614432227043135, 8.8916686801645], [27.614432227043135, 8.873523109140864], [27.578191621438208, 8.873523109140864], [27.578191621438208, 8.837234586263085], [27.560071318635746, 8.837234586263085], [27.560071318635746, 8.782808321359909], [27.578191621438208, 8.782808321359909], [27.578191621438208, 8.764667963972073], [27.487590107425888, 8.764667963972073], [27.487590107425888, 8.74652846887778], [27.451349501820964, 8.74652846887778], [27.451349501820964, 8.710252057984116], [27.415108896216033, 8.710252057984116], [27.415108896216033, 8.692115138393888], [27.39698859341357, 8.692115138393888], [27.39698859341357, 8.710252057984116], [27.37886829061111, 8.710252057984116], [27.37886829061111, 8.728389834180403], [27.360747987808644, 8.728389834180403], [27.360747987808644, 8.74652846887778], [27.34262768500618, 8.74652846887778], [27.34262768500618, 8.764667963972073], [27.32450738220372, 8.764667963972073], [27.32450738220372, 8.819091630606765], [27.28826677659879, 8.819091630606765], [27.28826677659879, 8.837234586263085], [27.270146473796327, 8.837234586263085], [27.270146473796327, 8.855378411807559], [27.252026170993865, 8.855378411807559], [27.252026170993865, 8.873523109140864], [27.215785565388934, 8.873523109140864], [27.215785565388934, 8.8916686801645], [27.2339058681914, 8.8916686801645], [27.2339058681914, 8.964259739221042], [27.270146473796327, 8.964259739221042], [27.270146473796327, 8.946110654404684], [27.34262768500618, 8.946110654404684], [27.34262768500618, 9.055018449596284], [27.2339058681914, 9.055018449596284], [27.2339058681914, 9.036864929656481], [27.197665262586472, 9.036864929656481], [27.197665262586472, 9.055018449596284], [27.17954495978401, 9.055018449596284], [27.17954495978401, 9.07317286228676], [27.125184051376618, 9.07317286228676], [27.125184051376618, 9.055018449596284], [27.107063748574152, 9.055018449596284], [27.107063748574152, 9.018712300557576], [27.08894344577169, 9.018712300557576], [27.08894344577169, 8.964259739221042], [27.07082314296923, 8.964259739221042], [27.07082314296923, 8.909815126780787], [27.08894344577169, 8.909815126780787], [27.08894344577169, 8.873523109140864], [27.07082314296923, 8.873523109140864], [27.07082314296923, 8.855378411807559], [27.052702840166763, 8.855378411807559], [27.052702840166763, 8.873523109140864], [26.998341931759374, 8.873523109140864], [26.998341931759374, 8.855378411807559], [26.92586072054952, 8.855378411807559], [26.92586072054952, 8.873523109140864], [26.907740417747053, 8.873523109140864], [26.907740417747053, 8.927962450892863], [26.88962011494459, 8.927962450892863], [26.88962011494459, 8.964259739221042], [26.87149981214213, 8.964259739221042], [26.87149981214213, 8.982409707247543], [26.78089829812981, 8.982409707247543], [26.78089829812981, 9.00056056039063], [26.762777995327347, 9.00056056039063], [26.762777995327347, 9.055018449596284], [26.744657692524882, 9.055018449596284], [26.744657692524882, 9.127641475972545], [26.8352592065372, 9.127641475972545], [26.8352592065372, 9.200278908736538], [26.853379509339664, 9.200278908736538], [26.853379509339664, 9.21844053228531], [26.8352592065372, 9.21844053228531], [26.8352592065372, 9.2366030658107], [26.88962011494459, 9.2366030658107], [26.88962011494459, 9.200278908736538], [26.87149981214213, 9.200278908736538], [26.87149981214213, 9.145799478780253], [26.907740417747053, 9.145799478780253], [26.907740417747053, 9.127641475972545], [26.92586072054952, 9.127641475972545], [26.92586072054952, 9.109484373563015], [26.943981023351984, 9.109484373563015], [26.943981023351984, 9.127641475972545], [26.980221628956908, 9.127641475972545], [26.980221628956908, 9.145799478780253], [26.998341931759374, 9.145799478780253], [26.998341931759374, 9.2366030658107], [27.01646223456184, 9.2366030658107], [27.01646223456184, 9.25476651123096], [27.034582537364297, 9.25476651123096], [27.034582537364297, 9.272930870465194], [27.052702840166763, 9.272930870465194], [27.052702840166763, 9.291096145433379], [27.07082314296923, 9.291096145433379], [27.07082314296923, 9.309262338056346], [27.125184051376618, 9.309262338056346], [27.125184051376618, 9.291096145433379], [27.197665262586472, 9.291096145433379], [27.197665262586472, 9.309262338056346], [27.2339058681914, 9.309262338056346], [27.2339058681914, 9.327429450255787], [27.28826677659879, 9.327429450255787], [27.28826677659879, 9.21844053228531], [27.360747987808644, 9.21844053228531], [27.360747987808644, 9.363766441075246], [27.4332291990185, 9.363766441075246], [27.4332291990185, 9.21844053228531]], [[27.270146473796327, 9.21844053228531], [27.270146473796327, 9.309262338056346], [27.252026170993865, 9.309262338056346], [27.252026170993865, 9.21844053228531], [27.270146473796327, 9.21844053228531]], [[27.4332291990185, 9.109484373563015], [27.4332291990185, 9.127641475972545], [27.306387079401254, 9.127641475972545], [27.306387079401254, 9.109484373563015], [27.4332291990185, 9.109484373563015]], [[27.39698859341357, 8.946110654404684], [27.39698859341357, 8.927962450892863], [27.34262768500618, 8.927962450892863], [27.34262768500618, 8.909815126780787], [27.4332291990185, 8.909815126780787], [27.4332291990185, 9.055018449596284], [27.415108896216033, 9.055018449596284], [27.415108896216033, 8.946110654404684], [27.39698859341357, 8.946110654404684]], [[27.523830713030815, 8.946110654404684], [27.523830713030815, 9.036864929656481], [27.505710410228353, 9.036864929656481], [27.505710410228353, 8.946110654404684], [27.523830713030815, 8.946110654404684]]]]}}]}