<?xml version="1.0" encoding="UTF-8"?><kml xmlns="http://www.opengis.net/kml/2.2"><Document><Style id="core"><LineStyle><color>ff00a000</color><width>1.5</width></LineStyle><PolyStyle><color>7f00a000</color></PolyStyle></Style><Style id="wilderness"><LineStyle><color>ff00d0d0</color><width>1.5</width></LineStyle><PolyStyle><color>7f00d0d0</color></PolyStyle></Style><Style id="community"><LineStyle><color>ff0080ff</color><width>1.5</width></LineStyle><PolyStyle><color>7f0080ff</color></PolyStyle></Style><Style id="corridor"><LineStyle><color>ffd000d0</color><width>1.5</width></LineStyle><PolyStyle><color>7fd000d0</color></PolyStyle></Style><Placemark><name>core proposal 1 (2,286,800 ha, support 0.75)</name><description><![CDATA[core · 2,286,800 ha · 28 clusters, 411 people (GHSL lower bound), 2 new since 2015<br/>fire 4,138/1000km2/yr, 6882 fronts (97% transhumance, 4168 ≥150 km)<br/>clearing since 2020 2.39 km2; cropland 0.0→0.01%; mining reported/candidates/top5% 0/0/24<br/>boundary: unnamed river (order 4) on the SW/NW (118 km); Ibba on the E/SE (80 km); CAF border on the SW/W (80 km); 1930s District Boundary on the E/W (66 km); Ouara on the SW/W (64 km); Pongo on the NW/N (62 km); 248 km along a geological contact only (not visible on the ground — needs beacons); landmarks on the unnamed stretches: dot with (?) marker (1930s water symbol) (NE), Mbora (1930s village) (N), Rabeh (1930s village) (N), Udu Burnus (1930s village) (NE), Dahi (1930s village) (E), Dalingai (1930s village) (E), Abdullah (1930s village) (E), Mandi (1930s village) (E) — 50% follows no nameable feature]]></description><styleUrl>#core</styleUrl><Polygon><outerBoundaryIs><LinearRing><coordinates>26.05609,6.26875,0 26.05609,6.25071,0 26.03797,6.25071,0 26.03797,6.21464,0 26.01985,6.21464,0 26.01985,6.17856,0 26.00173,6.17856,0 26.00173,6.10643,0 25.96548,6.10643,0 25.96548,6.08839,0 25.94736,6.08839,0 25.94736,6.07036,0 25.92924,6.07036,0 25.92924,6.05233,0 25.91112,6.05233,0 25.91112,6.07036,0 25.89300,6.07036,0 25.89300,6.08839,0 25.87488,6.08839,0 25.87488,6.12446,0 25.85676,6.12446,0 25.85676,6.16053,0 25.78428,6.16053,0 25.78428,6.14249,0 25.72992,6.14249,0 25.72992,6.16053,0 25.58496,6.16053,0 25.58496,6.14249,0 25.54872,6.14249,0 25.54872,6.16053,0 25.53060,6.16053,0 25.53060,6.17856,0 25.51248,6.17856,0 25.51248,6.21464,0 25.54872,6.21464,0 25.54872,6.25071,0 25.56684,6.25071,0 25.56684,6.26875,0 25.58496,6.26875,0 25.58496,6.34091,0 25.60308,6.34091,0 25.60308,6.35895,0 25.62120,6.35895,0 25.62120,6.37699,0 25.65744,6.37699,0 25.65744,6.39504,0 25.67556,6.39504,0 25.67556,6.41308,0 25.69368,6.41308,0 25.69368,6.43112,0 25.71180,6.43112,0 25.71180,6.37699,0 25.74804,6.37699,0 25.74804,6.44917,0 25.76616,6.44917,0 25.76616,6.37699,0 25.78428,6.37699,0 25.78428,6.35895,0 25.82052,6.35895,0 25.82052,6.34091,0 25.83864,6.34091,0 25.83864,6.37699,0 25.92924,6.37699,0 25.92924,6.46721,0 25.96548,6.46721,0 25.96548,6.44917,0 25.98360,6.44917,0 25.98360,6.43112,0 26.00173,6.43112,0 26.00173,6.37699,0 26.12857,6.37699,0 26.12857,6.39504,0 26.16481,6.39504,0 26.16481,6.41308,0 26.18293,6.41308,0 26.18293,6.44917,0 26.20105,6.44917,0 26.20105,6.46721,0 26.21917,6.46721,0 26.21917,6.50330,0 26.23729,6.50330,0 26.23729,6.52135,0 26.27353,6.52135,0 26.27353,6.46721,0 26.38225,6.46721,0 26.38225,6.50330,0 26.32789,6.50330,0 26.32789,6.57550,0 26.34601,6.57550,0 26.34601,6.64770,0 26.38225,6.64770,0 26.38225,6.66575,0 26.40037,6.66575,0 26.40037,6.64770,0 26.47285,6.64770,0 26.47285,6.66575,0 26.49097,6.66575,0 26.49097,6.75602,0 26.47285,6.75602,0 26.47285,6.77408,0 26.41849,6.77408,0 26.41849,6.81019,0 26.43661,6.81019,0 26.43661,6.82825,0 26.47285,6.82825,0 26.47285,6.88243,0 26.49097,6.88243,0 26.49097,6.90049,0 26.56345,6.90049,0 26.56345,6.91855,0 26.59970,6.91855,0 26.59970,6.93661,0 26.61782,6.93661,0 26.61782,6.95467,0 26.63594,6.95467,0 26.63594,6.93661,0 26.65406,6.93661,0 26.65406,6.91855,0 26.74466,6.91855,0 26.74466,6.99080,0 26.72654,6.99080,0 26.72654,7.00887,0 26.83526,7.00887,0 26.83526,7.02693,0 26.69030,7.02693,0 26.69030,7.08113,0 26.70842,7.08113,0 26.70842,7.09920,0 26.83526,7.09920,0 26.83526,7.17148,0 26.78090,7.17148,0 26.78090,7.20762,0 26.79902,7.20762,0 26.79902,7.22570,0 26.81714,7.22570,0 26.81714,7.26185,0 26.83526,7.26185,0 26.83526,7.27992,0 26.85338,7.27992,0 26.85338,7.29800,0 26.87150,7.29800,0 26.87150,7.33415,0 26.88962,7.33415,0 26.88962,7.37031,0 27.01646,7.37031,0 27.01646,7.38839,0 26.88962,7.38839,0 26.88962,7.40647,0 26.90774,7.40647,0 26.90774,7.44263,0 26.88962,7.44263,0 26.88962,7.46071,0 26.85338,7.46071,0 26.85338,7.47879,0 26.83526,7.47879,0 26.83526,7.49688,0 26.81714,7.49688,0 26.81714,7.51496,0 26.47285,7.51496,0 26.47285,7.49688,0 26.49097,7.49688,0 26.49097,7.40647,0 26.47285,7.40647,0 26.47285,7.38839,0 26.43661,7.38839,0 26.43661,7.40647,0 26.34601,7.40647,0 26.34601,7.44263,0 26.36413,7.44263,0 26.36413,7.47879,0 26.38225,7.47879,0 26.38225,7.55113,0 26.36413,7.55113,0 26.36413,7.56922,0 26.34601,7.56922,0 26.34601,7.60540,0 26.29165,7.60540,0 26.29165,7.69585,0 26.27353,7.69585,0 26.27353,7.78632,0 26.29165,7.78632,0 26.29165,7.82251,0 26.30977,7.82251,0 26.30977,7.84061,0 26.32789,7.84061,0 26.32789,7.85871,0 26.34601,7.85871,0 26.34601,7.82251,0 26.38225,7.82251,0 26.38225,7.91301,0 26.41849,7.91301,0 26.41849,7.89491,0 26.45473,7.89491,0 26.45473,7.87681,0 26.47285,7.87681,0 26.47285,7.78632,0 26.49097,7.78632,0 26.49097,7.75013,0 26.56345,7.75013,0 26.56345,7.73203,0 26.59970,7.73203,0 26.59970,7.71394,0 26.72654,7.71394,0 26.72654,7.73203,0 26.76278,7.73203,0 26.76278,7.71394,0 26.83526,7.71394,0 26.83526,7.73203,0 26.88962,7.73203,0 26.88962,7.76822,0 26.92586,7.76822,0 26.92586,7.75013,0 26.94398,7.75013,0 26.94398,7.76822,0 26.96210,7.76822,0 26.96210,7.75013,0 27.03458,7.75013,0 27.03458,7.73203,0 27.05270,7.73203,0 27.05270,7.75013,0 27.07082,7.75013,0 27.07082,7.71394,0 27.08894,7.71394,0 27.08894,7.65967,0 27.07082,7.65967,0 27.07082,7.64158,0 27.03458,7.64158,0 27.03458,7.60540,0 27.01646,7.60540,0 27.01646,7.58731,0 26.99834,7.58731,0 26.99834,7.56922,0 26.98022,7.56922,0 26.98022,7.51496,0 26.96210,7.51496,0 26.96210,7.47879,0 26.94398,7.47879,0 26.94398,7.46071,0 27.10706,7.46071,0 27.10706,7.60540,0 27.14330,7.60540,0 27.14330,7.62349,0 27.16142,7.62349,0 27.16142,7.55113,0 27.17954,7.55113,0 27.17954,7.46071,0 27.28827,7.46071,0 27.28827,7.69585,0 27.27015,7.69585,0 27.27015,7.71394,0 27.25203,7.71394,0 27.25203,7.69585,0 27.23391,7.69585,0 27.23391,7.71394,0 27.21579,7.71394,0 27.21579,7.73203,0 27.23391,7.73203,0 27.23391,7.75013,0 27.27015,7.75013,0 27.27015,7.73203,0 27.37887,7.73203,0 27.37887,7.82251,0 27.52383,7.82251,0 27.52383,7.84061,0 27.54195,7.84061,0 27.54195,7.85871,0 27.56007,7.85871,0 27.56007,7.87681,0 27.57819,7.87681,0 27.57819,7.89491,0 27.61443,7.89491,0 27.61443,7.91301,0 27.66879,7.91301,0 27.66879,7.93111,0 27.68691,7.93111,0 27.68691,7.91301,0 27.70503,7.91301,0 27.70503,7.89491,0 27.72315,7.89491,0 27.72315,7.80442,0 27.74127,7.80442,0 27.74127,7.78632,0 27.70503,7.78632,0 27.70503,7.76822,0 27.66879,7.76822,0 27.66879,7.67776,0 27.68691,7.67776,0 27.68691,7.65967,0 27.70503,7.65967,0 27.70503,7.62349,0 27.72315,7.62349,0 27.72315,7.60540,0 27.77751,7.60540,0 27.77751,7.58731,0 27.75939,7.58731,0 27.75939,7.55113,0 27.77751,7.55113,0 27.77751,7.53305,0 27.79564,7.53305,0 27.79564,7.51496,0 27.85000,7.51496,0 27.85000,7.49688,0 27.90436,7.49688,0 27.90436,7.47879,0 27.86812,7.47879,0 27.86812,7.46071,0 27.85000,7.46071,0 27.85000,7.44263,0 27.81376,7.44263,0 27.81376,7.42455,0 27.79564,7.42455,0 27.79564,7.37031,0 27.81376,7.37031,0 27.81376,7.33415,0 27.83188,7.33415,0 27.83188,7.31607,0 27.81376,7.31607,0 27.81376,7.27992,0 27.85000,7.27992,0 27.85000,7.17148,0 27.86812,7.17148,0 27.86812,7.15341,0 27.88624,7.15341,0 27.88624,7.13534,0 27.90436,7.13534,0 27.90436,7.09920,0 27.95872,7.09920,0 27.95872,7.00887,0 28.10368,7.00887,0 28.10368,7.02693,0 28.01308,7.02693,0 28.01308,7.04500,0 28.03120,7.04500,0 28.03120,7.08113,0 28.04932,7.08113,0 28.04932,7.11727,0 28.06744,7.11727,0 28.06744,7.15341,0 28.08556,7.15341,0 28.08556,7.17148,0 28.17616,7.17148,0 28.17616,7.15341,0 28.23052,7.15341,0 28.23052,7.13534,0 28.26676,7.13534,0 28.26676,7.00887,0 28.28488,7.00887,0 28.28488,7.09920,0 28.32112,7.09920,0 28.32112,7.08113,0 28.33924,7.08113,0 28.33924,7.06306,0 28.35736,7.06306,0 28.35736,7.00887,0 28.37548,7.00887,0 28.37548,6.99080,0 28.52045,6.99080,0 28.52045,7.02693,0 28.55669,7.02693,0 28.55669,7.04500,0 28.61105,7.04500,0 28.61105,7.02693,0 28.62917,7.02693,0 28.62917,6.99080,0 28.64729,6.99080,0 28.64729,6.91855,0 28.73789,6.91855,0 28.73789,7.02693,0 28.68353,7.02693,0 28.68353,7.06306,0 28.70165,7.06306,0 28.70165,7.11727,0 28.71977,7.11727,0 28.71977,7.13534,0 28.77413,7.13534,0 28.77413,7.15341,0 28.79225,7.15341,0 28.79225,7.17148,0 28.81037,7.17148,0 28.81037,7.09920,0 28.97345,7.09920,0 28.97345,7.06306,0 28.95533,7.06306,0 28.95533,7.04500,0 28.93721,7.04500,0 28.93721,7.02693,0 28.90097,7.02693,0 28.90097,6.99080,0 28.91909,6.99080,0 28.91909,6.95467,0 28.93721,6.95467,0 28.93721,6.90049,0 28.95533,6.90049,0 28.95533,6.82825,0 28.97345,6.82825,0 28.97345,6.77408,0 28.99158,6.77408,0 28.99158,6.75602,0 28.90097,6.75602,0 28.90097,6.73797,0 29.15466,6.73797,0 29.15466,6.77408,0 29.13654,6.77408,0 29.13654,6.84631,0 29.22714,6.84631,0 29.22714,6.88243,0 29.20902,6.88243,0 29.20902,6.86437,0 29.15466,6.86437,0 29.15466,6.91855,0 29.44458,6.91855,0 29.44458,6.90049,0 29.46270,6.90049,0 29.46270,6.88243,0 29.40834,6.88243,0 29.40834,6.82825,0 29.37210,6.82825,0 29.37210,6.81019,0 29.35398,6.81019,0 29.35398,6.77408,0 29.33586,6.77408,0 29.33586,6.75602,0 29.31774,6.75602,0 29.31774,6.71991,0 29.24526,6.71991,0 29.24526,6.70186,0 29.19090,6.70186,0 29.19090,6.71991,0 29.13654,6.71991,0 29.13654,6.66575,0 29.08218,6.66575,0 29.08218,6.64770,0 29.13654,6.64770,0 29.13654,6.61160,0 29.10030,6.61160,0 29.10030,6.59355,0 29.08218,6.59355,0 29.08218,6.57550,0 28.99158,6.57550,0 28.99158,6.53940,0 29.04594,6.53940,0 29.04594,6.52135,0 29.02782,6.52135,0 29.02782,6.48526,0 28.82849,6.48526,0 28.82849,6.46721,0 28.79225,6.46721,0 28.79225,6.43112,0 28.70165,6.43112,0 28.70165,6.44917,0 28.68353,6.44917,0 28.68353,6.46721,0 28.64729,6.46721,0 28.64729,6.52135,0 28.66541,6.52135,0 28.66541,6.57550,0 28.64729,6.57550,0 28.64729,6.62965,0 28.68353,6.62965,0 28.68353,6.64770,0 28.70165,6.64770,0 28.70165,6.66575,0 28.71977,6.66575,0 28.71977,6.68380,0 28.73789,6.68380,0 28.73789,6.70186,0 28.75601,6.70186,0 28.75601,6.79213,0 28.73789,6.79213,0 28.73789,6.82825,0 28.82849,6.82825,0 28.82849,6.84631,0 28.71977,6.84631,0 28.71977,6.82825,0 28.57481,6.82825,0 28.57481,6.93661,0 28.55669,6.93661,0 28.55669,6.97274,0 28.53857,6.97274,0 28.53857,6.95467,0 28.52045,6.95467,0 28.52045,6.88243,0 28.50233,6.88243,0 28.50233,6.79213,0 28.48421,6.79213,0 28.48421,6.68380,0 28.46609,6.68380,0 28.46609,6.64770,0 28.44797,6.64770,0 28.44797,6.57550,0 28.42985,6.57550,0 28.42985,6.46721,0 28.44797,6.46721,0 28.44797,6.41308,0 28.42985,6.41308,0 28.42985,6.39504,0 28.41173,6.39504,0 28.41173,6.41308,0 28.35736,6.41308,0 28.35736,6.43112,0 28.28488,6.43112,0 28.28488,6.46721,0 28.30300,6.46721,0 28.30300,6.48526,0 28.28488,6.48526,0 28.28488,6.50330,0 28.23052,6.50330,0 28.23052,6.48526,0 28.21240,6.48526,0 28.21240,6.44917,0 28.15804,6.44917,0 28.15804,6.46721,0 28.13992,6.46721,0 28.13992,6.48526,0 28.12180,6.48526,0 28.12180,6.50330,0 28.10368,6.50330,0 28.10368,6.62965,0 28.13992,6.62965,0 28.13992,6.61160,0 28.17616,6.61160,0 28.17616,6.62965,0 28.19428,6.62965,0 28.19428,6.64770,0 28.21240,6.64770,0 28.21240,6.66575,0 28.19428,6.66575,0 28.19428,6.68380,0 28.12180,6.68380,0 28.12180,6.71991,0 28.13992,6.71991,0 28.13992,6.75602,0 28.10368,6.75602,0 28.10368,6.77408,0 28.03120,6.77408,0 28.03120,6.79213,0 28.04932,6.79213,0 28.04932,6.81019,0 28.03120,6.81019,0 28.03120,6.82825,0 27.99496,6.82825,0 27.99496,6.84631,0 27.90436,6.84631,0 27.90436,6.82825,0 27.95872,6.82825,0 27.95872,6.81019,0 27.94060,6.81019,0 27.94060,6.79213,0 27.92248,6.79213,0 27.92248,6.77408,0 27.83188,6.77408,0 27.83188,6.84631,0 27.81376,6.84631,0 27.81376,6.82825,0 27.79564,6.82825,0 27.79564,6.77408,0 27.75939,6.77408,0 27.75939,6.75602,0 27.74127,6.75602,0 27.74127,6.86437,0 27.72315,6.86437,0 27.72315,6.91855,0 27.70503,6.91855,0 27.70503,6.97274,0 27.68691,6.97274,0 27.68691,6.99080,0 27.66879,6.99080,0 27.66879,7.02693,0 27.65067,7.02693,0 27.65067,7.08113,0 27.61443,7.08113,0 27.61443,7.09920,0 27.74127,7.09920,0 27.74127,7.11727,0 27.65067,7.11727,0 27.65067,7.13534,0 27.61443,7.13534,0 27.61443,7.17148,0 27.57819,7.17148,0 27.57819,7.15341,0 27.56007,7.15341,0 27.56007,7.13534,0 27.52383,7.13534,0 27.52383,7.11727,0 27.50571,7.11727,0 27.50571,7.09920,0 27.48759,7.09920,0 27.48759,7.20762,0 27.45135,7.20762,0 27.45135,7.06306,0 27.41511,7.06306,0 27.41511,7.04500,0 27.37887,7.04500,0 27.37887,7.11727,0 27.34263,7.11727,0 27.34263,7.13534,0 27.32451,7.13534,0 27.32451,7.17148,0 27.30639,7.17148,0 27.30639,7.20762,0 27.28827,7.20762,0 27.28827,7.22570,0 27.21579,7.22570,0 27.21579,7.18955,0 27.19767,7.18955,0 27.19767,7.17148,0 27.17954,7.17148,0 27.17954,7.13534,0 27.16142,7.13534,0 27.16142,7.11727,0 26.99834,7.11727,0 26.99834,7.06306,0 27.03458,7.06306,0 27.03458,7.04500,0 27.05270,7.04500,0 27.05270,7.02693,0 26.90774,7.02693,0 26.90774,7.00887,0 27.08894,7.00887,0 27.08894,6.91855,0 27.10706,6.91855,0 27.10706,6.99080,0 27.16142,6.99080,0 27.16142,6.97274,0 27.17954,6.97274,0 27.17954,6.91855,0 27.23391,6.91855,0 27.23391,6.90049,0 27.21579,6.90049,0 27.21579,6.86437,0 27.19767,6.86437,0 27.19767,6.84631,0 27.17954,6.84631,0 27.17954,6.82825,0 27.16142,6.82825,0 27.16142,6.79213,0 27.14330,6.79213,0 27.14330,6.77408,0 27.12518,6.77408,0 27.12518,6.75602,0 27.10706,6.75602,0 27.10706,6.70186,0 27.07082,6.70186,0 27.07082,6.68380,0 27.05270,6.68380,0 27.05270,6.66575,0 27.01646,6.66575,0 27.01646,6.68380,0 26.99834,6.68380,0 26.99834,6.66575,0 26.94398,6.66575,0 26.94398,6.64770,0 26.85338,6.64770,0 26.85338,6.66575,0 26.83526,6.66575,0 26.83526,6.68380,0 26.79902,6.68380,0 26.79902,6.73797,0 26.78090,6.73797,0 26.78090,6.75602,0 26.72654,6.75602,0 26.72654,6.68380,0 26.67218,6.68380,0 26.67218,6.66575,0 26.65406,6.66575,0 26.65406,6.75602,0 26.58157,6.75602,0 26.58157,6.73797,0 26.56345,6.73797,0 26.56345,6.71991,0 26.58157,6.71991,0 26.58157,6.68380,0 26.59970,6.68380,0 26.59970,6.64770,0 26.61782,6.64770,0 26.61782,6.59355,0 26.59970,6.59355,0 26.59970,6.52135,0 26.58157,6.52135,0 26.58157,6.50330,0 26.56345,6.50330,0 26.56345,6.46721,0 26.54533,6.46721,0 26.54533,6.37699,0 26.61782,6.37699,0 26.61782,6.35895,0 26.63594,6.35895,0 26.63594,6.19660,0 26.65406,6.19660,0 26.65406,6.28679,0 26.69030,6.28679,0 26.69030,6.26875,0 26.78090,6.26875,0 26.78090,6.25071,0 26.79902,6.25071,0 26.79902,6.23267,0 26.81714,6.23267,0 26.81714,6.16053,0 26.83526,6.16053,0 26.83526,6.05233,0 26.81714,6.05233,0 26.81714,6.03430,0 26.79902,6.03430,0 26.79902,6.01627,0 26.74466,6.01627,0 26.74466,5.99824,0 26.72654,5.99824,0 26.72654,5.94415,0 26.70842,5.94415,0 26.70842,5.92612,0 26.72654,5.92612,0 26.72654,5.90810,0 26.76278,5.90810,0 26.76278,5.85402,0 26.74466,5.85402,0 26.74466,5.76390,0 26.72654,5.76390,0 26.72654,5.69181,0 26.69030,5.69181,0 26.69030,5.67379,0 26.70842,5.67379,0 26.70842,5.65577,0 26.72654,5.65577,0 26.72654,5.58370,0 26.69030,5.58370,0 26.69030,5.56569,0 26.67218,5.56569,0 26.67218,5.58370,0 26.61782,5.58370,0 26.61782,5.52965,0 26.59970,5.52965,0 26.59970,5.51164,0 26.58157,5.51164,0 26.58157,5.49362,0 26.56345,5.49362,0 26.56345,5.61974,0 26.58157,5.61974,0 26.58157,5.69181,0 26.59970,5.69181,0 26.59970,5.81797,0 26.61782,5.81797,0 26.61782,5.90810,0 26.63594,5.90810,0 26.63594,5.92612,0 26.61782,5.92612,0 26.61782,5.94415,0 26.63594,5.94415,0 26.63594,5.99824,0 26.61782,5.99824,0 26.61782,6.01627,0 26.58157,6.01627,0 26.58157,6.03430,0 26.56345,6.03430,0 26.56345,6.12446,0 26.47285,6.12446,0 26.47285,6.14249,0 26.45473,6.14249,0 26.45473,6.17856,0 26.43661,6.17856,0 26.43661,6.23267,0 26.41849,6.23267,0 26.41849,6.26875,0 26.36413,6.26875,0 26.36413,6.25071,0 26.34601,6.25071,0 26.34601,6.23267,0 26.32789,6.23267,0 26.32789,6.21464,0 26.30977,6.21464,0 26.30977,6.23267,0 26.25541,6.23267,0 26.25541,6.21464,0 26.18293,6.21464,0 26.18293,6.23267,0 26.16481,6.23267,0 26.16481,6.25071,0 26.14669,6.25071,0 26.14669,6.26875,0 26.05609,6.26875,0</coordinates></LinearRing></outerBoundaryIs></Polygon></Placemark><Placemark><name>core proposal 2 (1,871,200 ha, support 0.59)</name><description><![CDATA[core · 1,871,200 ha · 11 clusters, 178 people (GHSL lower bound), 0 new since 2015<br/>fire 3,856/1000km2/yr, 5638 fronts (97% transhumance, 3517 ≥150 km)<br/>clearing since 2020 0.64 km2; cropland 0.0→0.03%; mining reported/candidates/top5% 0/1/26<br/>boundary: Boro on the E/SW (104 km); Low hill – J. ABU RASEIN – J. NGAYA ridge on the W/NW (94 km); SDN border on the NW/W (90 km); unnamed river (order 4) on the W/N (88 km); CAF border on the S/SW (86 km); J. KOAYA – J. NOAYA 4428 – J. HELISI ridge on the NW/W (84 km); 422 km along a geological contact only (not visible on the ground — needs beacons); landmarks on the unnamed stretches: Kara (1930s village) (SE), Abu Ras (1930s village) (S), Monaya Toboja (1930s village) (NE), J. NASR – J. TELESU (E), Abu Zala (1930s village) (E), J. BANGILI (SE), Rabeh (1930s village) (SE), Bake (1930s village) (SE) — 36% follows no nameable feature]]></description><styleUrl>#core</styleUrl><MultiGeometry><Polygon><outerBoundaryIs><LinearRing><coordinates>25.65744,8.32955,0 25.76616,8.32955,0 25.76616,8.31143,0 25.80240,8.31143,0 25.80240,8.32955,0 25.85676,8.32955,0 25.85676,8.29332,0 25.83864,8.29332,0 25.83864,8.23897,0 25.85676,8.23897,0 25.85676,8.22085,0 25.87488,8.22085,0 25.87488,8.20274,0 25.89300,8.20274,0 25.89300,8.18462,0 25.91112,8.18462,0 25.91112,8.13029,0 25.82052,8.13029,0 25.82052,8.11217,0 25.80240,8.11217,0 25.80240,8.09406,0 25.82052,8.09406,0 25.82052,8.07596,0 25.87488,8.07596,0 25.87488,8.02163,0 25.85676,8.02163,0 25.85676,7.93111,0 25.82052,7.93111,0 25.82052,7.82251,0 25.89300,7.82251,0 25.89300,7.84061,0 25.91112,7.84061,0 25.91112,7.87681,0 25.92924,7.87681,0 25.92924,7.89491,0 25.94736,7.89491,0 25.94736,7.91301,0 25.96548,7.91301,0 25.96548,7.93111,0 25.98360,7.93111,0 25.98360,7.91301,0 26.00173,7.91301,0 26.00173,7.82251,0 26.05609,7.82251,0 26.05609,7.84061,0 26.07421,7.84061,0 26.07421,7.85871,0 26.11045,7.85871,0 26.11045,7.87681,0 26.20105,7.87681,0 26.20105,7.85871,0 26.21917,7.85871,0 26.21917,7.84061,0 26.20105,7.84061,0 26.20105,7.80442,0 26.18293,7.80442,0 26.18293,7.78632,0 26.16481,7.78632,0 26.16481,7.76822,0 26.14669,7.76822,0 26.14669,7.75013,0 26.12857,7.75013,0 26.12857,7.73203,0 26.11045,7.73203,0 26.11045,7.71394,0 26.09233,7.71394,0 26.09233,7.69585,0 26.07421,7.69585,0 26.07421,7.62349,0 26.05609,7.62349,0 26.05609,7.58731,0 26.00173,7.58731,0 26.00173,7.56922,0 25.98360,7.56922,0 25.98360,7.53305,0 25.94736,7.53305,0 25.94736,7.55113,0 25.91112,7.55113,0 25.91112,7.56922,0 25.92924,7.56922,0 25.92924,7.65967,0 25.82052,7.65967,0 25.82052,7.71394,0 25.83864,7.71394,0 25.83864,7.73203,0 25.82052,7.73203,0 25.82052,7.75013,0 25.72992,7.75013,0 25.72992,7.65967,0 25.69368,7.65967,0 25.69368,7.64158,0 25.67556,7.64158,0 25.67556,7.65967,0 25.63932,7.65967,0 25.63932,7.58731,0 25.62120,7.58731,0 25.62120,7.56922,0 25.60308,7.56922,0 25.60308,7.55113,0 25.58496,7.55113,0 25.58496,7.53305,0 25.51248,7.53305,0 25.51248,7.51496,0 25.49436,7.51496,0 25.49436,7.53305,0 25.45812,7.53305,0 25.45812,7.46071,0 25.53060,7.46071,0 25.53060,7.44263,0 25.54872,7.44263,0 25.54872,7.42455,0 25.56684,7.42455,0 25.56684,7.40647,0 25.58496,7.40647,0 25.58496,7.38839,0 25.62120,7.38839,0 25.62120,7.37031,0 25.63932,7.37031,0 25.63932,7.35223,0 25.65744,7.35223,0 25.65744,7.33415,0 25.60308,7.33415,0 25.60308,7.29800,0 25.58496,7.29800,0 25.58496,7.27992,0 25.56684,7.27992,0 25.56684,7.24377,0 25.51248,7.24377,0 25.51248,7.26185,0 25.49436,7.26185,0 25.49436,7.27992,0 25.45812,7.27992,0 25.45812,7.29800,0 25.42188,7.29800,0 25.42188,7.31607,0 25.38563,7.31607,0 25.38563,7.38839,0 25.31315,7.38839,0 25.31315,7.40647,0 25.29503,7.40647,0 25.29503,7.47879,0 25.22255,7.47879,0 25.22255,7.49688,0 25.20443,7.49688,0 25.20443,7.53305,0 25.18631,7.53305,0 25.18631,7.55113,0 25.20443,7.55113,0 25.20443,7.60540,0 25.22255,7.60540,0 25.22255,7.64158,0 25.29503,7.64158,0 25.29503,7.69585,0 25.31315,7.69585,0 25.31315,7.73203,0 25.33127,7.73203,0 25.33127,7.75013,0 25.34939,7.75013,0 25.34939,7.76822,0 25.36751,7.76822,0 25.36751,7.78632,0 25.42188,7.78632,0 25.42188,7.80442,0 25.45812,7.80442,0 25.45812,7.82251,0 25.49436,7.82251,0 25.49436,7.84061,0 25.56684,7.84061,0 25.56684,7.93111,0 25.54872,7.93111,0 25.54872,8.00353,0 25.65744,8.00353,0 25.65744,8.05785,0 25.63932,8.05785,0 25.63932,8.03974,0 25.62120,8.03974,0 25.62120,8.05785,0 25.60308,8.05785,0 25.60308,8.07596,0 25.58496,8.07596,0 25.58496,8.09406,0 25.56684,8.09406,0 25.56684,8.11217,0 25.58496,8.11217,0 25.58496,8.18462,0 25.56684,8.18462,0 25.56684,8.23897,0 25.54872,8.23897,0 25.54872,8.25708,0 25.53060,8.25708,0 25.53060,8.27520,0 25.56684,8.27520,0 25.56684,8.34767,0 25.54872,8.34767,0 25.54872,8.40204,0 25.58496,8.40204,0 25.58496,8.42016,0 25.62120,8.42016,0 25.62120,8.43829,0 25.63932,8.43829,0 25.63932,8.34767,0 25.65744,8.34767,0 25.65744,8.32955,0</coordinates></LinearRing></outerBoundaryIs></Polygon><Polygon><outerBoundaryIs><LinearRing><coordinates>24.57022,8.27520,0 24.55210,8.27520,0 24.55210,8.22085,0 24.46150,8.22085,0 24.46150,8.23897,0 24.40714,8.23897,0 24.40714,8.25708,0 24.35278,8.25708,0 24.35278,8.27520,0 24.29842,8.27520,0 24.29842,8.29332,0 24.28030,8.29332,0 24.28030,8.31143,0 24.26218,8.31143,0 24.26218,8.32955,0 24.24406,8.32955,0 24.24406,8.34767,0 24.22594,8.34767,0 24.22594,8.36579,0 24.29842,8.36579,0 24.29842,8.40204,0 24.47962,8.40204,0 24.47962,8.42016,0 24.51586,8.42016,0 24.51586,8.43829,0 24.53398,8.43829,0 24.53398,8.36579,0 24.55210,8.36579,0 24.55210,8.34767,0 24.57022,8.34767,0 24.57022,8.27520,0</coordinates></LinearRing></outerBoundaryIs></Polygon><Polygon><outerBoundaryIs><LinearRing><coordinates>26.78090,9.58187,0 26.78090,9.56369,0 26.79902,9.56369,0 26.79902,9.50915,0 26.78090,9.50915,0 26.78090,9.49098,0 26.74466,9.49098,0 26.74466,9.56369,0 26.72654,9.56369,0 26.72654,9.54551,0 26.70842,9.54551,0 26.70842,9.49098,0 26.63594,9.49098,0 26.63594,9.43645,0 26.59970,9.43645,0 26.59970,9.41828,0 26.54533,9.41828,0 26.54533,9.40011,0 26.50909,9.40011,0 26.50909,9.38194,0 26.49097,9.38194,0 26.49097,9.36377,0 26.43661,9.36377,0 26.43661,9.34560,0 26.41849,9.34560,0 26.41849,9.30926,0 26.40037,9.30926,0 26.40037,9.29110,0 26.41849,9.29110,0 26.41849,9.27293,0 26.45473,9.27293,0 26.45473,9.25477,0 26.49097,9.25477,0 26.49097,9.20028,0 26.50909,9.20028,0 26.50909,9.16396,0 26.52721,9.16396,0 26.52721,9.09133,0 26.59970,9.09133,0 26.59970,9.07317,0 26.54533,9.07317,0 26.54533,9.05502,0 26.52721,9.05502,0 26.52721,9.03686,0 26.49097,9.03686,0 26.49097,9.01871,0 26.47285,9.01871,0 26.47285,9.00056,0 26.43661,9.00056,0 26.43661,9.01871,0 26.36413,9.01871,0 26.36413,8.94611,0 26.32789,8.94611,0 26.32789,8.96426,0 26.27353,8.96426,0 26.27353,8.94611,0 26.21917,8.94611,0 26.21917,9.01871,0 26.20105,9.01871,0 26.20105,9.03686,0 26.18293,9.03686,0 26.18293,9.05502,0 26.11045,9.05502,0 26.11045,9.03686,0 26.09233,9.03686,0 26.09233,9.00056,0 26.12857,9.00056,0 26.12857,8.96426,0 26.14669,8.96426,0 26.14669,8.92796,0 26.11045,8.92796,0 26.11045,8.94611,0 26.09233,8.94611,0 26.09233,8.92796,0 26.00173,8.92796,0 26.00173,8.80095,0 26.03797,8.80095,0 26.03797,8.81909,0 26.09233,8.81909,0 26.09233,8.83723,0 26.11045,8.83723,0 26.11045,8.85538,0 26.12857,8.85538,0 26.12857,8.87352,0 26.18293,8.87352,0 26.18293,8.83723,0 26.20105,8.83723,0 26.20105,8.78281,0 26.09233,8.78281,0 26.09233,8.76467,0 26.07421,8.76467,0 26.07421,8.74653,0 26.05609,8.74653,0 26.05609,8.67398,0 26.01985,8.67398,0 26.01985,8.63771,0 25.96548,8.63771,0 25.96548,8.65584,0 25.94736,8.65584,0 25.94736,8.67398,0 25.89300,8.67398,0 25.89300,8.65584,0 25.87488,8.65584,0 25.87488,8.69212,0 25.76616,8.69212,0 25.76616,8.67398,0 25.74804,8.67398,0 25.74804,8.65584,0 25.72992,8.65584,0 25.72992,8.61958,0 25.74804,8.61958,0 25.74804,8.52892,0 25.72992,8.52892,0 25.72992,8.56518,0 25.63932,8.56518,0 25.63932,8.52892,0 25.69368,8.52892,0 25.69368,8.49267,0 25.63932,8.49267,0 25.63932,8.51079,0 25.62120,8.51079,0 25.62120,8.52892,0 25.60308,8.52892,0 25.60308,8.54705,0 25.58496,8.54705,0 25.58496,8.56518,0 25.56684,8.56518,0 25.56684,8.58331,0 25.54872,8.58331,0 25.54872,8.60144,0 25.51248,8.60144,0 25.51248,8.61958,0 25.47624,8.61958,0 25.47624,8.65584,0 25.44000,8.65584,0 25.44000,8.71025,0 25.40376,8.71025,0 25.40376,8.69212,0 25.36751,8.69212,0 25.36751,8.67398,0 25.33127,8.67398,0 25.33127,8.65584,0 25.29503,8.65584,0 25.29503,8.60144,0 25.31315,8.60144,0 25.31315,8.54705,0 25.33127,8.54705,0 25.33127,8.52892,0 25.31315,8.52892,0 25.31315,8.51079,0 25.33127,8.51079,0 25.33127,8.47454,0 25.31315,8.47454,0 25.31315,8.45641,0 25.33127,8.45641,0 25.33127,8.43829,0 25.36751,8.43829,0 25.36751,8.42016,0 25.38563,8.42016,0 25.38563,8.40204,0 25.42188,8.40204,0 25.42188,8.36579,0 25.25879,8.36579,0 25.25879,8.34767,0 25.24067,8.34767,0 25.24067,8.38392,0 25.22255,8.38392,0 25.22255,8.47454,0 25.18631,8.47454,0 25.18631,8.49267,0 25.16819,8.49267,0 25.16819,8.52892,0 25.15007,8.52892,0 25.15007,8.60144,0 25.16819,8.60144,0 25.16819,8.61958,0 25.18631,8.61958,0 25.18631,8.63771,0 25.22255,8.63771,0 25.22255,8.65584,0 25.24067,8.65584,0 25.24067,8.67398,0 25.22255,8.67398,0 25.22255,8.69212,0 25.20443,8.69212,0 25.20443,8.72839,0 25.25879,8.72839,0 25.25879,8.74653,0 25.24067,8.74653,0 25.24067,8.76467,0 25.20443,8.76467,0 25.20443,8.78281,0 25.16819,8.78281,0 25.16819,8.80095,0 25.20443,8.80095,0 25.20443,8.81909,0 25.22255,8.81909,0 25.22255,8.83723,0 25.25879,8.83723,0 25.25879,8.85538,0 25.29503,8.85538,0 25.29503,8.89167,0 25.33127,8.89167,0 25.33127,8.90982,0 25.34939,8.90982,0 25.34939,8.89167,0 25.38563,8.89167,0 25.38563,8.98241,0 25.62120,8.98241,0 25.62120,8.96426,0 25.63932,8.96426,0 25.63932,8.90982,0 25.67556,8.90982,0 25.67556,8.92796,0 25.69368,8.92796,0 25.69368,8.90982,0 25.72992,8.90982,0 25.72992,8.83723,0 25.71180,8.83723,0 25.71180,8.76467,0 25.72992,8.76467,0 25.72992,8.80095,0 25.74804,8.80095,0 25.74804,8.89167,0 25.80240,8.89167,0 25.80240,8.90982,0 25.82052,8.90982,0 25.82052,8.92796,0 25.83864,8.92796,0 25.83864,9.00056,0 25.92924,9.00056,0 25.92924,9.05502,0 25.89300,9.05502,0 25.89300,9.09133,0 25.87488,9.09133,0 25.87488,9.10948,0 25.85676,9.10948,0 25.85676,9.12764,0 25.76616,9.12764,0 25.76616,9.14580,0 25.74804,9.14580,0 25.74804,9.16396,0 25.76616,9.16396,0 25.76616,9.18212,0 25.78428,9.18212,0 25.78428,9.20028,0 25.80240,9.20028,0 25.80240,9.18212,0 25.85676,9.18212,0 25.85676,9.20028,0 25.87488,9.20028,0 25.87488,9.23660,0 25.89300,9.23660,0 25.89300,9.27293,0 25.92924,9.27293,0 25.92924,9.36377,0 25.96548,9.36377,0 25.96548,9.34560,0 26.00173,9.34560,0 26.00173,9.32743,0 26.05609,9.32743,0 26.05609,9.34560,0 26.07421,9.34560,0 26.07421,9.36377,0 26.16481,9.36377,0 26.16481,9.34560,0 26.20105,9.34560,0 26.20105,9.36377,0 26.29165,9.36377,0 26.29165,9.41828,0 26.34601,9.41828,0 26.34601,9.43645,0 26.38225,9.43645,0 26.38225,9.45463,0 26.40037,9.45463,0 26.40037,9.56369,0 26.43661,9.56369,0 26.43661,9.54551,0 26.45473,9.54551,0 26.45473,9.52733,0 26.47285,9.52733,0 26.47285,9.54551,0 26.52721,9.54551,0 26.52721,9.56369,0 26.56345,9.56369,0 26.56345,9.60005,0 26.58157,9.60005,0 26.58157,9.65460,0 26.65406,9.65460,0 26.65406,9.67278,0 26.79902,9.67278,0 26.79902,9.63641,0 26.78090,9.63641,0 26.78090,9.60005,0 26.79902,9.60005,0 26.79902,9.58187,0 26.78090,9.58187,0</coordinates></LinearRing></outerBoundaryIs></Polygon><Polygon><outerBoundaryIs><LinearRing><coordinates>24.22594,9.45463,0 24.22594,9.41828,0 24.24406,9.41828,0 24.24406,9.40011,0 24.26218,9.40011,0 24.26218,9.38194,0 24.37090,9.38194,0 24.37090,9.34560,0 24.38902,9.34560,0 24.38902,9.32743,0 24.37090,9.32743,0 24.37090,9.30926,0 24.35278,9.30926,0 24.35278,9.27293,0 24.37090,9.27293,0 24.37090,9.25477,0 24.38902,9.25477,0 24.38902,9.23660,0 24.40714,9.23660,0 24.40714,9.21844,0 24.42526,9.21844,0 24.42526,9.10948,0 24.40714,9.10948,0 24.40714,9.09133,0 24.38902,9.09133,0 24.38902,9.07317,0 24.35278,9.07317,0 24.35278,9.05502,0 24.31654,9.05502,0 24.31654,9.01871,0 24.29842,9.01871,0 24.29842,8.98241,0 24.26218,8.98241,0 24.26218,8.96426,0 24.24406,8.96426,0 24.24406,8.94611,0 24.22594,8.94611,0 24.22594,8.92796,0 24.20782,8.92796,0 24.20782,8.90982,0 24.22594,8.90982,0 24.22594,8.87352,0 24.24406,8.87352,0 24.24406,8.85538,0 24.26218,8.85538,0 24.26218,8.83723,0 24.28030,8.83723,0 24.28030,8.85538,0 24.29842,8.85538,0 24.29842,8.83723,0 24.31654,8.83723,0 24.31654,8.81909,0 24.29842,8.81909,0 24.29842,8.80095,0 24.26218,8.80095,0 24.26218,8.78281,0 24.22594,8.78281,0 24.22594,8.76467,0 24.20782,8.76467,0 24.20782,8.74653,0 24.18969,8.74653,0 24.18969,8.72839,0 24.17157,8.72839,0 24.17157,8.71025,0 24.15345,8.71025,0 24.15345,8.67398,0 24.11721,8.67398,0 24.11721,8.76467,0 24.06285,8.76467,0 24.06285,8.74653,0 24.00849,8.74653,0 24.00849,8.69212,0 23.99037,8.69212,0 23.99037,8.71025,0 23.93601,8.71025,0 23.93601,8.74653,0 23.89977,8.74653,0 23.89977,8.72839,0 23.88165,8.72839,0 23.88165,8.78281,0 23.89977,8.78281,0 23.89977,8.85538,0 23.88165,8.85538,0 23.88165,8.87352,0 23.89977,8.87352,0 23.89977,8.92796,0 23.91789,8.92796,0 23.91789,8.94611,0 23.93601,8.94611,0 23.93601,8.96426,0 23.95413,8.96426,0 23.95413,8.98241,0 23.97225,8.98241,0 23.97225,9.00056,0 23.99037,9.00056,0 23.99037,9.01871,0 24.00849,9.01871,0 24.00849,9.07317,0 24.02661,9.07317,0 24.02661,9.09133,0 24.11721,9.09133,0 24.11721,9.16396,0 24.18969,9.16396,0 24.18969,9.18212,0 24.20782,9.18212,0 24.20782,9.20028,0 24.22594,9.20028,0 24.22594,9.23660,0 24.29842,9.23660,0 24.29842,9.29110,0 24.24406,9.29110,0 24.24406,9.30926,0 24.17157,9.30926,0 24.17157,9.32743,0 24.15345,9.32743,0 24.15345,9.34560,0 24.13533,9.34560,0 24.13533,9.36377,0 24.11721,9.36377,0 24.11721,9.38194,0 24.06285,9.38194,0 24.06285,9.43645,0 23.97225,9.43645,0 23.97225,9.47280,0 23.95413,9.47280,0 23.95413,9.49098,0 23.93601,9.49098,0 23.93601,9.50915,0 23.99037,9.50915,0 23.99037,9.52733,0 24.00849,9.52733,0 24.00849,9.50915,0 24.06285,9.50915,0 24.06285,9.49098,0 24.09909,9.49098,0 24.09909,9.45463,0 24.18969,9.45463,0 24.18969,9.43645,0 24.20782,9.43645,0 24.20782,9.45463,0 24.22594,9.45463,0</coordinates></LinearRing></outerBoundaryIs></Polygon><Polygon><outerBoundaryIs><LinearRing><coordinates>25.09571,9.87288,0 25.09571,9.83649,0 25.07759,9.83649,0 25.07759,9.80010,0 25.05947,9.80010,0 25.05947,9.74553,0 25.04135,9.74553,0 25.04135,9.69097,0 25.02323,9.69097,0 25.02323,9.67278,0 25.00511,9.67278,0 25.00511,9.60005,0 25.02323,9.60005,0 25.02323,9.56369,0 25.04135,9.56369,0 25.04135,9.54551,0 25.02323,9.54551,0 25.02323,9.47280,0 25.04135,9.47280,0 25.04135,9.36377,0 25.02323,9.36377,0 25.02323,9.32743,0 25.00511,9.32743,0 25.00511,9.30926,0 24.98699,9.30926,0 24.98699,9.29110,0 24.91451,9.29110,0 24.91451,9.21844,0 24.95075,9.21844,0 24.95075,9.20028,0 24.93263,9.20028,0 24.93263,9.14580,0 24.91451,9.14580,0 24.91451,9.12764,0 24.89639,9.12764,0 24.89639,9.10948,0 24.87827,9.10948,0 24.87827,9.07317,0 24.89639,9.07317,0 24.89639,9.03686,0 24.87827,9.03686,0 24.87827,8.98241,0 24.86015,8.98241,0 24.86015,8.94611,0 24.84203,8.94611,0 24.84203,8.92796,0 24.76954,8.92796,0 24.76954,8.90982,0 24.69706,8.90982,0 24.69706,8.94611,0 24.64270,8.94611,0 24.64270,8.92796,0 24.62458,8.92796,0 24.62458,8.89167,0 24.66082,8.89167,0 24.66082,8.87352,0 24.67894,8.87352,0 24.67894,8.89167,0 24.69706,8.89167,0 24.69706,8.87352,0 24.71518,8.87352,0 24.71518,8.85538,0 24.73330,8.85538,0 24.73330,8.81909,0 24.82391,8.81909,0 24.82391,8.80095,0 24.84203,8.80095,0 24.84203,8.81909,0 24.91451,8.81909,0 24.91451,8.72839,0 25.02323,8.72839,0 25.02323,8.71025,0 25.04135,8.71025,0 25.04135,8.69212,0 25.05947,8.69212,0 25.05947,8.67398,0 25.07759,8.67398,0 25.07759,8.65584,0 25.09571,8.65584,0 25.09571,8.63771,0 25.13195,8.63771,0 25.13195,8.60144,0 25.09571,8.60144,0 25.09571,8.58331,0 25.07759,8.58331,0 25.07759,8.56518,0 25.04135,8.56518,0 25.04135,8.54705,0 25.02323,8.54705,0 25.02323,8.52892,0 25.00511,8.52892,0 25.00511,8.51079,0 24.98699,8.51079,0 24.98699,8.49267,0 24.91451,8.49267,0 24.91451,8.52892,0 24.89639,8.52892,0 24.89639,8.54705,0 24.91451,8.54705,0 24.91451,8.56518,0 24.89639,8.56518,0 24.89639,8.61958,0 24.87827,8.61958,0 24.87827,8.65584,0 24.82391,8.65584,0 24.82391,8.61958,0 24.80579,8.61958,0 24.80579,8.63771,0 24.78766,8.63771,0 24.78766,8.65584,0 24.76954,8.65584,0 24.76954,8.67398,0 24.75142,8.67398,0 24.75142,8.69212,0 24.73330,8.69212,0 24.73330,8.72839,0 24.71518,8.72839,0 24.71518,8.76467,0 24.69706,8.76467,0 24.69706,8.78281,0 24.66082,8.78281,0 24.66082,8.80095,0 24.64270,8.80095,0 24.64270,8.81909,0 24.62458,8.81909,0 24.62458,8.83723,0 24.60646,8.83723,0 24.60646,8.85538,0 24.58834,8.85538,0 24.58834,8.92796,0 24.57022,8.92796,0 24.57022,8.94611,0 24.55210,8.94611,0 24.55210,9.03686,0 24.57022,9.03686,0 24.57022,9.07317,0 24.58834,9.07317,0 24.58834,9.09133,0 24.60646,9.09133,0 24.60646,9.12764,0 24.62458,9.12764,0 24.62458,9.16396,0 24.64270,9.16396,0 24.64270,9.18212,0 24.66082,9.18212,0 24.66082,9.34560,0 24.67894,9.34560,0 24.67894,9.41828,0 24.69706,9.41828,0 24.69706,9.43645,0 24.71518,9.43645,0 24.71518,9.45463,0 24.89639,9.45463,0 24.89639,9.47280,0 24.91451,9.47280,0 24.91451,9.49098,0 24.95075,9.49098,0 24.95075,9.54551,0 24.93263,9.54551,0 24.93263,9.61823,0 24.95075,9.61823,0 24.95075,9.65460,0 24.93263,9.65460,0 24.93263,9.67278,0 24.91451,9.67278,0 24.91451,9.76372,0 24.89639,9.76372,0 24.89639,9.78191,0 24.87827,9.78191,0 24.87827,9.81830,0 24.93263,9.81830,0 24.93263,9.87288,0 24.95075,9.87288,0 24.95075,9.89108,0 24.96887,9.89108,0 24.96887,9.90927,0 24.95075,9.90927,0 24.95075,9.96387,0 25.00511,9.96387,0 25.00511,10.01848,0 25.04135,10.01848,0 25.04135,10.00028,0 25.05947,10.00028,0 25.05947,9.98207,0 25.07759,9.98207,0 25.07759,9.94567,0 25.09571,9.94567,0 25.09571,9.90927,0 25.11383,9.90927,0 25.11383,9.87288,0 25.09571,9.87288,0</coordinates></LinearRing></outerBoundaryIs></Polygon></MultiGeometry></Placemark><Placemark><name>core proposal 3 (586,800 ha, support 0.68)</name><description><![CDATA[corridor · 586,800 ha · 9 clusters, 68 people (GHSL lower bound), 0 new since 2015<br/>fire 4,499/1000km2/yr, 2365 fronts (98% transhumance, 1517 ≥150 km)<br/>clearing since 2020 0.22 km2; cropland 0.0→0.0%; mining reported/candidates/top5% 0/0/0<br/>boundary: Nahr al Jur on the W/SE (120 km); Ibba on the N/E (60 km); Uakie (1930s sheet) on the NW (24 km); K. Mogi (1930s sheet) on the SW (24 km); K. Dambu (1930s sheet) on the NE (22 km); K. Rose (1930s sheet) on the E/SE (20 km); 12 km along a geological contact only (not visible on the ground — needs beacons); landmarks on the unnamed stretches: Darumba (1930s village) (NE), Kisi (1930s village) (SE), Ironstone (1930s village) (N), Nabania (1930s village) (N), Mapus o (1930s village) (N), Bandima (1930s village) (NE), Nagbula (1930s village) (NE), Nanbala (1930s village) (NE) — 30% follows no nameable feature]]></description><styleUrl>#core</styleUrl><Polygon><outerBoundaryIs><LinearRing><coordinates>28.57481,5.83599,0 28.59293,5.83599,0 28.59293,5.81797,0 28.62917,5.81797,0 28.62917,5.79994,0 28.64729,5.79994,0 28.64729,5.78192,0 28.66541,5.78192,0 28.66541,5.76390,0 28.68353,5.76390,0 28.68353,5.74588,0 28.70165,5.74588,0 28.70165,5.72785,0 28.71977,5.72785,0 28.71977,5.70983,0 28.73789,5.70983,0 28.73789,5.69181,0 28.75601,5.69181,0 28.75601,5.67379,0 28.77413,5.67379,0 28.77413,5.56569,0 28.79225,5.56569,0 28.79225,5.42157,0 28.77413,5.42157,0 28.77413,5.40356,0 28.71977,5.40356,0 28.71977,5.38555,0 28.77413,5.38555,0 28.77413,5.31351,0 28.71977,5.31351,0 28.71977,5.29550,0 28.70165,5.29550,0 28.70165,5.18746,0 28.71977,5.18746,0 28.71977,5.16945,0 28.73789,5.16945,0 28.73789,5.15145,0 28.75601,5.15145,0 28.75601,5.13344,0 28.79225,5.13344,0 28.79225,5.07943,0 28.82849,5.07943,0 28.82849,5.06143,0 28.90097,5.06143,0 28.90097,5.09744,0 28.91909,5.09744,0 28.91909,5.13344,0 28.93721,5.13344,0 28.93721,5.16945,0 28.95533,5.16945,0 28.95533,5.20546,0 29.02782,5.20546,0 29.02782,5.16945,0 29.04594,5.16945,0 29.04594,5.13344,0 29.06406,5.13344,0 29.06406,5.11544,0 29.08218,5.11544,0 29.08218,5.00743,0 29.10030,5.00743,0 29.10030,4.98943,0 29.02782,4.98943,0 29.02782,4.97143,0 28.99158,4.97143,0 28.99158,4.95343,0 28.97345,4.95343,0 28.97345,4.93543,0 28.93721,4.93543,0 28.93721,4.91743,0 28.88285,4.91743,0 28.88285,4.89943,0 28.84661,4.89943,0 28.84661,4.91743,0 28.82849,4.91743,0 28.82849,4.93543,0 28.81037,4.93543,0 28.81037,4.97143,0 28.79225,4.97143,0 28.79225,4.98943,0 28.82849,4.98943,0 28.82849,5.04343,0 28.77413,5.04343,0 28.77413,5.00743,0 28.62917,5.00743,0 28.62917,5.02543,0 28.57481,5.02543,0 28.57481,5.00743,0 28.53857,5.00743,0 28.53857,5.02543,0 28.50233,5.02543,0 28.50233,5.00743,0 28.44797,5.00743,0 28.44797,4.93543,0 28.50233,4.93543,0 28.50233,4.88144,0 28.53857,4.88144,0 28.53857,4.86344,0 28.55669,4.86344,0 28.55669,4.79146,0 28.57481,4.79146,0 28.57481,4.75547,0 28.50233,4.75547,0 28.50233,4.71948,0 28.48421,4.71948,0 28.48421,4.68349,0 28.42985,4.68349,0 28.42985,4.70149,0 28.41173,4.70149,0 28.41173,4.71948,0 28.37548,4.71948,0 28.37548,4.73747,0 28.28488,4.73747,0 28.28488,4.80945,0 28.26676,4.80945,0 28.26676,4.82745,0 28.24864,4.82745,0 28.24864,4.89943,0 28.23052,4.89943,0 28.23052,4.93543,0 28.21240,4.93543,0 28.21240,5.04343,0 28.23052,5.04343,0 28.23052,5.09744,0 28.21240,5.09744,0 28.21240,5.11544,0 28.19428,5.11544,0 28.19428,5.13344,0 28.17616,5.13344,0 28.17616,5.18746,0 28.15804,5.18746,0 28.15804,5.20546,0 28.13992,5.20546,0 28.13992,5.24148,0 28.12180,5.24148,0 28.12180,5.33152,0 28.10368,5.33152,0 28.10368,5.36754,0 28.06744,5.36754,0 28.06744,5.40356,0 28.04932,5.40356,0 28.04932,5.43958,0 28.06744,5.43958,0 28.06744,5.45760,0 28.04932,5.45760,0 28.04932,5.56569,0 28.06744,5.56569,0 28.06744,5.58370,0 28.12180,5.58370,0 28.12180,5.52965,0 28.13992,5.52965,0 28.13992,5.51164,0 28.19428,5.51164,0 28.19428,5.49362,0 28.21240,5.49362,0 28.21240,5.47561,0 28.35736,5.47561,0 28.35736,5.40356,0 28.37548,5.40356,0 28.37548,5.38555,0 28.46609,5.38555,0 28.46609,5.45760,0 28.48421,5.45760,0 28.48421,5.47561,0 28.50233,5.47561,0 28.50233,5.49362,0 28.48421,5.49362,0 28.48421,5.51164,0 28.46609,5.51164,0 28.46609,5.54767,0 28.55669,5.54767,0 28.55669,5.60172,0 28.57481,5.60172,0 28.57481,5.61974,0 28.55669,5.61974,0 28.55669,5.65577,0 28.57481,5.65577,0 28.57481,5.83599,0</coordinates></LinearRing></outerBoundaryIs></Polygon></Placemark></Document></kml>