<?xml version="1.0" encoding="UTF-8"?><kml xmlns="http://www.opengis.net/kml/2.2"><Document><Style id="core"><LineStyle><color>ff00a000</color><width>1.5</width></LineStyle><PolyStyle><color>7f00a000</color></PolyStyle></Style><Style id="wilderness"><LineStyle><color>ff00d0d0</color><width>1.5</width></LineStyle><PolyStyle><color>7f00d0d0</color></PolyStyle></Style><Style id="community"><LineStyle><color>ff0080ff</color><width>1.5</width></LineStyle><PolyStyle><color>7f0080ff</color></PolyStyle></Style><Style id="corridor"><LineStyle><color>ffd000d0</color><width>1.5</width></LineStyle><PolyStyle><color>7fd000d0</color></PolyStyle></Style><Placemark><name>community proposal 1 (119,600 ha, support 0.79)</name><description><![CDATA[community · 119,600 ha · 16 clusters, 5,663 people (GHSL lower bound), 0 new since 2015<br/>fire 3,012/1000km2/yr, 805 fronts (97% transhumance, 541 ≥150 km)<br/>clearing since 2020 0.15 km2; cropland 0.0→0.0%; mining reported/candidates/top5% 0/1/17<br/>boundary: Bo River on the NW/N (32 km); Nahr al Jur on the E/NE (30 km); R. Duma (1930s sheet) on the S/SW (16 km); R. Yabo (1930s sheet) on the S/SE (12 km); Perennial water (1930s sheet) on the SE (6 km); 80 km along a geological contact only (not visible on the ground — needs beacons) — 48% follows no nameable feature]]></description><styleUrl>#community</styleUrl><Polygon><outerBoundaryIs><LinearRing><coordinates>27.57819,6.35895,0 27.59631,6.35895,0 27.59631,6.26875,0 27.68691,6.26875,0 27.68691,6.28679,0 27.77751,6.28679,0 27.77751,6.26875,0 27.85000,6.26875,0 27.85000,6.25071,0 27.83188,6.25071,0 27.83188,6.23267,0 27.85000,6.23267,0 27.85000,6.21464,0 27.83188,6.21464,0 27.83188,6.19660,0 27.81376,6.19660,0 27.81376,6.17856,0 27.79564,6.17856,0 27.79564,6.14249,0 27.81376,6.14249,0 27.81376,6.10643,0 27.83188,6.10643,0 27.83188,6.07036,0 27.81376,6.07036,0 27.81376,5.99824,0 27.77751,5.99824,0 27.77751,5.98021,0 27.74127,5.98021,0 27.74127,5.96218,0 27.72315,5.96218,0 27.72315,5.94415,0 27.70503,5.94415,0 27.70503,5.89007,0 27.68691,5.89007,0 27.68691,5.87204,0 27.63255,5.87204,0 27.63255,5.85402,0 27.59631,5.85402,0 27.59631,5.87204,0 27.57819,5.87204,0 27.57819,5.89007,0 27.54195,5.89007,0 27.54195,5.94415,0 27.57819,5.94415,0 27.57819,5.96218,0 27.59631,5.96218,0 27.59631,5.98021,0 27.61443,5.98021,0 27.61443,5.99824,0 27.65067,5.99824,0 27.65067,6.10643,0 27.66879,6.10643,0 27.66879,6.12446,0 27.65067,6.12446,0 27.65067,6.19660,0 27.59631,6.19660,0 27.59631,6.16053,0 27.57819,6.16053,0 27.57819,6.10643,0 27.56007,6.10643,0 27.56007,6.08839,0 27.54195,6.08839,0 27.54195,6.07036,0 27.52383,6.07036,0 27.52383,6.08839,0 27.46947,6.08839,0 27.46947,6.10643,0 27.45135,6.10643,0 27.45135,6.19660,0 27.43323,6.19660,0 27.43323,6.21464,0 27.45135,6.21464,0 27.45135,6.23267,0 27.48759,6.23267,0 27.48759,6.25071,0 27.50571,6.25071,0 27.50571,6.26875,0 27.52383,6.26875,0 27.52383,6.28679,0 27.54195,6.28679,0 27.54195,6.30483,0 27.56007,6.30483,0 27.56007,6.32287,0 27.57819,6.32287,0 27.57819,6.35895,0</coordinates></LinearRing></outerBoundaryIs></Polygon></Placemark><Placemark><name>community proposal 2 (130,800 ha, support 0.98)</name><description><![CDATA[community · 130,800 ha · 39 clusters, 1,161 people (GHSL lower bound), 0 new since 2015<br/>fire 4,429/1000km2/yr, 1551 fronts (98% transhumance, 934 ≥150 km)<br/>clearing since 2020 0.51 km2; cropland 0.0→0.01%; mining reported/candidates/top5% 0/1/12<br/>boundary: Busseri River on the NW (18 km); Nahr al Jur on the NW/SW (18 km); K. Ateir (1930s sheet) on the S/SE (18 km); K. Nyadok (1930s sheet) on the W (14 km); R. Sue (1930s sheet) on the N/SW (10 km); J. GOTA LINGI – J. GOTA ABUL ridge on the NW/N (6 km); 36 km along a geological contact only (not visible on the ground — needs beacons) — 45% follows no nameable feature]]></description><styleUrl>#community</styleUrl><Polygon><outerBoundaryIs><LinearRing><coordinates>28.01308,7.60540,0 28.03120,7.60540,0 28.03120,7.58731,0 28.04932,7.58731,0 28.04932,7.56922,0 28.06744,7.56922,0 28.06744,7.55113,0 28.08556,7.55113,0 28.08556,7.53305,0 28.10368,7.53305,0 28.10368,7.49688,0 28.12180,7.49688,0 28.12180,7.47879,0 28.13992,7.47879,0 28.13992,7.44263,0 28.12180,7.44263,0 28.12180,7.40647,0 28.10368,7.40647,0 28.10368,7.38839,0 28.17616,7.38839,0 28.17616,7.40647,0 28.24864,7.40647,0 28.24864,7.38839,0 28.28488,7.38839,0 28.28488,7.37031,0 28.32112,7.37031,0 28.32112,7.35223,0 28.35736,7.35223,0 28.35736,7.33415,0 28.37548,7.33415,0 28.37548,7.31607,0 28.41173,7.31607,0 28.41173,7.29800,0 28.42985,7.29800,0 28.42985,7.27992,0 28.41173,7.27992,0 28.41173,7.22570,0 28.39361,7.22570,0 28.39361,7.20762,0 28.37548,7.20762,0 28.37548,7.18955,0 28.35736,7.18955,0 28.35736,7.17148,0 28.33924,7.17148,0 28.33924,7.15341,0 28.32112,7.15341,0 28.32112,7.13534,0 28.28488,7.13534,0 28.28488,7.11727,0 28.26676,7.11727,0 28.26676,7.13534,0 28.23052,7.13534,0 28.23052,7.15341,0 28.17616,7.15341,0 28.17616,7.17148,0 28.10368,7.17148,0 28.10368,7.18955,0 28.08556,7.18955,0 28.08556,7.29800,0 28.03120,7.29800,0 28.03120,7.31607,0 27.99496,7.31607,0 27.99496,7.33415,0 27.95872,7.33415,0 27.95872,7.44263,0 27.94060,7.44263,0 27.94060,7.49688,0 27.97684,7.49688,0 27.97684,7.55113,0 27.99496,7.55113,0 27.99496,7.58731,0 28.01308,7.58731,0 28.01308,7.60540,0</coordinates></LinearRing></outerBoundaryIs></Polygon></Placemark><Placemark><name>community proposal 3 (123,200 ha, support 0.63)</name><description><![CDATA[community · 123,200 ha · 35 clusters, 923 people (GHSL lower bound), 3 new since 2015<br/>fire 4,561/1000km2/yr, 1897 fronts (99% transhumance, 1229 ≥150 km)<br/>clearing since 2020 0.23 km2; cropland 0.0→0.01%; mining reported/candidates/top5% 0/0/7<br/>boundary: K. Ngoko (1930s sheet) on the W/E (34 km); K. Megwalima (1930s sheet) on the SE (20 km); unnamed river (order 4) on the NW/NE (16 km); Busseri River on the SE (14 km); Gandu (1930s sheet) on the W/NW (12 km); R. Busseri (1930s sheet) on the SE (12 km); 22 km along a geological contact only (not visible on the ground — needs beacons) — 34% follows no nameable feature]]></description><styleUrl>#community</styleUrl><MultiGeometry><Polygon><outerBoundaryIs><LinearRing><coordinates>28.01308,7.58731,0 27.99496,7.58731,0 27.99496,7.62349,0 28.01308,7.62349,0 28.01308,7.58731,0</coordinates></LinearRing></outerBoundaryIs></Polygon><Polygon><outerBoundaryIs><LinearRing><coordinates>27.45135,8.02163,0 27.50571,8.02163,0 27.50571,8.00353,0 27.54195,8.00353,0 27.54195,7.98542,0 27.57819,7.98542,0 27.57819,7.96732,0 27.61443,7.96732,0 27.61443,7.94922,0 27.63255,7.94922,0 27.63255,7.93111,0 27.66879,7.93111,0 27.66879,7.91301,0 27.68691,7.91301,0 27.68691,7.89491,0 27.70503,7.89491,0 27.70503,7.87681,0 27.72315,7.87681,0 27.72315,7.80442,0 27.74127,7.80442,0 27.74127,7.76822,0 27.75939,7.76822,0 27.75939,7.75013,0 27.86812,7.75013,0 27.86812,7.73203,0 27.90436,7.73203,0 27.90436,7.71394,0 27.92248,7.71394,0 27.92248,7.69585,0 27.94060,7.69585,0 27.94060,7.67776,0 27.95872,7.67776,0 27.95872,7.65967,0 27.97684,7.65967,0 27.97684,7.64158,0 27.99496,7.64158,0 27.99496,7.62349,0 27.95872,7.62349,0 27.95872,7.56922,0 27.90436,7.56922,0 27.90436,7.47879,0 27.86812,7.47879,0 27.86812,7.46071,0 27.85000,7.46071,0 27.85000,7.49688,0 27.83188,7.49688,0 27.83188,7.56922,0 27.85000,7.56922,0 27.85000,7.58731,0 27.83188,7.58731,0 27.83188,7.60540,0 27.85000,7.60540,0 27.85000,7.73203,0 27.79564,7.73203,0 27.79564,7.71394,0 27.72315,7.71394,0 27.72315,7.78632,0 27.70503,7.78632,0 27.70503,7.76822,0 27.66879,7.76822,0 27.66879,7.75013,0 27.63255,7.75013,0 27.63255,7.76822,0 27.57819,7.76822,0 27.57819,7.78632,0 27.50571,7.78632,0 27.50571,7.75013,0 27.48759,7.75013,0 27.48759,7.73203,0 27.45135,7.73203,0 27.45135,7.76822,0 27.43323,7.76822,0 27.43323,7.78632,0 27.41511,7.78632,0 27.41511,7.80442,0 27.39699,7.80442,0 27.39699,7.85871,0 27.37887,7.85871,0 27.37887,7.87681,0 27.36075,7.87681,0 27.36075,7.89491,0 27.37887,7.89491,0 27.37887,8.03974,0 27.45135,8.03974,0 27.45135,8.02163,0</coordinates></LinearRing></outerBoundaryIs></Polygon></MultiGeometry></Placemark><Placemark><name>community proposal 4 (92,400 ha, support 0.72)</name><description><![CDATA[community · 92,400 ha · 20 clusters, 690 people (GHSL lower bound), 3 new since 2015<br/>fire 2,795/1000km2/yr, 1094 fronts (98% transhumance, 769 ≥150 km)<br/>clearing since 2020 0.47 km2; cropland 0.0→0.0%; mining reported/candidates/top5% 0/0/0<br/>boundary: K. Megwalima (1930s sheet) on the E/SE (20 km); K. Getti (1930s sheet) on the NW/N (14 km); K. Ngombara (1930s sheet) on the S/SE (14 km); K. Ngoko (1930s sheet) on the N/NE (12 km); Busseri River on the SE (6 km); unnamed river (order 4) on the N (2 km); 6 km along a geological contact only (not visible on the ground — needs beacons) — 40% follows no nameable feature]]></description><styleUrl>#community</styleUrl><Polygon><outerBoundaryIs><LinearRing><coordinates>27.70503,7.78632,0 27.72315,7.78632,0 27.72315,7.71394,0 27.79564,7.71394,0 27.79564,7.73203,0 27.85000,7.73203,0 27.85000,7.60540,0 27.83188,7.60540,0 27.83188,7.58731,0 27.85000,7.58731,0 27.85000,7.56922,0 27.83188,7.56922,0 27.83188,7.49688,0 27.85000,7.49688,0 27.85000,7.44263,0 27.79564,7.44263,0 27.79564,7.46071,0 27.77751,7.46071,0 27.77751,7.47879,0 27.74127,7.47879,0 27.74127,7.49688,0 27.70503,7.49688,0 27.70503,7.46071,0 27.54195,7.46071,0 27.54195,7.55113,0 27.56007,7.55113,0 27.56007,7.65967,0 27.57819,7.65967,0 27.57819,7.67776,0 27.59631,7.67776,0 27.59631,7.69585,0 27.61443,7.69585,0 27.61443,7.71394,0 27.63255,7.71394,0 27.63255,7.73203,0 27.65067,7.73203,0 27.65067,7.75013,0 27.66879,7.75013,0 27.66879,7.76822,0 27.70503,7.76822,0 27.70503,7.78632,0</coordinates></LinearRing></outerBoundaryIs></Polygon></Placemark><Placemark><name>community proposal 5 (67,600 ha, support 0.86)</name><description><![CDATA[community · 67,600 ha · 4 clusters, 477 people (GHSL lower bound), 0 new since 2015<br/>fire 5,071/1000km2/yr, 577 fronts (98% transhumance, 429 ≥150 km)<br/>clearing since 2020 2.07 km2; cropland 0.0→0.0%; mining reported/candidates/top5% 1/0/0<br/>boundary: R. Nangundi (1930s sheet) on the NE/N (28 km); J. DOMBILI – J. BALI – AKOBO HILLS ridge on the S/SE (18 km); K.Gairi (1930s sheet) on the E/SE (10 km); K.Adonb (1930s sheet) on the SE (6 km); K. Wem (1930s sheet) on the NW (4 km); 30 km along a geological contact only (not visible on the ground — needs beacons) — 35% follows no nameable feature]]></description><styleUrl>#community</styleUrl><Polygon><outerBoundaryIs><LinearRing><coordinates>26.88962,8.14840,0 26.92586,8.14840,0 26.92586,8.13029,0 26.94398,8.13029,0 26.94398,8.11217,0 26.99834,8.11217,0 26.99834,8.09406,0 27.05270,8.09406,0 27.05270,8.11217,0 27.08894,8.11217,0 27.08894,8.09406,0 27.14330,8.09406,0 27.14330,8.07596,0 27.17954,8.07596,0 27.17954,8.02163,0 27.16142,8.02163,0 27.16142,7.96732,0 27.17954,7.96732,0 27.17954,7.94922,0 27.16142,7.94922,0 27.16142,7.93111,0 27.14330,7.93111,0 27.14330,7.89491,0 27.10706,7.89491,0 27.10706,7.93111,0 27.01646,7.93111,0 27.01646,7.91301,0 26.94398,7.91301,0 26.94398,7.96732,0 26.90774,7.96732,0 26.90774,7.98542,0 26.88962,7.98542,0 26.88962,8.02163,0 26.83526,8.02163,0 26.83526,8.11217,0 26.85338,8.11217,0 26.85338,8.13029,0 26.88962,8.13029,0 26.88962,8.14840,0</coordinates></LinearRing></outerBoundaryIs></Polygon></Placemark><Placemark><name>community proposal 6 (24,400 ha, support 0.69)</name><description><![CDATA[community · 24,400 ha · 2 clusters, 138 people (GHSL lower bound), 0 new since 2015<br/>fire 4,770/1000km2/yr, 182 fronts (99% transhumance, 129 ≥150 km)<br/>clearing since 2020 0.0 km2; cropland 0.0→0.0%; mining reported/candidates/top5% 0/0/0<br/>boundary: unnamed river (order 4) on the NW/N (38 km); Ouara on the S/E (18 km); 4 km along a geological contact only (not visible on the ground — needs beacons) — 7% follows no nameable feature]]></description><styleUrl>#community</styleUrl><Polygon><outerBoundaryIs><LinearRing><coordinates>26.09233,6.61160,0 26.12857,6.61160,0 26.12857,6.59355,0 26.14669,6.59355,0 26.14669,6.57550,0 26.20105,6.57550,0 26.20105,6.53940,0 26.23729,6.53940,0 26.23729,6.50330,0 26.21917,6.50330,0 26.21917,6.46721,0 26.20105,6.46721,0 26.20105,6.44917,0 26.18293,6.44917,0 26.18293,6.41308,0 26.16481,6.41308,0 26.16481,6.39504,0 26.12857,6.39504,0 26.12857,6.37699,0 26.09233,6.37699,0 26.09233,6.39504,0 26.11045,6.39504,0 26.11045,6.44917,0 26.12857,6.44917,0 26.12857,6.50330,0 26.11045,6.50330,0 26.11045,6.52135,0 26.09233,6.52135,0 26.09233,6.55745,0 26.07421,6.55745,0 26.07421,6.59355,0 26.09233,6.59355,0 26.09233,6.61160,0</coordinates></LinearRing></outerBoundaryIs></Polygon></Placemark></Document></kml>