<?xml version="1.0" encoding="UTF-8"?><kml xmlns="http://www.opengis.net/kml/2.2"><Document><Style id="core"><LineStyle><color>ff00a000</color><width>1.5</width></LineStyle><PolyStyle><color>7f00a000</color></PolyStyle></Style><Style id="wilderness"><LineStyle><color>ff00d0d0</color><width>1.5</width></LineStyle><PolyStyle><color>7f00d0d0</color></PolyStyle></Style><Style id="community"><LineStyle><color>ff0080ff</color><width>1.5</width></LineStyle><PolyStyle><color>7f0080ff</color></PolyStyle></Style><Style id="corridor"><LineStyle><color>ffd000d0</color><width>1.5</width></LineStyle><PolyStyle><color>7fd000d0</color></PolyStyle></Style><Placemark><name>corridor branch 1: Radom → Garamba (through-route) (2,168,000 ha)</name><description><![CDATA[community · 2,168,000 ha · 119 clusters, 60,580 people (GHSL lower bound), 11 new since 2015<br/>fire 4,254/1000km2/yr, 11041 fronts (98% transhumance, 7252 ≥150 km)<br/>clearing since 2020 6.17 km2; cropland 0.0→0.02%; mining reported/candidates/top5% 1/2/81<br/>boundary: Wahko on the SE/E (106 km); J. KOAYA – J. NOAYA 4428 – J. HELISI ridge on the NW (80 km); Low hill – J. ABU RASEIN – J. NGAYA ridge on the NW (34 km); R. Meridi (1930s sheet) on the SE (32 km); unnamed river (order 4) on the NW/N (28 km); 1930s District Boundary on the E (28 km); 188 km along a geological contact only (not visible on the ground — needs beacons); landmarks on the unnamed stretches: Rabi (1930s village) (NW), Kubbas (1930s village) (NW), Hill 0 (NE), Uburi (1930s village) (E), Wadi (1930s village) (E), Akwong (1930s village) (E), Jur V (1930s village) (E), Fakina (1930s village) (E) — 56% follows no nameable feature]]></description><styleUrl>#corridor</styleUrl><Polygon><outerBoundaryIs><LinearRing><coordinates>23.91789,9.74553,0 23.97225,9.74553,0 23.97225,9.72734,0 23.99037,9.72734,0 23.99037,9.70915,0 24.00849,9.70915,0 24.00849,9.69097,0 24.02661,9.69097,0 24.02661,9.61823,0 24.00849,9.61823,0 24.00849,9.56369,0 23.99037,9.56369,0 23.99037,9.49098,0 24.00849,9.49098,0 24.00849,9.45463,0 24.02661,9.45463,0 24.02661,9.43645,0 24.04473,9.43645,0 24.04473,9.34560,0 24.06285,9.34560,0 24.06285,9.32743,0 24.08097,9.32743,0 24.08097,9.30926,0 24.09909,9.30926,0 24.09909,9.27293,0 24.15345,9.27293,0 24.15345,9.25477,0 24.24406,9.25477,0 24.24406,9.23660,0 24.26218,9.23660,0 24.26218,9.21844,0 24.31654,9.21844,0 24.31654,9.20028,0 24.33466,9.20028,0 24.33466,9.18212,0 24.38902,9.18212,0 24.38902,9.16396,0 24.42526,9.16396,0 24.42526,9.14580,0 24.44338,9.14580,0 24.44338,9.12764,0 24.46150,9.12764,0 24.46150,9.10948,0 24.49774,9.10948,0 24.49774,9.09133,0 24.51586,9.09133,0 24.51586,9.07317,0 24.53398,9.07317,0 24.53398,9.05502,0 24.55210,9.05502,0 24.55210,9.03686,0 24.57022,9.03686,0 24.57022,9.01871,0 24.58834,9.01871,0 24.58834,9.00056,0 24.60646,9.00056,0 24.60646,8.98241,0 24.62458,8.98241,0 24.62458,8.96426,0 24.64270,8.96426,0 24.64270,8.94611,0 24.66082,8.94611,0 24.66082,8.92796,0 24.67894,8.92796,0 24.67894,8.89167,0 24.69706,8.89167,0 24.69706,8.87352,0 24.71518,8.87352,0 24.71518,8.85538,0 24.73330,8.85538,0 24.73330,8.83723,0 24.75142,8.83723,0 24.75142,8.81909,0 24.76954,8.81909,0 24.76954,8.80095,0 24.78766,8.80095,0 24.78766,8.76467,0 24.82391,8.76467,0 24.82391,8.72839,0 24.84203,8.72839,0 24.84203,8.69212,0 24.86015,8.69212,0 24.86015,8.67398,0 24.89639,8.67398,0 24.89639,8.65584,0 24.91451,8.65584,0 24.91451,8.63771,0 24.95075,8.63771,0 24.95075,8.61958,0 24.98699,8.61958,0 24.98699,8.60144,0 25.00511,8.60144,0 25.00511,8.58331,0 25.04135,8.58331,0 25.04135,8.56518,0 25.11383,8.56518,0 25.11383,8.54705,0 25.15007,8.54705,0 25.15007,8.52892,0 25.16819,8.52892,0 25.16819,8.51079,0 25.18631,8.51079,0 25.18631,8.49267,0 25.20443,8.49267,0 25.20443,8.47454,0 25.24067,8.47454,0 25.24067,8.45641,0 25.38563,8.45641,0 25.38563,8.47454,0 25.58496,8.47454,0 25.58496,8.49267,0 25.69368,8.49267,0 25.69368,8.47454,0 25.71180,8.47454,0 25.71180,8.45641,0 25.74804,8.45641,0 25.74804,8.43829,0 25.76616,8.43829,0 25.76616,8.42016,0 25.78428,8.42016,0 25.78428,8.40204,0 25.82052,8.40204,0 25.82052,8.38392,0 25.83864,8.38392,0 25.83864,8.36579,0 25.87488,8.36579,0 25.87488,8.34767,0 25.89300,8.34767,0 25.89300,8.32955,0 25.91112,8.32955,0 25.91112,8.31143,0 25.92924,8.31143,0 25.92924,8.29332,0 25.94736,8.29332,0 25.94736,8.27520,0 25.96548,8.27520,0 25.96548,8.25708,0 25.98360,8.25708,0 25.98360,8.22085,0 26.00173,8.22085,0 26.00173,8.20274,0 26.01985,8.20274,0 26.01985,8.18462,0 26.03797,8.18462,0 26.03797,8.16651,0 26.05609,8.16651,0 26.05609,8.14840,0 26.07421,8.14840,0 26.07421,8.13029,0 26.09233,8.13029,0 26.09233,8.11217,0 26.11045,8.11217,0 26.11045,8.07596,0 26.12857,8.07596,0 26.12857,8.05785,0 26.14669,8.05785,0 26.14669,8.03974,0 26.16481,8.03974,0 26.16481,8.02163,0 26.18293,8.02163,0 26.18293,8.00353,0 26.20105,8.00353,0 26.20105,7.98542,0 26.23729,7.98542,0 26.23729,7.96732,0 26.27353,7.96732,0 26.27353,7.94922,0 26.30977,7.94922,0 26.30977,7.93111,0 26.34601,7.93111,0 26.34601,7.91301,0 26.40037,7.91301,0 26.40037,7.89491,0 26.41849,7.89491,0 26.41849,7.87681,0 26.45473,7.87681,0 26.45473,7.85871,0 26.49097,7.85871,0 26.49097,7.84061,0 27.08894,7.84061,0 27.08894,7.85871,0 27.43323,7.85871,0 27.43323,7.84061,0 27.52383,7.84061,0 27.52383,7.82251,0 27.57819,7.82251,0 27.57819,7.80442,0 27.59631,7.80442,0 27.59631,7.78632,0 27.63255,7.78632,0 27.63255,7.76822,0 27.65067,7.76822,0 27.65067,7.75013,0 27.66879,7.75013,0 27.66879,7.73203,0 27.68691,7.73203,0 27.68691,7.71394,0 27.70503,7.71394,0 27.70503,7.69585,0 27.72315,7.69585,0 27.72315,7.67776,0 27.74127,7.67776,0 27.74127,7.65967,0 27.77751,7.65967,0 27.77751,7.64158,0 27.79564,7.64158,0 27.79564,7.62349,0 27.81376,7.62349,0 27.81376,7.60540,0 27.83188,7.60540,0 27.83188,7.58731,0 28.08556,7.58731,0 28.08556,7.56922,0 28.13992,7.56922,0 28.13992,7.55113,0 28.19428,7.55113,0 28.19428,7.53305,0 28.23052,7.53305,0 28.23052,7.51496,0 28.24864,7.51496,0 28.24864,7.49688,0 28.33924,7.49688,0 28.33924,7.47879,0 28.46609,7.47879,0 28.46609,7.46071,0 28.52045,7.46071,0 28.52045,7.44263,0 28.53857,7.44263,0 28.53857,7.42455,0 28.59293,7.42455,0 28.59293,7.40647,0 28.64729,7.40647,0 28.64729,7.38839,0 28.66541,7.38839,0 28.66541,7.37031,0 28.68353,7.37031,0 28.68353,7.35223,0 28.70165,7.35223,0 28.70165,7.33415,0 28.71977,7.33415,0 28.71977,7.31607,0 28.73789,7.31607,0 28.73789,7.26185,0 28.77413,7.26185,0 28.77413,7.24377,0 28.79225,7.24377,0 28.79225,7.22570,0 28.82849,7.22570,0 28.82849,7.20762,0 28.84661,7.20762,0 28.84661,7.18955,0 28.86473,7.18955,0 28.86473,7.17148,0 28.88285,7.17148,0 28.88285,7.15341,0 28.90097,7.15341,0 28.90097,7.13534,0 28.93721,7.13534,0 28.93721,7.11727,0 28.95533,7.11727,0 28.95533,7.09920,0 28.97345,7.09920,0 28.97345,7.08113,0 28.99158,7.08113,0 28.99158,7.06306,0 29.00970,7.06306,0 29.00970,7.04500,0 29.02782,7.04500,0 29.02782,7.02693,0 29.04594,7.02693,0 29.04594,7.00887,0 29.06406,7.00887,0 29.06406,6.99080,0 29.08218,6.99080,0 29.08218,6.97274,0 29.10030,6.97274,0 29.10030,6.95467,0 29.11842,6.95467,0 29.11842,6.93661,0 29.13654,6.93661,0 29.13654,6.91855,0 29.15466,6.91855,0 29.15466,6.90049,0 29.17278,6.90049,0 29.17278,6.86437,0 29.19090,6.86437,0 29.19090,6.84631,0 29.20902,6.84631,0 29.20902,6.81019,0 29.22714,6.81019,0 29.22714,6.70186,0 29.24526,6.70186,0 29.24526,6.68380,0 29.26338,6.68380,0 29.26338,6.66575,0 29.28150,6.66575,0 29.28150,6.64770,0 29.29962,6.64770,0 29.29962,6.62965,0 29.31774,6.62965,0 29.31774,6.61160,0 29.33586,6.61160,0 29.33586,6.59355,0 29.35398,6.59355,0 29.35398,6.57550,0 29.37210,6.57550,0 29.37210,6.55745,0 29.39022,6.55745,0 29.39022,6.53940,0 29.40834,6.53940,0 29.40834,6.52135,0 29.42646,6.52135,0 29.42646,6.50330,0 29.44458,6.50330,0 29.44458,6.48526,0 29.46270,6.48526,0 29.46270,6.44917,0 29.48082,6.44917,0 29.48082,6.41308,0 29.49894,6.41308,0 29.49894,6.39504,0 29.51706,6.39504,0 29.51706,6.32287,0 29.53518,6.32287,0 29.53518,6.12446,0 29.55330,6.12446,0 29.55330,5.89007,0 29.53518,5.89007,0 29.53518,5.90810,0 29.51706,5.90810,0 29.51706,5.92612,0 29.49894,5.92612,0 29.49894,5.69181,0 29.48082,5.69181,0 29.48082,5.65577,0 29.46270,5.65577,0 29.46270,5.61974,0 29.49894,5.61974,0 29.49894,5.56569,0 29.48082,5.56569,0 29.48082,5.52965,0 29.46270,5.52965,0 29.46270,5.49362,0 29.44458,5.49362,0 29.44458,5.47561,0 29.42646,5.47561,0 29.42646,5.40356,0 29.40834,5.40356,0 29.40834,5.34953,0 29.42646,5.34953,0 29.42646,5.24148,0 29.40834,5.24148,0 29.40834,5.22347,0 29.39022,5.22347,0 29.39022,5.18746,0 29.37210,5.18746,0 29.37210,5.04343,0 29.39022,5.04343,0 29.39022,5.02543,0 29.40834,5.02543,0 29.40834,4.93543,0 29.42646,4.93543,0 29.42646,4.89943,0 29.44458,4.89943,0 29.44458,4.86344,0 29.46270,4.86344,0 29.46270,4.84544,0 29.48082,4.84544,0 29.48082,4.82745,0 29.49894,4.82745,0 29.49894,4.80945,0 29.51706,4.80945,0 29.51706,4.79146,0 29.53518,4.79146,0 29.53518,4.75547,0 29.55330,4.75547,0 29.55330,4.73747,0 29.57142,4.73747,0 29.57142,4.70149,0 29.58955,4.70149,0 29.58955,4.68349,0 29.60767,4.68349,0 29.60767,4.66550,0 29.62579,4.66550,0 29.62579,4.64751,0 29.64391,4.64751,0 29.64391,4.62952,0 29.66203,4.62952,0 29.66203,4.59354,0 29.64391,4.59354,0 29.64391,4.57555,0 29.62579,4.57555,0 29.62579,4.55756,0 29.60767,4.55756,0 29.60767,4.53957,0 29.58955,4.53957,0 29.58955,4.52158,0 29.57142,4.52158,0 29.57142,4.50360,0 29.53518,4.50360,0 29.53518,4.52158,0 29.51706,4.52158,0 29.51706,4.53957,0 29.49894,4.53957,0 29.49894,4.55756,0 29.48082,4.55756,0 29.48082,4.57555,0 29.46270,4.57555,0 29.46270,4.59354,0 29.44458,4.59354,0 29.44458,4.61153,0 29.42646,4.61153,0 29.42646,4.62952,0 29.40834,4.62952,0 29.40834,4.64751,0 29.39022,4.64751,0 29.39022,4.66550,0 29.37210,4.66550,0 29.37210,4.68349,0 29.35398,4.68349,0 29.35398,4.71948,0 29.33586,4.71948,0 29.33586,4.73747,0 29.31774,4.73747,0 29.31774,4.75547,0 29.29962,4.75547,0 29.29962,4.79146,0 29.28150,4.79146,0 29.28150,4.80945,0 29.26338,4.80945,0 29.26338,4.84544,0 29.24526,4.84544,0 29.24526,4.86344,0 29.22714,4.86344,0 29.22714,4.91743,0 29.20902,4.91743,0 29.20902,4.95343,0 29.19090,4.95343,0 29.19090,4.97143,0 29.17278,4.97143,0 29.17278,5.04343,0 29.15466,5.04343,0 29.15466,5.09744,0 29.13654,5.09744,0 29.13654,5.16945,0 29.15466,5.16945,0 29.15466,5.20546,0 29.17278,5.20546,0 29.17278,5.24148,0 29.19090,5.24148,0 29.19090,5.43958,0 29.20902,5.43958,0 29.20902,5.47561,0 29.22714,5.47561,0 29.22714,5.51164,0 29.24526,5.51164,0 29.24526,5.56569,0 29.26338,5.56569,0 29.26338,5.58370,0 29.28150,5.58370,0 29.28150,5.63776,0 29.29962,5.63776,0 29.29962,5.70983,0 29.31774,5.70983,0 29.31774,6.25071,0 29.29962,6.25071,0 29.29962,6.32287,0 29.28150,6.32287,0 29.28150,6.39504,0 29.26338,6.39504,0 29.26338,6.41308,0 29.24526,6.41308,0 29.24526,6.44917,0 29.22714,6.44917,0 29.22714,6.46721,0 29.20902,6.46721,0 29.20902,6.48526,0 29.19090,6.48526,0 29.19090,6.50330,0 29.17278,6.50330,0 29.17278,6.53940,0 29.13654,6.53940,0 29.13654,6.55745,0 29.11842,6.55745,0 29.11842,6.57550,0 29.10030,6.57550,0 29.10030,6.59355,0 29.08218,6.59355,0 29.08218,6.61160,0 29.06406,6.61160,0 29.06406,6.62965,0 29.04594,6.62965,0 29.04594,6.64770,0 29.02782,6.64770,0 29.02782,6.66575,0 29.00970,6.66575,0 29.00970,6.68380,0 28.99158,6.68380,0 28.99158,6.81019,0 28.97345,6.81019,0 28.97345,6.84631,0 28.95533,6.84631,0 28.95533,6.88243,0 28.93721,6.88243,0 28.93721,6.90049,0 28.91909,6.90049,0 28.91909,6.91855,0 28.90097,6.91855,0 28.90097,6.93661,0 28.88285,6.93661,0 28.88285,6.95467,0 28.86473,6.95467,0 28.86473,6.97274,0 28.81037,6.97274,0 28.81037,6.99080,0 28.79225,6.99080,0 28.79225,7.00887,0 28.71977,7.00887,0 28.71977,7.02693,0 28.70165,7.02693,0 28.70165,7.04500,0 28.71977,7.04500,0 28.71977,7.08113,0 28.70165,7.08113,0 28.70165,7.09920,0 28.68353,7.09920,0 28.68353,7.11727,0 28.70165,7.11727,0 28.70165,7.13534,0 28.68353,7.13534,0 28.68353,7.15341,0 28.66541,7.15341,0 28.66541,7.17148,0 28.64729,7.17148,0 28.64729,7.20762,0 28.61105,7.20762,0 28.61105,7.22570,0 28.55669,7.22570,0 28.55669,7.24377,0 28.53857,7.24377,0 28.53857,7.26185,0 28.50233,7.26185,0 28.50233,7.27992,0 28.41173,7.27992,0 28.41173,7.29800,0 28.30300,7.29800,0 28.30300,7.31607,0 28.28488,7.31607,0 28.28488,7.33415,0 28.26676,7.33415,0 28.26676,7.35223,0 28.15804,7.35223,0 28.15804,7.37031,0 28.10368,7.37031,0 28.10368,7.38839,0 27.97684,7.38839,0 27.97684,7.37031,0 27.88624,7.37031,0 27.88624,7.35223,0 27.85000,7.35223,0 27.85000,7.37031,0 27.81376,7.37031,0 27.81376,7.38839,0 27.77751,7.38839,0 27.77751,7.40647,0 27.75939,7.40647,0 27.75939,7.42455,0 27.74127,7.42455,0 27.74127,7.44263,0 27.72315,7.44263,0 27.72315,7.46071,0 27.70503,7.46071,0 27.70503,7.47879,0 27.68691,7.47879,0 27.68691,7.49688,0 27.65067,7.49688,0 27.65067,7.51496,0 27.63255,7.51496,0 27.63255,7.53305,0 27.61443,7.53305,0 27.61443,7.55113,0 27.59631,7.55113,0 27.59631,7.56922,0 27.56007,7.56922,0 27.56007,7.58731,0 27.48759,7.58731,0 27.48759,7.60540,0 27.45135,7.60540,0 27.45135,7.62349,0 27.12518,7.62349,0 27.12518,7.64158,0 27.10706,7.64158,0 27.10706,7.62349,0 26.78090,7.62349,0 26.78090,7.60540,0 26.56345,7.60540,0 26.56345,7.62349,0 26.47285,7.62349,0 26.47285,7.64158,0 26.40037,7.64158,0 26.40037,7.65967,0 26.34601,7.65967,0 26.34601,7.67776,0 26.30977,7.67776,0 26.30977,7.69585,0 26.29165,7.69585,0 26.29165,7.71394,0 26.27353,7.71394,0 26.27353,7.73203,0 26.25541,7.73203,0 26.25541,7.75013,0 26.20105,7.75013,0 26.20105,7.76822,0 26.18293,7.76822,0 26.18293,7.78632,0 26.16481,7.78632,0 26.16481,7.80442,0 26.14669,7.80442,0 26.14669,7.82251,0 26.12857,7.82251,0 26.12857,7.84061,0 26.11045,7.84061,0 26.11045,7.85871,0 26.09233,7.85871,0 26.09233,7.87681,0 26.07421,7.87681,0 26.07421,7.89491,0 26.05609,7.89491,0 26.05609,7.91301,0 26.03797,7.91301,0 26.03797,7.93111,0 26.01985,7.93111,0 26.01985,7.94922,0 26.00173,7.94922,0 26.00173,7.96732,0 25.98360,7.96732,0 25.98360,7.98542,0 25.96548,7.98542,0 25.96548,8.00353,0 25.94736,8.00353,0 25.94736,8.02163,0 25.92924,8.02163,0 25.92924,8.03974,0 25.91112,8.03974,0 25.91112,8.05785,0 25.89300,8.05785,0 25.89300,8.07596,0 25.87488,8.07596,0 25.87488,8.09406,0 25.85676,8.09406,0 25.85676,8.13029,0 25.83864,8.13029,0 25.83864,8.14840,0 25.80240,8.14840,0 25.80240,8.16651,0 25.78428,8.16651,0 25.78428,8.18462,0 25.76616,8.18462,0 25.76616,8.20274,0 25.74804,8.20274,0 25.74804,8.22085,0 25.71180,8.22085,0 25.71180,8.23897,0 25.69368,8.23897,0 25.69368,8.25708,0 25.47624,8.25708,0 25.47624,8.23897,0 25.27691,8.23897,0 25.27691,8.22085,0 25.24067,8.22085,0 25.24067,8.23897,0 25.22255,8.23897,0 25.22255,8.25708,0 25.20443,8.25708,0 25.20443,8.27520,0 25.18631,8.27520,0 25.18631,8.29332,0 25.16819,8.29332,0 25.16819,8.31143,0 25.15007,8.31143,0 25.15007,8.32955,0 25.07759,8.32955,0 25.07759,8.34767,0 25.02323,8.34767,0 25.02323,8.36579,0 24.98699,8.36579,0 24.98699,8.38392,0 24.95075,8.38392,0 24.95075,8.40204,0 24.93263,8.40204,0 24.93263,8.42016,0 24.89639,8.42016,0 24.89639,8.43829,0 24.87827,8.43829,0 24.87827,8.45641,0 24.84203,8.45641,0 24.84203,8.47454,0 24.82391,8.47454,0 24.82391,8.49267,0 24.80579,8.49267,0 24.80579,8.51079,0 24.78766,8.51079,0 24.78766,8.52892,0 24.76954,8.52892,0 24.76954,8.54705,0 24.75142,8.54705,0 24.75142,8.56518,0 24.73330,8.56518,0 24.73330,8.58331,0 24.71518,8.58331,0 24.71518,8.61958,0 24.69706,8.61958,0 24.69706,8.63771,0 24.67894,8.63771,0 24.67894,8.65584,0 24.66082,8.65584,0 24.66082,8.67398,0 24.64270,8.67398,0 24.64270,8.69212,0 24.62458,8.69212,0 24.62458,8.71025,0 24.60646,8.71025,0 24.60646,8.72839,0 24.58834,8.72839,0 24.58834,8.74653,0 24.57022,8.74653,0 24.57022,8.76467,0 24.55210,8.76467,0 24.55210,8.80095,0 24.53398,8.80095,0 24.53398,8.81909,0 24.51586,8.81909,0 24.51586,8.83723,0 24.49774,8.83723,0 24.49774,8.87352,0 24.47962,8.87352,0 24.47962,8.89167,0 24.46150,8.89167,0 24.46150,8.90982,0 24.44338,8.90982,0 24.44338,8.92796,0 24.42526,8.92796,0 24.42526,8.94611,0 24.37090,8.94611,0 24.37090,8.96426,0 24.33466,8.96426,0 24.33466,8.98241,0 24.29842,8.98241,0 24.29842,9.00056,0 24.28030,9.00056,0 24.28030,9.01871,0 24.15345,9.01871,0 24.15345,9.03686,0 24.11721,9.03686,0 24.11721,9.05502,0 24.09909,9.05502,0 24.09909,9.07317,0 24.08097,9.07317,0 24.08097,9.09133,0 24.06285,9.09133,0 24.06285,9.10948,0 24.02661,9.10948,0 24.02661,9.12764,0 24.00849,9.12764,0 24.00849,9.14580,0 23.99037,9.14580,0 23.99037,9.16396,0 23.97225,9.16396,0 23.97225,9.18212,0 23.95413,9.18212,0 23.95413,9.20028,0 23.93601,9.20028,0 23.93601,9.21844,0 23.91789,9.21844,0 23.91789,9.23660,0 23.89977,9.23660,0 23.89977,9.25477,0 23.88165,9.25477,0 23.88165,9.29110,0 23.86353,9.29110,0 23.86353,9.30926,0 23.84541,9.30926,0 23.84541,9.32743,0 23.82729,9.32743,0 23.82729,9.34560,0 23.80917,9.34560,0 23.80917,9.52733,0 23.82729,9.52733,0 23.82729,9.54551,0 23.84541,9.54551,0 23.84541,9.60005,0 23.86353,9.60005,0 23.86353,9.69097,0 23.88165,9.69097,0 23.88165,9.70915,0 23.89977,9.70915,0 23.89977,9.72734,0 23.91789,9.72734,0 23.91789,9.74553,0</coordinates></LinearRing></outerBoundaryIs></Polygon></Placemark><Placemark><name>corridor branch 2: bundle 1 (249,600 ha)</name><description><![CDATA[community · 249,600 ha · 18 clusters, 23,923 people (GHSL lower bound), 1 new since 2015<br/>fire 5,011/1000km2/yr, 2034 fronts (99% transhumance, 1469 ≥150 km)<br/>clearing since 2020 0.28 km2; cropland 0.0→0.05%; mining reported/candidates/top5% 0/0/11<br/>boundary: KALVEZ (1930s sheet) on the W (10 km); J. ROVO I.S. – J. DURUYANZI (Granite) – Ironstone hill D(Low) ridge on the W (10 km); K Masum (1930s sheet) on the NE (8 km); Yei River on the E/NE (8 km); J. ADDU – J. KUNTI – J. DUMBI ridge on the NE/E (8 km); R. Roi (1930s sheet) on the SE/S (8 km); 22 km along a geological contact only (not visible on the ground — needs beacons); landmarks on the unnamed stretches: Mirgambi (1930s village) (SW), Jawa (1930s village) (NW), Kody (1930s village) (NW), Oujur (1930s village) (E), Oujur (1930s village) (E), Barti (1930s village) (E), Barty (1930s village) (E), Koro Masi (1930s village) (SE) — 67% follows no nameable feature]]></description><styleUrl>#corridor</styleUrl><Polygon><outerBoundaryIs><LinearRing><coordinates>30.26000,5.52965,0 30.27812,5.52965,0 30.27812,5.51164,0 30.31436,5.51164,0 30.31436,5.49362,0 30.33248,5.49362,0 30.33248,5.47561,0 30.35060,5.47561,0 30.35060,5.45760,0 30.36872,5.45760,0 30.36872,5.43958,0 30.38684,5.43958,0 30.38684,5.42157,0 30.40496,5.42157,0 30.40496,5.34953,0 30.42308,5.34953,0 30.42308,5.31351,0 30.40496,5.31351,0 30.40496,5.27749,0 30.38684,5.27749,0 30.38684,5.25948,0 30.36872,5.25948,0 30.36872,5.24148,0 30.35060,5.24148,0 30.35060,5.22347,0 30.33248,5.22347,0 30.33248,5.20546,0 30.31436,5.20546,0 30.31436,5.18746,0 30.29624,5.18746,0 30.29624,5.16945,0 30.27812,5.16945,0 30.27812,5.15145,0 30.26000,5.15145,0 30.26000,5.13344,0 30.24188,5.13344,0 30.24188,5.11544,0 30.20564,5.11544,0 30.20564,5.09744,0 30.18752,5.09744,0 30.18752,5.07943,0 30.15127,5.07943,0 30.15127,5.06143,0 30.09691,5.06143,0 30.09691,5.04343,0 30.07879,5.04343,0 30.07879,5.02543,0 30.06067,5.02543,0 30.06067,5.00743,0 29.97007,5.00743,0 29.97007,5.02543,0 29.95195,5.02543,0 29.95195,5.04343,0 29.93383,5.04343,0 29.93383,5.06143,0 29.91571,5.06143,0 29.91571,5.07943,0 29.87947,5.07943,0 29.87947,5.09744,0 29.86135,5.09744,0 29.86135,5.11544,0 29.84323,5.11544,0 29.84323,5.13344,0 29.82511,5.13344,0 29.82511,5.15145,0 29.80699,5.15145,0 29.80699,5.16945,0 29.78887,5.16945,0 29.78887,5.18746,0 29.77075,5.18746,0 29.77075,5.20546,0 29.75263,5.20546,0 29.75263,5.22347,0 29.73451,5.22347,0 29.73451,5.25948,0 29.69827,5.25948,0 29.69827,5.24148,0 29.68015,5.24148,0 29.68015,5.22347,0 29.58955,5.22347,0 29.58955,5.24148,0 29.57142,5.24148,0 29.57142,5.25948,0 29.55330,5.25948,0 29.55330,5.27749,0 29.53518,5.27749,0 29.53518,5.29550,0 29.51706,5.29550,0 29.51706,5.31351,0 29.49894,5.31351,0 29.49894,5.33152,0 29.51706,5.33152,0 29.51706,5.34953,0 29.53518,5.34953,0 29.53518,5.36754,0 29.55330,5.36754,0 29.55330,5.38555,0 29.57142,5.38555,0 29.57142,5.40356,0 29.58955,5.40356,0 29.58955,5.42157,0 29.60767,5.42157,0 29.60767,5.43958,0 29.68015,5.43958,0 29.68015,5.45760,0 29.75263,5.45760,0 29.75263,5.43958,0 29.77075,5.43958,0 29.77075,5.42157,0 29.78887,5.42157,0 29.78887,5.40356,0 29.80699,5.40356,0 29.80699,5.38555,0 29.82511,5.38555,0 29.82511,5.36754,0 29.84323,5.36754,0 29.84323,5.34953,0 29.86135,5.34953,0 29.86135,5.33152,0 29.87947,5.33152,0 29.87947,5.31351,0 29.89759,5.31351,0 29.89759,5.29550,0 29.91571,5.29550,0 29.91571,5.25948,0 29.93383,5.25948,0 29.93383,5.24148,0 29.97007,5.24148,0 29.97007,5.22347,0 29.98819,5.22347,0 29.98819,5.20546,0 30.06067,5.20546,0 30.06067,5.22347,0 30.07879,5.22347,0 30.07879,5.24148,0 30.09691,5.24148,0 30.09691,5.25948,0 30.11503,5.25948,0 30.11503,5.27749,0 30.15127,5.27749,0 30.15127,5.29550,0 30.18752,5.29550,0 30.18752,5.31351,0 30.20564,5.31351,0 30.20564,5.36754,0 30.18752,5.36754,0 30.18752,5.40356,0 30.16939,5.40356,0 30.16939,5.42157,0 30.15127,5.42157,0 30.15127,5.43958,0 30.16939,5.43958,0 30.16939,5.45760,0 30.18752,5.45760,0 30.18752,5.47561,0 30.20564,5.47561,0 30.20564,5.49362,0 30.22376,5.49362,0 30.22376,5.51164,0 30.26000,5.51164,0 30.26000,5.52965,0</coordinates></LinearRing></outerBoundaryIs></Polygon></Placemark><Placemark><name>corridor branch 3: bundle 2 (78,000 ha)</name><description><![CDATA[community · 78,000 ha · 17 clusters, 17,449 people (GHSL lower bound), 4 new since 2015<br/>fire 2,845/1000km2/yr, 1478 fronts (99% transhumance, 958 ≥150 km)<br/>clearing since 2020 0.14 km2; cropland 0.01→0.29%; mining reported/candidates/top5% 0/1/12<br/>boundary: K Akali (1930s sheet) on the NW (16 km); R. Busseri (1930s sheet) on the SE (10 km); K. Nowondo (1930s sheet) on the NW/W (8 km); K. Relleh (1930s sheet) on the NW (8 km); Nahr al Jur on the E/SE (8 km); K. Megwalima (1930s sheet) on the S/SW (8 km); 12 km along a geological contact only (not visible on the ground — needs beacons); landmarks on the unnamed stretches: Qshalla (1930s village) (E), Masri (1930s village) (W), Bol (1930s village) (E), Beringi (1930s village) (NW), Dombo (1930s village) (W), Jur Vill. (1930s village) (E), Ngur (1930s village) (E), Manga (1930s village) (SW) — 38% follows no nameable feature]]></description><styleUrl>#corridor</styleUrl><MultiGeometry><Polygon><outerBoundaryIs><LinearRing><coordinates>28.08556,7.71394,0 28.10368,7.71394,0 28.10368,7.69585,0 28.12180,7.69585,0 28.12180,7.67776,0 28.13992,7.67776,0 28.13992,7.65967,0 28.15804,7.65967,0 28.15804,7.58731,0 28.13992,7.58731,0 28.13992,7.56922,0 28.08556,7.56922,0 28.08556,7.58731,0 27.92248,7.58731,0 27.92248,7.60540,0 27.94060,7.60540,0 27.94060,7.62349,0 27.95872,7.62349,0 27.95872,7.65967,0 27.97684,7.65967,0 27.97684,7.67776,0 27.99496,7.67776,0 27.99496,7.69585,0 28.01308,7.69585,0 28.01308,7.71394,0 28.03120,7.71394,0 28.03120,7.73203,0 28.08556,7.73203,0 28.08556,7.71394,0</coordinates></LinearRing></outerBoundaryIs></Polygon><Polygon><outerBoundaryIs><LinearRing><coordinates>27.66879,7.89491,0 27.70503,7.89491,0 27.70503,7.87681,0 27.72315,7.87681,0 27.72315,7.85871,0 27.74127,7.85871,0 27.74127,7.84061,0 27.75939,7.84061,0 27.75939,7.82251,0 27.77751,7.82251,0 27.77751,7.78632,0 27.79564,7.78632,0 27.79564,7.75013,0 27.81376,7.75013,0 27.81376,7.71394,0 27.83188,7.71394,0 27.83188,7.64158,0 27.85000,7.64158,0 27.85000,7.58731,0 27.83188,7.58731,0 27.83188,7.60540,0 27.81376,7.60540,0 27.81376,7.62349,0 27.79564,7.62349,0 27.79564,7.64158,0 27.77751,7.64158,0 27.77751,7.65967,0 27.74127,7.65967,0 27.74127,7.67776,0 27.72315,7.67776,0 27.72315,7.69585,0 27.70503,7.69585,0 27.70503,7.71394,0 27.68691,7.71394,0 27.68691,7.73203,0 27.66879,7.73203,0 27.66879,7.75013,0 27.65067,7.75013,0 27.65067,7.76822,0 27.63255,7.76822,0 27.63255,7.78632,0 27.59631,7.78632,0 27.59631,7.80442,0 27.57819,7.80442,0 27.57819,7.82251,0 27.56007,7.82251,0 27.56007,7.87681,0 27.57819,7.87681,0 27.57819,7.89491,0 27.59631,7.89491,0 27.59631,7.91301,0 27.66879,7.91301,0 27.66879,7.89491,0</coordinates></LinearRing></outerBoundaryIs></Polygon></MultiGeometry></Placemark><Placemark><name>corridor branch 4: bundle 3 (218,400 ha)</name><description><![CDATA[wilderness · 218,400 ha · 1 clusters, 54 people (GHSL lower bound), 0 new since 2015<br/>fire 3,067/1000km2/yr, 1278 fronts (99% transhumance, 936 ≥150 km)<br/>clearing since 2020 0.0 km2; cropland 0.0→0.01%; mining reported/candidates/top5% 1/0/0<br/>boundary: J. KOAYA – J. NOAYA 4428 – J. HELISI ridge on the E/SE (88 km); Yata on the W (10 km); CAF border on the NW/SW (8 km); R. Umbelasha (1930s sheet) on the E (8 km); W. Serihama (1930s sheet) on the NW (6 km); 1930s Province Boundary (DARFUR) on the NE (6 km); 62 km along a geological contact only (not visible on the ground — needs beacons); landmarks on the unnamed stretches: village site (1930s village symbol) (N) — 36% follows no nameable feature]]></description><styleUrl>#corridor</styleUrl><MultiGeometry><Polygon><outerBoundaryIs><LinearRing><coordinates>24.04473,9.69097,0 24.11721,9.69097,0 24.11721,9.67278,0 24.13533,9.67278,0 24.13533,9.65460,0 24.17157,9.65460,0 24.17157,9.63641,0 24.20782,9.63641,0 24.20782,9.61823,0 24.22594,9.61823,0 24.22594,9.60005,0 24.24406,9.60005,0 24.24406,9.58187,0 24.26218,9.58187,0 24.26218,9.52733,0 24.24406,9.52733,0 24.24406,9.50915,0 24.22594,9.50915,0 24.22594,9.49098,0 24.20782,9.49098,0 24.20782,9.47280,0 24.17157,9.47280,0 24.17157,9.45463,0 24.13533,9.45463,0 24.13533,9.43645,0 24.11721,9.43645,0 24.11721,9.45463,0 24.04473,9.45463,0 24.04473,9.47280,0 24.00849,9.47280,0 24.00849,9.49098,0 23.99037,9.49098,0 23.99037,9.56369,0 24.00849,9.56369,0 24.00849,9.61823,0 24.02661,9.61823,0 24.02661,9.69097,0 24.00849,9.69097,0 24.00849,9.70915,0 24.04473,9.70915,0 24.04473,9.69097,0</coordinates></LinearRing></outerBoundaryIs></Polygon><Polygon><outerBoundaryIs><LinearRing><coordinates>23.71857,9.72734,0 23.79105,9.72734,0 23.79105,9.70915,0 23.88165,9.70915,0 23.88165,9.69097,0 23.86353,9.69097,0 23.86353,9.60005,0 23.84541,9.60005,0 23.84541,9.54551,0 23.82729,9.54551,0 23.82729,9.52733,0 23.80917,9.52733,0 23.80917,9.49098,0 23.71857,9.49098,0 23.71857,9.50915,0 23.39240,9.50915,0 23.39240,9.49098,0 23.33804,9.49098,0 23.33804,9.50915,0 23.31992,9.50915,0 23.31992,9.52733,0 23.30180,9.52733,0 23.30180,9.54551,0 23.28368,9.54551,0 23.28368,9.56369,0 23.26556,9.56369,0 23.26556,9.67278,0 23.28368,9.67278,0 23.28368,9.69097,0 23.30180,9.69097,0 23.30180,9.70915,0 23.31992,9.70915,0 23.31992,9.72734,0 23.37428,9.72734,0 23.37428,9.74553,0 23.71857,9.74553,0 23.71857,9.72734,0</coordinates></LinearRing></outerBoundaryIs></Polygon></MultiGeometry></Placemark><Placemark><name>corridor branch 5: bundle 4 (111,600 ha)</name><description><![CDATA[community · 111,600 ha · 25 clusters, 39,447 people (GHSL lower bound), 0 new since 2015<br/>fire 2,957/1000km2/yr, 1069 fronts (99% transhumance, 667 ≥150 km)<br/>clearing since 2020 15.3 km2; cropland 0.0→0.03%; mining reported/candidates/top5% 2/0/10<br/>boundary: CAF border on the W/S (8 km); primary road on the SW (6 km); K. Barange (1930s sheet) on the NE (4 km); 1930s Bahr el Ghazal Province on the NW (4 km); Mbomou on the SW (4 km); R. Bekou (1930s sheet) on the NW (2 km); 32 km along a geological contact only (not visible on the ground — needs beacons) — 71% follows no nameable feature]]></description><styleUrl>#corridor</styleUrl><Polygon><outerBoundaryIs><LinearRing><coordinates>27.41511,5.70983,0 27.43323,5.70983,0 27.43323,5.69181,0 27.45135,5.69181,0 27.45135,5.67379,0 27.46947,5.67379,0 27.46947,5.65577,0 27.48759,5.65577,0 27.48759,5.63776,0 27.50571,5.63776,0 27.50571,5.61974,0 27.52383,5.61974,0 27.52383,5.60172,0 27.54195,5.60172,0 27.54195,5.56569,0 27.52383,5.56569,0 27.52383,5.54767,0 27.50571,5.54767,0 27.50571,5.52965,0 27.48759,5.52965,0 27.48759,5.51164,0 27.46947,5.51164,0 27.46947,5.49362,0 27.45135,5.49362,0 27.45135,5.47561,0 27.43323,5.47561,0 27.43323,5.45760,0 27.41511,5.45760,0 27.41511,5.43958,0 27.39699,5.43958,0 27.39699,5.42157,0 27.37887,5.42157,0 27.37887,5.40356,0 27.36075,5.40356,0 27.36075,5.33152,0 27.34263,5.33152,0 27.34263,5.31351,0 27.32451,5.31351,0 27.32451,5.29550,0 27.30639,5.29550,0 27.30639,5.27749,0 27.28827,5.27749,0 27.28827,5.25948,0 27.27015,5.25948,0 27.27015,5.24148,0 27.25203,5.24148,0 27.25203,5.22347,0 27.23391,5.22347,0 27.23391,5.24148,0 27.21579,5.24148,0 27.21579,5.25948,0 27.19767,5.25948,0 27.19767,5.27749,0 27.17954,5.27749,0 27.17954,5.29550,0 27.16142,5.29550,0 27.16142,5.31351,0 27.14330,5.31351,0 27.14330,5.33152,0 27.12518,5.33152,0 27.12518,5.36754,0 27.10706,5.36754,0 27.10706,5.40356,0 27.12518,5.40356,0 27.12518,5.42157,0 27.14330,5.42157,0 27.14330,5.43958,0 27.16142,5.43958,0 27.16142,5.45760,0 27.17954,5.45760,0 27.17954,5.47561,0 27.19767,5.47561,0 27.19767,5.49362,0 27.21579,5.49362,0 27.21579,5.51164,0 27.23391,5.51164,0 27.23391,5.52965,0 27.25203,5.52965,0 27.25203,5.54767,0 27.27015,5.54767,0 27.27015,5.56569,0 27.28827,5.56569,0 27.28827,5.58370,0 27.30639,5.58370,0 27.30639,5.60172,0 27.32451,5.60172,0 27.32451,5.61974,0 27.34263,5.61974,0 27.34263,5.63776,0 27.36075,5.63776,0 27.36075,5.65577,0 27.37887,5.65577,0 27.37887,5.67379,0 27.39699,5.67379,0 27.39699,5.69181,0 27.41511,5.69181,0 27.41511,5.70983,0</coordinates></LinearRing></outerBoundaryIs></Polygon></Placemark><Placemark><name>corridor branch 6: bundle 5 (224,000 ha)</name><description><![CDATA[wilderness · 224,000 ha · 13 clusters, 261 people (GHSL lower bound), 0 new since 2015<br/>fire 4,593/1000km2/yr, 2560 fronts (99% transhumance, 1807 ≥150 km)<br/>clearing since 2020 0.04 km2; cropland 0.0→0.0%; mining reported/candidates/top5% 0/0/5<br/>boundary: K Akali (1930s sheet) on the E (18 km); J. OROKULLA – J. DELETI – J. KURNU BANDA ridge on the NW (10 km); Boro on the NW (10 km); unnamed river (order 4) on the SE/E (10 km); K. Gama (1930s sheet) on the NW (8 km); Raga River on the NW/W (8 km); 32 km along a geological contact only (not visible on the ground — needs beacons); landmarks on the unnamed stretches: Indirigwa (1930s village) (W), Ibrahim (1930s village) (NW), Dabel Abyad er'... (1930s village) (NW), Uthman (1930s village) (W), Kara (1930s village) (W), Rihan Fei (1930s village) (E), (Big pools, water plentiful) (1930s sheet) (NW), Karim (1930s village) (NW) — 62% follows no nameable feature]]></description><styleUrl>#corridor</styleUrl><MultiGeometry><Polygon><outerBoundaryIs><LinearRing><coordinates>26.14669,7.82251,0 26.14669,7.80442,0 26.12857,7.80442,0 26.12857,7.82251,0 26.14669,7.82251,0</coordinates></LinearRing></outerBoundaryIs></Polygon><Polygon><outerBoundaryIs><LinearRing><coordinates>26.12857,7.84061,0 26.12857,7.82251,0 26.11045,7.82251,0 26.11045,7.84061,0 26.12857,7.84061,0</coordinates></LinearRing></outerBoundaryIs></Polygon><Polygon><outerBoundaryIs><LinearRing><coordinates>26.11045,7.84061,0 26.09233,7.84061,0 26.09233,7.85871,0 26.11045,7.85871,0 26.11045,7.84061,0</coordinates></LinearRing></outerBoundaryIs></Polygon><Polygon><outerBoundaryIs><LinearRing><coordinates>26.09233,7.87681,0 26.09233,7.85871,0 26.07421,7.85871,0 26.07421,7.87681,0 26.09233,7.87681,0</coordinates></LinearRing></outerBoundaryIs></Polygon><Polygon><outerBoundaryIs><LinearRing><coordinates>26.14669,8.03974,0 26.14669,8.05785,0 26.16481,8.05785,0 26.16481,8.03974,0 26.14669,8.03974,0</coordinates></LinearRing></outerBoundaryIs></Polygon><Polygon><outerBoundaryIs><LinearRing><coordinates>26.12857,8.05785,0 26.12857,8.07596,0 26.14669,8.07596,0 26.14669,8.05785,0 26.12857,8.05785,0</coordinates></LinearRing></outerBoundaryIs></Polygon><Polygon><outerBoundaryIs><LinearRing><coordinates>26.12857,8.07596,0 26.11045,8.07596,0 26.11045,8.09406,0 26.12857,8.09406,0 26.12857,8.07596,0</coordinates></LinearRing></outerBoundaryIs></Polygon><Polygon><outerBoundaryIs><LinearRing><coordinates>25.98360,8.22085,0 25.98360,8.23897,0 26.00173,8.23897,0 26.00173,8.22085,0 25.98360,8.22085,0</coordinates></LinearRing></outerBoundaryIs></Polygon><Polygon><outerBoundaryIs><LinearRing><coordinates>25.51248,8.63771,0 25.51248,8.67398,0 25.49436,8.67398,0 25.49436,8.72839,0 25.47624,8.72839,0 25.47624,8.74653,0 25.45812,8.74653,0 25.45812,8.78281,0 25.44000,8.78281,0 25.44000,8.92796,0 25.42188,8.92796,0 25.42188,8.94611,0 25.44000,8.94611,0 25.44000,8.96426,0 25.45812,8.96426,0 25.45812,9.16396,0 25.47624,9.16396,0 25.47624,9.18212,0 25.49436,9.18212,0 25.49436,9.20028,0 25.51248,9.20028,0 25.51248,9.21844,0 25.53060,9.21844,0 25.53060,9.23660,0 25.54872,9.23660,0 25.54872,9.21844,0 25.56684,9.21844,0 25.56684,9.20028,0 25.58496,9.20028,0 25.58496,9.18212,0 25.60308,9.18212,0 25.60308,9.16396,0 25.62120,9.16396,0 25.62120,9.05502,0 25.63932,9.05502,0 25.63932,9.01871,0 25.65744,9.01871,0 25.65744,8.85538,0 25.67556,8.85538,0 25.67556,8.76467,0 25.69368,8.76467,0 25.69368,8.72839,0 25.71180,8.72839,0 25.71180,8.67398,0 25.72992,8.67398,0 25.72992,8.65584,0 25.74804,8.65584,0 25.74804,8.60144,0 25.76616,8.60144,0 25.76616,8.56518,0 25.78428,8.56518,0 25.78428,8.52892,0 25.80240,8.52892,0 25.80240,8.51079,0 25.82052,8.51079,0 25.82052,8.43829,0 25.83864,8.43829,0 25.83864,8.40204,0 25.85676,8.40204,0 25.85676,8.36579,0 25.83864,8.36579,0 25.83864,8.38392,0 25.82052,8.38392,0 25.82052,8.40204,0 25.78428,8.40204,0 25.78428,8.42016,0 25.76616,8.42016,0 25.76616,8.43829,0 25.74804,8.43829,0 25.74804,8.45641,0 25.71180,8.45641,0 25.71180,8.47454,0 25.69368,8.47454,0 25.69368,8.49267,0 25.60308,8.49267,0 25.60308,8.52892,0 25.58496,8.52892,0 25.58496,8.54705,0 25.56684,8.54705,0 25.56684,8.56518,0 25.54872,8.56518,0 25.54872,8.61958,0 25.53060,8.61958,0 25.53060,8.63771,0 25.51248,8.63771,0</coordinates></LinearRing></outerBoundaryIs></Polygon><Polygon><outerBoundaryIs><LinearRing><coordinates>26.52721,7.62349,0 26.56345,7.62349,0 26.56345,7.60540,0 26.52721,7.60540,0 26.52721,7.62349,0</coordinates></LinearRing></outerBoundaryIs></Polygon><Polygon><outerBoundaryIs><LinearRing><coordinates>26.78090,7.62349,0 26.83526,7.62349,0 26.83526,7.60540,0 26.78090,7.60540,0 26.78090,7.62349,0</coordinates></LinearRing></outerBoundaryIs></Polygon><Polygon><outerBoundaryIs><LinearRing><coordinates>26.34601,7.65967,0 26.40037,7.65967,0 26.40037,7.64158,0 26.47285,7.64158,0 26.47285,7.62349,0 26.36413,7.62349,0 26.36413,7.64158,0 26.34601,7.64158,0 26.34601,7.65967,0</coordinates></LinearRing></outerBoundaryIs></Polygon><Polygon><outerBoundaryIs><LinearRing><coordinates>26.30977,7.67776,0 26.34601,7.67776,0 26.34601,7.65967,0 26.30977,7.65967,0 26.30977,7.67776,0</coordinates></LinearRing></outerBoundaryIs></Polygon><Polygon><outerBoundaryIs><LinearRing><coordinates>26.30977,7.69585,0 26.30977,7.67776,0 26.27353,7.67776,0 26.27353,7.69585,0 26.25541,7.69585,0 26.25541,7.71394,0 26.23729,7.71394,0 26.23729,7.73203,0 26.21917,7.73203,0 26.21917,7.75013,0 26.25541,7.75013,0 26.25541,7.73203,0 26.27353,7.73203,0 26.27353,7.71394,0 26.29165,7.71394,0 26.29165,7.69585,0 26.30977,7.69585,0</coordinates></LinearRing></outerBoundaryIs></Polygon><Polygon><outerBoundaryIs><LinearRing><coordinates>26.16481,7.78632,0 26.18293,7.78632,0 26.18293,7.76822,0 26.16481,7.76822,0 26.16481,7.78632,0</coordinates></LinearRing></outerBoundaryIs></Polygon><Polygon><outerBoundaryIs><LinearRing><coordinates>26.14669,7.78632,0 26.14669,7.80442,0 26.16481,7.80442,0 26.16481,7.78632,0 26.14669,7.78632,0</coordinates></LinearRing></outerBoundaryIs></Polygon><Polygon><outerBoundaryIs><LinearRing><coordinates>27.08894,7.84061,0 27.03458,7.84061,0 27.03458,7.85871,0 27.08894,7.85871,0 27.08894,7.84061,0</coordinates></LinearRing></outerBoundaryIs></Polygon><Polygon><outerBoundaryIs><LinearRing><coordinates>27.50571,7.91301,0 27.52383,7.91301,0 27.52383,7.93111,0 27.57819,7.93111,0 27.57819,7.94922,0 27.59631,7.94922,0 27.59631,7.93111,0 27.65067,7.93111,0 27.65067,7.91301,0 27.59631,7.91301,0 27.59631,7.89491,0 27.57819,7.89491,0 27.57819,7.87681,0 27.56007,7.87681,0 27.56007,7.82251,0 27.52383,7.82251,0 27.52383,7.84061,0 27.43323,7.84061,0 27.43323,7.85871,0 27.16142,7.85871,0 27.16142,7.87681,0 27.34263,7.87681,0 27.34263,7.89491,0 27.50571,7.89491,0 27.50571,7.91301,0</coordinates></LinearRing></outerBoundaryIs></Polygon></MultiGeometry></Placemark><Placemark><name>corridor branch 7: bundle 6 (332,400 ha)</name><description><![CDATA[wilderness · 332,400 ha · 2 clusters, 339 people (GHSL lower bound), 0 new since 2015<br/>fire 3,587/1000km2/yr, 1347 fronts (98% transhumance, 938 ≥150 km)<br/>clearing since 2020 0.0 km2; cropland 0.0→0.08%; mining reported/candidates/top5% 0/0/5<br/>boundary: J. TESI – J. ZANDI – J. TAGALLA ridge on the NE/E (14 km); unnamed river (order 4) on the W/NW (12 km); K. Diofo (1930s sheet) on the W (10 km); J. OROKULLA – J. DELETI – J. KURNU BANDA ridge on the SE (10 km); SDN border on the W/SW (8 km); Shalleika on the SW/S (8 km); 54 km along a geological contact only (not visible on the ground — needs beacons); landmarks on the unnamed stretches: Shangfuna (1930s village) (W), Hamdei (1930s village) (E), (Deep pools) (1930s sheet) (W), Shangfu (Deep pools (1930s sheet) (W), Hassan Toki (1930s village) (E), Sukman Karan (1930s village) (E), San (1930s village) (W), small cairn (1930s water symbol) (SE) — 63% follows no nameable feature]]></description><styleUrl>#corridor</styleUrl><Polygon><outerBoundaryIs><LinearRing><coordinates>25.53060,9.69097,0 25.56684,9.69097,0 25.56684,9.67278,0 25.58496,9.67278,0 25.58496,9.65460,0 25.60308,9.65460,0 25.60308,9.63641,0 25.62120,9.63641,0 25.62120,9.61823,0 25.63932,9.61823,0 25.63932,9.60005,0 25.65744,9.60005,0 25.65744,9.54551,0 25.63932,9.54551,0 25.63932,9.52733,0 25.62120,9.52733,0 25.62120,9.50915,0 25.60308,9.50915,0 25.60308,9.49098,0 25.58496,9.49098,0 25.58496,9.47280,0 25.56684,9.47280,0 25.56684,9.45463,0 25.54872,9.45463,0 25.54872,9.43645,0 25.51248,9.43645,0 25.51248,9.41828,0 25.49436,9.41828,0 25.49436,9.40011,0 25.47624,9.40011,0 25.47624,9.38194,0 25.44000,9.38194,0 25.44000,9.36377,0 25.42188,9.36377,0 25.42188,9.34560,0 25.40376,9.34560,0 25.40376,9.32743,0 25.34939,9.32743,0 25.34939,9.30926,0 25.33127,9.30926,0 25.33127,9.29110,0 25.31315,9.29110,0 25.31315,9.27293,0 25.27691,9.27293,0 25.27691,9.25477,0 25.25879,9.25477,0 25.25879,9.23660,0 25.24067,9.23660,0 25.24067,9.21844,0 24.73330,9.21844,0 24.73330,9.23660,0 24.71518,9.23660,0 24.71518,9.21844,0 24.55210,9.21844,0 24.55210,9.25477,0 24.53398,9.25477,0 24.53398,9.29110,0 24.51586,9.29110,0 24.51586,9.32743,0 24.49774,9.32743,0 24.49774,9.34560,0 24.47962,9.34560,0 24.47962,9.36377,0 24.49774,9.36377,0 24.49774,9.40011,0 24.51586,9.40011,0 24.51586,9.41828,0 24.53398,9.41828,0 24.53398,9.43645,0 24.57022,9.43645,0 24.57022,9.45463,0 24.58834,9.45463,0 24.58834,9.47280,0 24.60646,9.47280,0 24.60646,9.49098,0 24.75142,9.49098,0 24.75142,9.47280,0 25.22255,9.47280,0 25.22255,9.49098,0 25.29503,9.49098,0 25.29503,9.50915,0 25.31315,9.50915,0 25.31315,9.52733,0 25.33127,9.52733,0 25.33127,9.54551,0 25.34939,9.54551,0 25.34939,9.56369,0 25.38563,9.56369,0 25.38563,9.58187,0 25.40376,9.58187,0 25.40376,9.60005,0 25.44000,9.60005,0 25.44000,9.61823,0 25.47624,9.61823,0 25.47624,9.63641,0 25.49436,9.63641,0 25.49436,9.65460,0 25.51248,9.65460,0 25.51248,9.67278,0 25.53060,9.67278,0 25.53060,9.69097,0</coordinates></LinearRing></outerBoundaryIs></Polygon></Placemark><Placemark><name>corridor branch 8: bundle 7 (389,200 ha)</name><description><![CDATA[community · 389,200 ha · 6 clusters, 2,061 people (GHSL lower bound), 0 new since 2015<br/>fire 4,575/1000km2/yr, 2529 fronts (99% transhumance, 1684 ≥150 km)<br/>clearing since 2020 0.19 km2; cropland 0.0→0.0%; mining reported/candidates/top5% 0/1/2<br/>boundary: Ibba on the NE/E (20 km); unnamed river (order 4) on the W/E (20 km); Loi (1930s sheet) on the W/NW (16 km); K. ... (1930s sheet) on the S/SE (12 km); R. Meridi (1930s sheet) on the E (10 km); L. Ka (1930s sheet) on the SW (10 km); 24 km along a geological contact only (not visible on the ground — needs beacons); landmarks on the unnamed stretches: Hopali (1930s village) (E), Aul (1930s village) (W), oval lake symbol (1930s water symbol) (NE), Ch. Bambi (1930s village) (E), Fagoboko (1930s village) (E), Chami (1930s village) (E), Willeseni (1930s village) (NE), Makunda (1930s village) (NE) — 60% follows no nameable feature]]></description><styleUrl>#corridor</styleUrl><MultiGeometry><Polygon><outerBoundaryIs><LinearRing><coordinates>29.19090,5.24148,0 29.17278,5.24148,0 29.17278,5.20546,0 29.15466,5.20546,0 29.15466,5.16945,0 29.13654,5.16945,0 29.13654,5.09744,0 29.15466,5.09744,0 29.15466,5.04343,0 29.06406,5.04343,0 29.06406,5.02543,0 28.99158,5.02543,0 28.99158,5.00743,0 28.95533,5.00743,0 28.95533,4.98943,0 28.90097,4.98943,0 28.90097,4.97143,0 28.88285,4.97143,0 28.88285,4.95343,0 28.84661,4.95343,0 28.84661,4.93543,0 28.77413,4.93543,0 28.77413,4.91743,0 28.41173,4.91743,0 28.41173,4.93543,0 28.30300,4.93543,0 28.30300,4.95343,0 28.24864,4.95343,0 28.24864,4.93543,0 28.23052,4.93543,0 28.23052,4.91743,0 28.21240,4.91743,0 28.21240,4.89943,0 28.19428,4.89943,0 28.19428,4.88144,0 28.15804,4.88144,0 28.15804,4.86344,0 28.13992,4.86344,0 28.13992,4.84544,0 28.12180,4.84544,0 28.12180,4.82745,0 28.08556,4.82745,0 28.08556,4.84544,0 28.06744,4.84544,0 28.06744,4.86344,0 28.04932,4.86344,0 28.04932,4.88144,0 28.03120,4.88144,0 28.03120,4.89943,0 28.01308,4.89943,0 28.01308,4.91743,0 27.95872,4.91743,0 27.95872,4.93543,0 27.97684,4.93543,0 27.97684,4.95343,0 27.99496,4.95343,0 27.99496,4.97143,0 28.01308,4.97143,0 28.01308,4.98943,0 28.03120,4.98943,0 28.03120,5.00743,0 28.04932,5.00743,0 28.04932,5.02543,0 28.06744,5.02543,0 28.06744,5.06143,0 28.10368,5.06143,0 28.10368,5.07943,0 28.12180,5.07943,0 28.12180,5.09744,0 28.13992,5.09744,0 28.13992,5.11544,0 28.15804,5.11544,0 28.15804,5.13344,0 28.17616,5.13344,0 28.17616,5.15145,0 28.19428,5.15145,0 28.19428,5.16945,0 28.21240,5.16945,0 28.21240,5.18746,0 28.23052,5.18746,0 28.23052,5.20546,0 28.28488,5.20546,0 28.28488,5.18746,0 28.35736,5.18746,0 28.35736,5.16945,0 28.82849,5.16945,0 28.82849,5.18746,0 28.88285,5.18746,0 28.88285,5.20546,0 28.90097,5.20546,0 28.90097,5.22347,0 28.95533,5.22347,0 28.95533,5.24148,0 28.97345,5.24148,0 28.97345,5.25948,0 29.02782,5.25948,0 29.02782,5.27749,0 29.06406,5.27749,0 29.06406,5.29550,0 29.19090,5.29550,0 29.19090,5.24148,0</coordinates></LinearRing></outerBoundaryIs></Polygon><Polygon><outerBoundaryIs><LinearRing><coordinates>29.51706,5.33152,0 29.49894,5.33152,0 29.49894,5.31351,0 29.51706,5.31351,0 29.51706,5.29550,0 29.53518,5.29550,0 29.53518,5.27749,0 29.55330,5.27749,0 29.55330,5.25948,0 29.57142,5.25948,0 29.57142,5.24148,0 29.58955,5.24148,0 29.58955,5.22347,0 29.62579,5.22347,0 29.62579,5.20546,0 29.60767,5.20546,0 29.60767,5.18746,0 29.58955,5.18746,0 29.58955,5.16945,0 29.57142,5.16945,0 29.57142,5.15145,0 29.55330,5.15145,0 29.55330,5.13344,0 29.53518,5.13344,0 29.53518,5.11544,0 29.48082,5.11544,0 29.48082,5.09744,0 29.37210,5.09744,0 29.37210,5.18746,0 29.39022,5.18746,0 29.39022,5.22347,0 29.40834,5.22347,0 29.40834,5.24148,0 29.42646,5.24148,0 29.42646,5.33152,0 29.48082,5.33152,0 29.48082,5.36754,0 29.51706,5.36754,0 29.51706,5.33152,0</coordinates></LinearRing></outerBoundaryIs></Polygon></MultiGeometry></Placemark><Placemark><name>corridor branch 9: bundle 8 (268,400 ha)</name><description><![CDATA[wilderness · 268,400 ha · 0 clusters, 0 people (GHSL lower bound), 0 new since 2015<br/>fire 4,273/1000km2/yr, 777 fronts (98% transhumance, 511 ≥150 km)<br/>clearing since 2020 0.0 km2; cropland 0.0→0.0%; mining reported/candidates/top5% 2/0/0<br/>boundary: Kaouadja on the N (10 km); O. Ougoulou (Va) (1930s sheet) on the N (2 km); unnamed river (order 4) on the SW (2 km); 110 km along a geological contact only (not visible on the ground — needs beacons); landmarks on the unnamed stretches: unnamed hills (NE) — 94% follows no nameable feature]]></description><styleUrl>#corridor</styleUrl><Polygon><outerBoundaryIs><LinearRing><coordinates>23.88165,8.40204,0 23.93601,8.40204,0 23.93601,8.38392,0 23.95413,8.38392,0 23.95413,8.36579,0 23.97225,8.36579,0 23.97225,8.34767,0 23.99037,8.34767,0 23.99037,8.32955,0 24.00849,8.32955,0 24.00849,8.23897,0 23.99037,8.23897,0 23.99037,8.22085,0 23.97225,8.22085,0 23.97225,8.11217,0 23.95413,8.11217,0 23.95413,8.07596,0 23.93601,8.07596,0 23.93601,8.03974,0 23.91789,8.03974,0 23.91789,8.00353,0 23.89977,8.00353,0 23.89977,7.94922,0 23.88165,7.94922,0 23.88165,7.91301,0 23.86353,7.91301,0 23.86353,7.87681,0 23.84541,7.87681,0 23.84541,7.73203,0 23.82729,7.73203,0 23.82729,7.67776,0 23.80917,7.67776,0 23.80917,7.64158,0 23.79105,7.64158,0 23.79105,7.60540,0 23.77293,7.60540,0 23.77293,7.56922,0 23.75481,7.56922,0 23.75481,7.55113,0 23.73669,7.55113,0 23.73669,7.51496,0 23.71857,7.51496,0 23.71857,7.47879,0 23.70045,7.47879,0 23.70045,7.44263,0 23.68233,7.44263,0 23.68233,7.42455,0 23.66421,7.42455,0 23.66421,7.40647,0 23.64609,7.40647,0 23.64609,7.38839,0 23.62797,7.38839,0 23.62797,7.37031,0 23.59173,7.37031,0 23.59173,7.35223,0 23.57360,7.35223,0 23.57360,7.37031,0 23.55548,7.37031,0 23.55548,7.38839,0 23.53736,7.38839,0 23.53736,7.40647,0 23.51924,7.40647,0 23.51924,7.42455,0 23.50112,7.42455,0 23.50112,7.44263,0 23.48300,7.44263,0 23.48300,7.47879,0 23.50112,7.47879,0 23.50112,7.53305,0 23.51924,7.53305,0 23.51924,7.56922,0 23.53736,7.56922,0 23.53736,7.60540,0 23.55548,7.60540,0 23.55548,7.64158,0 23.57360,7.64158,0 23.57360,7.67776,0 23.59173,7.67776,0 23.59173,7.73203,0 23.60985,7.73203,0 23.60985,7.78632,0 23.62797,7.78632,0 23.62797,7.91301,0 23.64609,7.91301,0 23.64609,7.94922,0 23.66421,7.94922,0 23.66421,8.00353,0 23.68233,8.00353,0 23.68233,8.03974,0 23.70045,8.03974,0 23.70045,8.07596,0 23.71857,8.07596,0 23.71857,8.09406,0 23.73669,8.09406,0 23.73669,8.18462,0 23.75481,8.18462,0 23.75481,8.20274,0 23.77293,8.20274,0 23.77293,8.27520,0 23.79105,8.27520,0 23.79105,8.31143,0 23.80917,8.31143,0 23.80917,8.32955,0 23.82729,8.32955,0 23.82729,8.34767,0 23.84541,8.34767,0 23.84541,8.36579,0 23.86353,8.36579,0 23.86353,8.38392,0 23.88165,8.38392,0 23.88165,8.40204,0</coordinates></LinearRing></outerBoundaryIs></Polygon></Placemark><Placemark><name>corridor branch 10: bundle 9 (110,000 ha)</name><description><![CDATA[community · 110,000 ha · 10 clusters, 2,091 people (GHSL lower bound), 2 new since 2015<br/>fire 3,578/1000km2/yr, 1995 fronts (98% transhumance, 1358 ≥150 km)<br/>clearing since 2020 0.4 km2; cropland 0.0→0.16%; mining reported/candidates/top5% 0/0/7<br/>boundary: River Gulnam on the SE (32 km); River Rohl on the SE (10 km); Ibba on the NW (8 km); River Toni (1930s sheet) on the NW (6 km); Swampy (1930s sheet) on the NW (6 km); R. Karang (1930s sheet) on the SE (4 km); 50 km along a geological contact only (not visible on the ground — needs beacons); landmarks on the unnamed stretches: Jur V (1930s village) (NW), Mapeir (1930s village) (NW), Pool (1930s sheet) (NW), Swamp (1930s sheet) (NW), Bir Gurr (1930s village) (NW), Kair Yair (1930s village) (NW), (Pool) (1930s sheet) (NW), Ngong (1930s village) (NW) — 68% follows no nameable feature]]></description><styleUrl>#corridor</styleUrl><MultiGeometry><Polygon><outerBoundaryIs><LinearRing><coordinates>28.93721,7.13534,0 28.95533,7.13534,0 28.95533,7.11727,0 28.93721,7.11727,0 28.93721,7.13534,0</coordinates></LinearRing></outerBoundaryIs></Polygon><Polygon><outerBoundaryIs><LinearRing><coordinates>28.93721,7.13534,0 28.90097,7.13534,0 28.90097,7.15341,0 28.93721,7.15341,0 28.93721,7.13534,0</coordinates></LinearRing></outerBoundaryIs></Polygon><Polygon><outerBoundaryIs><LinearRing><coordinates>28.88285,7.17148,0 28.90097,7.17148,0 28.90097,7.15341,0 28.88285,7.15341,0 28.88285,7.17148,0</coordinates></LinearRing></outerBoundaryIs></Polygon><Polygon><outerBoundaryIs><LinearRing><coordinates>28.88285,7.17148,0 28.86473,7.17148,0 28.86473,7.18955,0 28.88285,7.18955,0 28.88285,7.17148,0</coordinates></LinearRing></outerBoundaryIs></Polygon><Polygon><outerBoundaryIs><LinearRing><coordinates>28.61105,7.20762,0 28.64729,7.20762,0 28.64729,7.18955,0 28.61105,7.18955,0 28.61105,7.20762,0</coordinates></LinearRing></outerBoundaryIs></Polygon><Polygon><outerBoundaryIs><LinearRing><coordinates>28.86473,7.20762,0 28.86473,7.18955,0 28.84661,7.18955,0 28.84661,7.20762,0 28.86473,7.20762,0</coordinates></LinearRing></outerBoundaryIs></Polygon><Polygon><outerBoundaryIs><LinearRing><coordinates>28.61105,7.20762,0 28.57481,7.20762,0 28.57481,7.22570,0 28.61105,7.22570,0 28.61105,7.20762,0</coordinates></LinearRing></outerBoundaryIs></Polygon><Polygon><outerBoundaryIs><LinearRing><coordinates>28.53857,7.22570,0 28.53857,7.24377,0 28.55669,7.24377,0 28.55669,7.22570,0 28.53857,7.22570,0</coordinates></LinearRing></outerBoundaryIs></Polygon><Polygon><outerBoundaryIs><LinearRing><coordinates>28.52045,7.24377,0 28.52045,7.26185,0 28.53857,7.26185,0 28.53857,7.24377,0 28.52045,7.24377,0</coordinates></LinearRing></outerBoundaryIs></Polygon><Polygon><outerBoundaryIs><LinearRing><coordinates>28.48421,7.26185,0 28.48421,7.27992,0 28.50233,7.27992,0 28.50233,7.26185,0 28.48421,7.26185,0</coordinates></LinearRing></outerBoundaryIs></Polygon><Polygon><outerBoundaryIs><LinearRing><coordinates>28.73789,7.31607,0 28.71977,7.31607,0 28.71977,7.33415,0 28.70165,7.33415,0 28.70165,7.35223,0 28.68353,7.35223,0 28.68353,7.37031,0 28.66541,7.37031,0 28.66541,7.38839,0 28.64729,7.38839,0 28.64729,7.40647,0 28.59293,7.40647,0 28.59293,7.42455,0 28.68353,7.42455,0 28.68353,7.40647,0 28.70165,7.40647,0 28.70165,7.38839,0 28.71977,7.38839,0 28.71977,7.37031,0 28.73789,7.37031,0 28.73789,7.35223,0 28.75601,7.35223,0 28.75601,7.33415,0 28.77413,7.33415,0 28.77413,7.27992,0 28.79225,7.27992,0 28.79225,7.26185,0 28.81037,7.26185,0 28.81037,7.22570,0 28.79225,7.22570,0 28.79225,7.24377,0 28.77413,7.24377,0 28.77413,7.26185,0 28.73789,7.26185,0 28.73789,7.31607,0</coordinates></LinearRing></outerBoundaryIs></Polygon><Polygon><outerBoundaryIs><LinearRing><coordinates>28.53857,7.42455,0 28.53857,7.44263,0 28.59293,7.44263,0 28.59293,7.42455,0 28.53857,7.42455,0</coordinates></LinearRing></outerBoundaryIs></Polygon><Polygon><outerBoundaryIs><LinearRing><coordinates>28.53857,7.46071,0 28.53857,7.44263,0 28.52045,7.44263,0 28.52045,7.46071,0 28.53857,7.46071,0</coordinates></LinearRing></outerBoundaryIs></Polygon><Polygon><outerBoundaryIs><LinearRing><coordinates>29.60767,6.12446,0 29.62579,6.12446,0 29.62579,6.08839,0 29.69827,6.08839,0 29.69827,6.10643,0 29.71639,6.10643,0 29.71639,6.12446,0 29.73451,6.12446,0 29.73451,6.14249,0 29.75263,6.14249,0 29.75263,6.12446,0 29.80699,6.12446,0 29.80699,6.10643,0 29.82511,6.10643,0 29.82511,6.08839,0 29.84323,6.08839,0 29.84323,6.07036,0 29.86135,6.07036,0 29.86135,6.05233,0 29.87947,6.05233,0 29.87947,6.01627,0 29.86135,6.01627,0 29.86135,5.99824,0 29.84323,5.99824,0 29.84323,5.98021,0 29.82511,5.98021,0 29.82511,5.96218,0 29.80699,5.96218,0 29.80699,5.94415,0 29.78887,5.94415,0 29.78887,5.92612,0 29.73451,5.92612,0 29.73451,5.90810,0 29.69827,5.90810,0 29.69827,5.89007,0 29.58955,5.89007,0 29.58955,5.90810,0 29.55330,5.90810,0 29.55330,6.12446,0 29.53518,6.12446,0 29.53518,6.32287,0 29.55330,6.32287,0 29.55330,6.28679,0 29.57142,6.28679,0 29.57142,6.26875,0 29.58955,6.26875,0 29.58955,6.23267,0 29.60767,6.23267,0 29.60767,6.12446,0</coordinates></LinearRing></outerBoundaryIs></Polygon><Polygon><outerBoundaryIs><LinearRing><coordinates>29.51706,6.32287,0 29.51706,6.35895,0 29.53518,6.35895,0 29.53518,6.32287,0 29.51706,6.32287,0</coordinates></LinearRing></outerBoundaryIs></Polygon><Polygon><outerBoundaryIs><LinearRing><coordinates>29.20902,6.81019,0 29.20902,6.82825,0 29.22714,6.82825,0 29.22714,6.81019,0 29.20902,6.81019,0</coordinates></LinearRing></outerBoundaryIs></Polygon><Polygon><outerBoundaryIs><LinearRing><coordinates>29.19090,6.86437,0 29.17278,6.86437,0 29.17278,6.88243,0 29.19090,6.88243,0 29.19090,6.86437,0</coordinates></LinearRing></outerBoundaryIs></Polygon><Polygon><outerBoundaryIs><LinearRing><coordinates>29.11842,6.97274,0 29.11842,6.95467,0 29.10030,6.95467,0 29.10030,6.97274,0 29.11842,6.97274,0</coordinates></LinearRing></outerBoundaryIs></Polygon><Polygon><outerBoundaryIs><LinearRing><coordinates>29.08218,6.97274,0 29.08218,6.99080,0 29.10030,6.99080,0 29.10030,6.97274,0 29.08218,6.97274,0</coordinates></LinearRing></outerBoundaryIs></Polygon><Polygon><outerBoundaryIs><LinearRing><coordinates>29.08218,6.99080,0 29.06406,6.99080,0 29.06406,7.00887,0 29.08218,7.00887,0 29.08218,6.99080,0</coordinates></LinearRing></outerBoundaryIs></Polygon><Polygon><outerBoundaryIs><LinearRing><coordinates>29.04594,7.00887,0 29.04594,7.02693,0 29.06406,7.02693,0 29.06406,7.00887,0 29.04594,7.00887,0</coordinates></LinearRing></outerBoundaryIs></Polygon><Polygon><outerBoundaryIs><LinearRing><coordinates>29.04594,7.04500,0 29.04594,7.02693,0 29.02782,7.02693,0 29.02782,7.04500,0 29.04594,7.04500,0</coordinates></LinearRing></outerBoundaryIs></Polygon><Polygon><outerBoundaryIs><LinearRing><coordinates>29.00970,7.04500,0 29.00970,7.06306,0 29.02782,7.06306,0 29.02782,7.04500,0 29.00970,7.04500,0</coordinates></LinearRing></outerBoundaryIs></Polygon><Polygon><outerBoundaryIs><LinearRing><coordinates>29.00970,7.08113,0 29.00970,7.06306,0 28.99158,7.06306,0 28.99158,7.08113,0 29.00970,7.08113,0</coordinates></LinearRing></outerBoundaryIs></Polygon><Polygon><outerBoundaryIs><LinearRing><coordinates>28.99158,7.09920,0 28.99158,7.08113,0 28.97345,7.08113,0 28.97345,7.09920,0 28.99158,7.09920,0</coordinates></LinearRing></outerBoundaryIs></Polygon><Polygon><outerBoundaryIs><LinearRing><coordinates>28.95533,7.11727,0 28.97345,7.11727,0 28.97345,7.09920,0 28.95533,7.09920,0 28.95533,7.11727,0</coordinates></LinearRing></outerBoundaryIs></Polygon></MultiGeometry></Placemark><Placemark><name>corridor branch 11: bundle 10 (120,400 ha)</name><description><![CDATA[core · 120,400 ha · 0 clusters, 0 people (GHSL lower bound), 0 new since 2015<br/>fire 4,128/1000km2/yr, 943 fronts (99% transhumance, 727 ≥150 km)<br/>clearing since 2020 0.0 km2; cropland 0.0→0.0%; mining reported/candidates/top5% 0/0/0<br/>boundary: Kuru on the W/S (20 km); K. Ndepa (1930s sheet) on the SE (10 km); R. Reidei (1930s sheet) on the NW (8 km); Pongo on the SE (6 km); unnamed river (order 4) on the SE (6 km); Sopo on the NW (4 km); landmarks on the unnamed stretches: unnamed hills (NW), Umm'a Saidai (1930s village) (NW), Ouma Sa'dai (1930s village) (NW), unnamed hills (NW), Wizango (1930s village) (NW), Tabangiya (1930s village) (NW), Rabeh (1930s village) (NW), Allah Gaba (1930s village) (NW) — 54% follows no nameable feature]]></description><styleUrl>#corridor</styleUrl><MultiGeometry><Polygon><outerBoundaryIs><LinearRing><coordinates>26.07421,7.87681,0 26.05609,7.87681,0 26.05609,7.89491,0 26.07421,7.89491,0 26.07421,7.87681,0</coordinates></LinearRing></outerBoundaryIs></Polygon><Polygon><outerBoundaryIs><LinearRing><coordinates>26.05609,7.91301,0 26.05609,7.89491,0 26.03797,7.89491,0 26.03797,7.91301,0 26.05609,7.91301,0</coordinates></LinearRing></outerBoundaryIs></Polygon><Polygon><outerBoundaryIs><LinearRing><coordinates>26.01985,7.93111,0 26.03797,7.93111,0 26.03797,7.91301,0 26.01985,7.91301,0 26.01985,7.93111,0</coordinates></LinearRing></outerBoundaryIs></Polygon><Polygon><outerBoundaryIs><LinearRing><coordinates>26.00173,7.94922,0 26.01985,7.94922,0 26.01985,7.93111,0 26.00173,7.93111,0 26.00173,7.94922,0</coordinates></LinearRing></outerBoundaryIs></Polygon><Polygon><outerBoundaryIs><LinearRing><coordinates>26.00173,7.94922,0 25.98360,7.94922,0 25.98360,7.96732,0 26.00173,7.96732,0 26.00173,7.94922,0</coordinates></LinearRing></outerBoundaryIs></Polygon><Polygon><outerBoundaryIs><LinearRing><coordinates>25.98360,7.98542,0 25.98360,7.96732,0 25.96548,7.96732,0 25.96548,7.98542,0 25.98360,7.98542,0</coordinates></LinearRing></outerBoundaryIs></Polygon><Polygon><outerBoundaryIs><LinearRing><coordinates>25.96548,7.98542,0 25.94736,7.98542,0 25.94736,8.00353,0 25.96548,8.00353,0 25.96548,7.98542,0</coordinates></LinearRing></outerBoundaryIs></Polygon><Polygon><outerBoundaryIs><LinearRing><coordinates>26.52721,7.60540,0 26.58157,7.60540,0 26.58157,7.58731,0 26.59970,7.58731,0 26.59970,7.55113,0 26.61782,7.55113,0 26.61782,7.53305,0 26.63594,7.53305,0 26.63594,7.51496,0 26.65406,7.51496,0 26.65406,7.49688,0 26.67218,7.49688,0 26.67218,7.47879,0 26.69030,7.47879,0 26.69030,7.44263,0 26.70842,7.44263,0 26.70842,7.42455,0 26.72654,7.42455,0 26.72654,7.40647,0 26.74466,7.40647,0 26.74466,7.38839,0 26.76278,7.38839,0 26.76278,7.37031,0 26.78090,7.37031,0 26.78090,7.35223,0 26.79902,7.35223,0 26.79902,7.33415,0 26.81714,7.33415,0 26.81714,7.29800,0 26.83526,7.29800,0 26.83526,7.27992,0 26.85338,7.27992,0 26.85338,7.22570,0 26.83526,7.22570,0 26.83526,7.17148,0 26.81714,7.17148,0 26.81714,7.15341,0 26.79902,7.15341,0 26.79902,7.13534,0 26.76278,7.13534,0 26.76278,7.15341,0 26.74466,7.15341,0 26.74466,7.17148,0 26.72654,7.17148,0 26.72654,7.18955,0 26.70842,7.18955,0 26.70842,7.20762,0 26.69030,7.20762,0 26.69030,7.22570,0 26.67218,7.22570,0 26.67218,7.24377,0 26.65406,7.24377,0 26.65406,7.26185,0 26.63594,7.26185,0 26.63594,7.29800,0 26.61782,7.29800,0 26.61782,7.31607,0 26.59970,7.31607,0 26.59970,7.33415,0 26.58157,7.33415,0 26.58157,7.35223,0 26.56345,7.35223,0 26.56345,7.37031,0 26.54533,7.37031,0 26.54533,7.38839,0 26.52721,7.38839,0 26.52721,7.40647,0 26.50909,7.40647,0 26.50909,7.42455,0 26.49097,7.42455,0 26.49097,7.46071,0 26.47285,7.46071,0 26.47285,7.49688,0 26.45473,7.49688,0 26.45473,7.51496,0 26.43661,7.51496,0 26.43661,7.53305,0 26.41849,7.53305,0 26.41849,7.55113,0 26.40037,7.55113,0 26.40037,7.56922,0 26.36413,7.56922,0 26.36413,7.58731,0 26.34601,7.58731,0 26.34601,7.60540,0 26.32789,7.60540,0 26.32789,7.62349,0 26.30977,7.62349,0 26.30977,7.64158,0 26.29165,7.64158,0 26.29165,7.65967,0 26.27353,7.65967,0 26.27353,7.67776,0 26.30977,7.67776,0 26.30977,7.65967,0 26.34601,7.65967,0 26.34601,7.64158,0 26.36413,7.64158,0 26.36413,7.62349,0 26.52721,7.62349,0 26.52721,7.60540,0</coordinates></LinearRing></outerBoundaryIs></Polygon><Polygon><outerBoundaryIs><LinearRing><coordinates>26.25541,7.67776,0 26.25541,7.69585,0 26.27353,7.69585,0 26.27353,7.67776,0 26.25541,7.67776,0</coordinates></LinearRing></outerBoundaryIs></Polygon><Polygon><outerBoundaryIs><LinearRing><coordinates>26.23729,7.71394,0 26.25541,7.71394,0 26.25541,7.69585,0 26.23729,7.69585,0 26.23729,7.71394,0</coordinates></LinearRing></outerBoundaryIs></Polygon><Polygon><outerBoundaryIs><LinearRing><coordinates>26.21917,7.71394,0 26.21917,7.73203,0 26.23729,7.73203,0 26.23729,7.71394,0 26.21917,7.71394,0</coordinates></LinearRing></outerBoundaryIs></Polygon><Polygon><outerBoundaryIs><LinearRing><coordinates>26.20105,7.75013,0 26.21917,7.75013,0 26.21917,7.73203,0 26.20105,7.73203,0 26.20105,7.75013,0</coordinates></LinearRing></outerBoundaryIs></Polygon><Polygon><outerBoundaryIs><LinearRing><coordinates>26.20105,7.76822,0 26.20105,7.75013,0 26.18293,7.75013,0 26.18293,7.76822,0 26.20105,7.76822,0</coordinates></LinearRing></outerBoundaryIs></Polygon></MultiGeometry></Placemark><Placemark><name>corridor branch 12: bundle 11 (98,800 ha)</name><description><![CDATA[community · 98,800 ha · 1 clusters, 2,434 people (GHSL lower bound), 0 new since 2015<br/>fire 2,199/1000km2/yr, 452 fronts (97% transhumance, 216 ≥150 km)<br/>clearing since 2020 1.55 km2; cropland 0.0→0.0%; mining reported/candidates/top5% 0/0/0<br/>boundary: Ouara on the E/NW (16 km); Ngoangoa on the W/NW (10 km); secondary road on the N/SW (8 km); 36 km along a geological contact only (not visible on the ground — needs beacons); landmarks on the unnamed stretches: Rafi (1930s village) (NE), Nabasse (1930s village) (NE), Rou (1930s village) (NE) — 69% follows no nameable feature]]></description><styleUrl>#corridor</styleUrl><Polygon><outerBoundaryIs><LinearRing><coordinates>25.49436,5.96218,0 25.51248,5.96218,0 25.51248,5.94415,0 25.54872,5.94415,0 25.54872,5.92612,0 25.56684,5.92612,0 25.56684,5.90810,0 25.58496,5.90810,0 25.58496,5.89007,0 25.60308,5.89007,0 25.60308,5.87204,0 25.58496,5.87204,0 25.58496,5.85402,0 25.56684,5.85402,0 25.56684,5.83599,0 25.54872,5.83599,0 25.54872,5.81797,0 25.53060,5.81797,0 25.53060,5.79994,0 25.51248,5.79994,0 25.51248,5.78192,0 25.49436,5.78192,0 25.49436,5.76390,0 25.44000,5.76390,0 25.44000,5.74588,0 25.42188,5.74588,0 25.42188,5.72785,0 25.38563,5.72785,0 25.38563,5.70983,0 25.36751,5.70983,0 25.36751,5.69181,0 25.33127,5.69181,0 25.33127,5.67379,0 25.31315,5.67379,0 25.31315,5.69181,0 25.20443,5.69181,0 25.20443,5.70983,0 25.18631,5.70983,0 25.18631,5.76390,0 25.16819,5.76390,0 25.16819,5.78192,0 25.15007,5.78192,0 25.15007,5.79994,0 25.13195,5.79994,0 25.13195,5.81797,0 25.11383,5.81797,0 25.11383,5.85402,0 25.13195,5.85402,0 25.13195,5.87204,0 25.15007,5.87204,0 25.15007,5.89007,0 25.16819,5.89007,0 25.16819,5.90810,0 25.18631,5.90810,0 25.18631,5.89007,0 25.29503,5.89007,0 25.29503,5.90810,0 25.34939,5.90810,0 25.34939,5.92612,0 25.36751,5.92612,0 25.36751,5.94415,0 25.49436,5.94415,0 25.49436,5.96218,0</coordinates></LinearRing></outerBoundaryIs></Polygon></Placemark><Placemark><name>corridor branch 13: bundle 12 (44,800 ha)</name><description><![CDATA[core · 44,800 ha · 0 clusters, 0 people (GHSL lower bound), 0 new since 2015<br/>fire 4,868/1000km2/yr, 734 fronts (99% transhumance, 554 ≥150 km)<br/>clearing since 2020 0.0 km2; cropland 0.0→0.0%; mining reported/candidates/top5% 0/0/0<br/>boundary: Rohl on the SE (14 km); K. Zeggo (1930s sheet) on the SE (6 km); R. Rohi (1930s sheet) on the E/SE (4 km); Nahr al Jur on the NW (2 km); K. Nuduk (1930s sheet) on the NW (2 km); WAD N JO (1930s sheet) on the E (2 km); landmarks on the unnamed stretches: Sirur (1930s village) (NW), Jur vill. (1930s village) (NW) — 61% follows no nameable feature]]></description><styleUrl>#corridor</styleUrl><MultiGeometry><Polygon><outerBoundaryIs><LinearRing><coordinates>29.89759,5.98021,0 29.91571,5.98021,0 29.91571,5.96218,0 29.95195,5.96218,0 29.95195,5.94415,0 29.97007,5.94415,0 29.97007,5.92612,0 29.98819,5.92612,0 29.98819,5.90810,0 30.00631,5.90810,0 30.00631,5.85402,0 29.98819,5.85402,0 29.98819,5.83599,0 29.97007,5.83599,0 29.97007,5.79994,0 29.95195,5.79994,0 29.95195,5.78192,0 29.93383,5.78192,0 29.93383,5.76390,0 29.91571,5.76390,0 29.91571,5.78192,0 29.89759,5.78192,0 29.89759,5.79994,0 29.87947,5.79994,0 29.87947,5.81797,0 29.86135,5.81797,0 29.86135,5.83599,0 29.84323,5.83599,0 29.84323,5.85402,0 29.78887,5.85402,0 29.78887,5.87204,0 29.71639,5.87204,0 29.71639,5.89007,0 29.69827,5.89007,0 29.69827,5.90810,0 29.73451,5.90810,0 29.73451,5.92612,0 29.78887,5.92612,0 29.78887,5.94415,0 29.80699,5.94415,0 29.80699,5.96218,0 29.82511,5.96218,0 29.82511,5.98021,0 29.84323,5.98021,0 29.84323,5.99824,0 29.86135,5.99824,0 29.86135,6.01627,0 29.87947,6.01627,0 29.87947,5.99824,0 29.89759,5.99824,0 29.89759,5.98021,0</coordinates></LinearRing></outerBoundaryIs></Polygon><Polygon><outerBoundaryIs><LinearRing><coordinates>28.26676,7.51496,0 28.26676,7.49688,0 28.24864,7.49688,0 28.24864,7.51496,0 28.26676,7.51496,0</coordinates></LinearRing></outerBoundaryIs></Polygon><Polygon><outerBoundaryIs><LinearRing><coordinates>28.19428,7.53305,0 28.19428,7.55113,0 28.21240,7.55113,0 28.21240,7.53305,0 28.19428,7.53305,0</coordinates></LinearRing></outerBoundaryIs></Polygon><Polygon><outerBoundaryIs><LinearRing><coordinates>28.13992,7.55113,0 28.13992,7.56922,0 28.15804,7.56922,0 28.15804,7.55113,0 28.13992,7.55113,0</coordinates></LinearRing></outerBoundaryIs></Polygon></MultiGeometry></Placemark></Document></kml>