{"type": "FeatureCollection", "features": [{"type": "Feature", "properties": {"kind": "walked_today", "cells": 2158, "km2": 8632, "axis_km": 391}, "geometry": {"type": "Polygon", "coordinates": [[[23.659334837320714, 7.644865200084975], [23.659334837320714, 7.62677535829014], [23.64121453451825, 7.62677535829014], [23.64121453451825, 7.608686261131753], [23.62309423171579, 7.608686261131753], [23.62309423171579, 7.590597906759964], [23.604973928913324, 7.590597906759964], [23.604973928913324, 7.572510293325618], [23.58685362611086, 7.572510293325618], [23.58685362611086, 7.554423418980234], [23.5687333233084, 7.554423418980234], [23.5687333233084, 7.536337281876012], [23.550613020505935, 7.536337281876012], [23.550613020505935, 7.51825188016584], [23.53249271770347, 7.51825188016584], [23.53249271770347, 7.5001672120032685], [23.514372414901008, 7.5001672120032685], [23.514372414901008, 7.482083275542536], [23.496252112098546, 7.482083275542536], [23.496252112098546, 7.4640000689385495], [23.47813180929608, 7.4640000689385495], [23.47813180929608, 7.445917590346881], [23.460011506493615, 7.445917590346881], [23.460011506493615, 7.427835837923782], [23.441891203691153, 7.427835837923782], [23.441891203691153, 7.409754809826169], [23.423770900888687, 7.409754809826169], [23.423770900888687, 7.391674504211623], [23.405650598086226, 7.391674504211623], [23.405650598086226, 7.373594919238383], [23.387530295283764, 7.373594919238383], [23.387530295283764, 7.3555160530653625], [23.369409992481298, 7.3555160530653625], [23.369409992481298, 7.337437903852126], [23.351289689678833, 7.337437903852126], [23.351289689678833, 7.3193604697589025], [23.33316938687637, 7.3193604697589025], [23.33316938687637, 7.301283748946568], [23.31504908407391, 7.301283748946568], [23.31504908407391, 7.28320773957667], [23.296928781271443, 7.28320773957667], [23.296928781271443, 7.26513243981139], [23.278808478468978, 7.26513243981139], [23.278808478468978, 7.24705784781357], [23.260688175666516, 7.24705784781357], [23.260688175666516, 7.228983961746708], [23.242567872864054, 7.228983961746708], [23.242567872864054, 7.192838300063053], [23.22444757006159, 7.192838300063053], [23.22444757006159, 7.174766520776469], [23.206327267259123, 7.174766520776469], [23.206327267259123, 7.156695440081262], [23.188206964456665, 7.156695440081262], [23.188206964456665, 6.614878793697557], [23.1700866616542, 6.614878793697557], [23.1700866616542, 6.578778772787667], [23.151966358851734, 6.578778772787667], [23.151966358851734, 6.506586377508248], [23.133846056049272, 6.506586377508248], [23.133846056049272, 6.488539861145044], [23.115725753246807, 6.488539861145044], [23.115725753246807, 6.470493974141921], [23.09760545044434, 6.470493974141921], [23.09760545044434, 6.452448714688592], [23.07948514764188, 6.452448714688592], [23.07948514764188, 6.434404080975341], [23.061364844839417, 6.434404080975341], [23.061364844839417, 6.416360071193019], [23.043244542036955, 6.416360071193019], [23.043244542036955, 6.3983166835330465], [23.02512423923449, 6.3983166835330465], [23.02512423923449, 6.380273916187413], [23.007003936432028, 6.380273916187413], [23.007003936432028, 6.362231767348663], [22.988883633629563, 6.362231767348663], [22.988883633629563, 6.344190235209911], [22.970763330827097, 6.344190235209911], [22.970763330827097, 6.326149317964829], [22.952643028024635, 6.326149317964829], [22.952643028024635, 6.3081090138076465], [22.934522725222173, 6.3081090138076465], [22.934522725222173, 6.29006932093315], [22.916402422419708, 6.29006932093315], [22.916402422419708, 6.272030237536685], [22.880161816814784, 6.272030237536685], [22.880161816814784, 6.2539917618141425], [22.807680605604926, 6.2539917618141425], [22.807680605604926, 6.235953891961972], [22.789560302802464, 6.235953891961972], [22.789560302802464, 6.21791662617717], [22.77144, 6.21791662617717], [22.77144, 6.055608119919961], [22.789560302802464, 6.055608119919961], [22.789560302802464, 6.037576795763397], [22.807680605604926, 6.037576795763397], [22.807680605604926, 6.019546055876962], [22.880161816814784, 6.019546055876962], [22.880161816814784, 6.037576795763397], [22.916402422419708, 6.037576795763397], [22.916402422419708, 6.055608119919961], [22.934522725222173, 6.055608119919961], [22.934522725222173, 6.0736400301437214], [22.952643028024635, 6.0736400301437214], [22.952643028024635, 6.091672528232279], [22.970763330827097, 6.091672528232279], [22.970763330827097, 6.109705615983766], [22.988883633629563, 6.109705615983766], [22.988883633629563, 6.127739295196852], [23.007003936432028, 6.127739295196852], [23.007003936432028, 6.145773567670733], [23.02512423923449, 6.145773567670733], [23.02512423923449, 6.163808435205156], [23.043244542036955, 6.163808435205156], [23.043244542036955, 6.181843899600398], [23.061364844839417, 6.181843899600398], [23.061364844839417, 6.199879962657283], [23.07948514764188, 6.199879962657283], [23.07948514764188, 6.21791662617717], [23.09760545044434, 6.21791662617717], [23.09760545044434, 6.235953891961972], [23.115725753246807, 6.235953891961972], [23.115725753246807, 6.2539917618141425], [23.133846056049272, 6.2539917618141425], [23.133846056049272, 6.272030237536685], [23.151966358851734, 6.272030237536685], [23.151966358851734, 6.29006932093315], [23.1700866616542, 6.29006932093315], [23.1700866616542, 6.3081090138076465], [23.188206964456665, 6.3081090138076465], [23.188206964456665, 6.326149317964829], [23.206327267259123, 6.326149317964829], [23.206327267259123, 6.344190235209911], [23.22444757006159, 6.344190235209911], [23.22444757006159, 6.362231767348663], [23.242567872864054, 6.362231767348663], [23.242567872864054, 6.380273916187413], [23.260688175666516, 6.380273916187413], [23.260688175666516, 6.3983166835330465], [23.278808478468978, 6.3983166835330465], [23.278808478468978, 6.416360071193019], [23.296928781271443, 6.416360071193019], [23.296928781271443, 6.434404080975341], [23.31504908407391, 6.434404080975341], [23.31504908407391, 6.452448714688592], [23.33316938687637, 6.452448714688592], [23.33316938687637, 6.470493974141921], [23.351289689678833, 6.470493974141921], [23.351289689678833, 6.488539861145044], [23.369409992481298, 6.488539861145044], [23.369409992481298, 6.506586377508248], [23.387530295283764, 6.506586377508248], [23.387530295283764, 6.578778772787667], [23.405650598086226, 6.578778772787667], [23.405650598086226, 6.614878793697557], [23.423770900888687, 6.614878793697557], [23.423770900888687, 7.156695440081262], [23.441891203691153, 7.156695440081262], [23.441891203691153, 7.174766520776469], [23.460011506493615, 7.174766520776469], [23.460011506493615, 7.192838300063053], [23.47813180929608, 7.192838300063053], [23.47813180929608, 7.228983961746708], [23.496252112098546, 7.228983961746708], [23.496252112098546, 7.24705784781357], [23.514372414901008, 7.24705784781357], [23.514372414901008, 7.26513243981139], [23.53249271770347, 7.26513243981139], [23.53249271770347, 7.28320773957667], [23.550613020505935, 7.28320773957667], [23.550613020505935, 7.301283748946568], [23.5687333233084, 7.301283748946568], [23.5687333233084, 7.3193604697589025], [23.58685362611086, 7.3193604697589025], [23.58685362611086, 7.337437903852126], [23.604973928913324, 7.337437903852126], [23.604973928913324, 7.3555160530653625], [23.62309423171579, 7.3555160530653625], [23.62309423171579, 7.373594919238383], [23.64121453451825, 7.373594919238383], [23.64121453451825, 7.391674504211623], [23.659334837320714, 7.391674504211623], [23.659334837320714, 7.409754809826169], [24.366026646616795, 7.409754809826169], [24.366026646616795, 7.391674504211623], [24.38414694941926, 7.391674504211623], [24.38414694941926, 7.373594919238383], [24.402267252221723, 7.373594919238383], [24.402267252221723, 7.3555160530653625], [24.43850785782665, 7.3555160530653625], [24.43850785782665, 7.337437903852126], [24.510989069036505, 7.337437903852126], [24.510989069036505, 7.3193604697589025], [24.529109371838967, 7.3193604697589025], [24.529109371838967, 7.301283748946568], [24.547229674641432, 7.301283748946568], [24.547229674641432, 7.28320773957667], [24.565349977443898, 7.28320773957667], [24.565349977443898, 7.26513243981139], [24.583470280246356, 7.26513243981139], [24.583470280246356, 7.24705784781357], [24.60159058304882, 7.24705784781357], [24.60159058304882, 7.228983961746708], [24.619710885851287, 7.228983961746708], [24.619710885851287, 7.210910779774943], [24.63783118865375, 7.210910779774943], [24.63783118865375, 7.192838300063053], [24.65595149145621, 7.192838300063053], [24.65595149145621, 7.174766520776469], [24.674071794258676, 7.174766520776469], [24.674071794258676, 7.156695440081262], [24.69219209706114, 7.156695440081262], [24.69219209706114, 7.138625056144142], [24.710312399863604, 7.138625056144142], [24.710312399863604, 7.12055536713246], [24.728432702666066, 7.12055536713246], [24.728432702666066, 7.102486371214199], [24.74655300546853, 7.102486371214199], [24.74655300546853, 7.084418066557984], [24.764673308270996, 7.084418066557984], [24.764673308270996, 7.066350451333066], [24.78279361107346, 7.066350451333066], [24.78279361107346, 7.0482835237093315], [24.80091391387592, 7.0482835237093315], [24.80091391387592, 7.0302172818572926], [24.819034216678386, 7.0302172818572926], [24.819034216678386, 7.012151723948095], [24.837154519480848, 7.012151723948095], [24.837154519480848, 6.994086848153506], [24.855274822283313, 6.994086848153506], [24.855274822283313, 6.976022652645915], [24.873395125085775, 6.976022652645915], [24.873395125085775, 6.957959135598339], [25.14519966712273, 6.957959135598339], [25.14519966712273, 6.976022652645915], [25.163319969925194, 6.976022652645915], [25.163319969925194, 6.994086848153506], [25.18144027272766, 6.994086848153506], [25.18144027272766, 7.138625056144142], [25.163319969925194, 7.138625056144142], [25.163319969925194, 7.174766520776469], [25.14519966712273, 7.174766520776469], [25.14519966712273, 7.192838300063053], [24.873395125085775, 7.192838300063053], [24.873395125085775, 7.210910779774943], [24.855274822283313, 7.210910779774943], [24.855274822283313, 7.228983961746708], [24.837154519480848, 7.228983961746708], [24.837154519480848, 7.24705784781357], [24.819034216678386, 7.24705784781357], [24.819034216678386, 7.26513243981139], [24.80091391387592, 7.26513243981139], [24.80091391387592, 7.28320773957667], [24.78279361107346, 7.28320773957667], [24.78279361107346, 7.301283748946568], [24.764673308270996, 7.301283748946568], [24.764673308270996, 7.3193604697589025], [24.74655300546853, 7.3193604697589025], [24.74655300546853, 7.337437903852126], [24.728432702666066, 7.337437903852126], [24.728432702666066, 7.3555160530653625], [24.710312399863604, 7.3555160530653625], [24.710312399863604, 7.373594919238383], [24.69219209706114, 7.373594919238383], [24.69219209706114, 7.391674504211623], [24.674071794258676, 7.391674504211623], [24.674071794258676, 7.409754809826169], [24.65595149145621, 7.409754809826169], [24.65595149145621, 7.427835837923782], [24.63783118865375, 7.427835837923782], [24.63783118865375, 7.445917590346881], [24.619710885851287, 7.445917590346881], [24.619710885851287, 7.4640000689385495], [24.60159058304882, 7.4640000689385495], [24.60159058304882, 7.482083275542536], [24.583470280246356, 7.482083275542536], [24.583470280246356, 7.5001672120032685], [24.565349977443898, 7.5001672120032685], [24.565349977443898, 7.51825188016584], [24.547229674641432, 7.51825188016584], [24.547229674641432, 7.536337281876012], [24.529109371838967, 7.536337281876012], [24.529109371838967, 7.554423418980234], [24.510989069036505, 7.554423418980234], [24.510989069036505, 7.572510293325618], [24.43850785782665, 7.572510293325618], [24.43850785782665, 7.590597906759964], [24.402267252221723, 7.590597906759964], [24.402267252221723, 7.608686261131753], [24.38414694941926, 7.608686261131753], [24.38414694941926, 7.62677535829014], [24.366026646616795, 7.62677535829014], [24.366026646616795, 7.644865200084975], [23.659334837320714, 7.644865200084975]]]}}, {"type": "Feature", "properties": {"kind": "diverted_park_closed", "cells": 2158, "km2": 8632, "axis_km": 391}, "geometry": {"type": "Polygon", "coordinates": [[[23.659334837320714, 7.644865200084975], [23.659334837320714, 7.62677535829014], [23.64121453451825, 7.62677535829014], [23.64121453451825, 7.608686261131753], [23.62309423171579, 7.608686261131753], [23.62309423171579, 7.590597906759964], [23.604973928913324, 7.590597906759964], [23.604973928913324, 7.572510293325618], [23.58685362611086, 7.572510293325618], [23.58685362611086, 7.554423418980234], [23.5687333233084, 7.554423418980234], [23.5687333233084, 7.536337281876012], [23.550613020505935, 7.536337281876012], [23.550613020505935, 7.51825188016584], [23.53249271770347, 7.51825188016584], [23.53249271770347, 7.5001672120032685], [23.514372414901008, 7.5001672120032685], [23.514372414901008, 7.482083275542536], [23.496252112098546, 7.482083275542536], [23.496252112098546, 7.4640000689385495], [23.47813180929608, 7.4640000689385495], [23.47813180929608, 7.445917590346881], [23.460011506493615, 7.445917590346881], [23.460011506493615, 7.427835837923782], [23.441891203691153, 7.427835837923782], [23.441891203691153, 7.409754809826169], [23.423770900888687, 7.409754809826169], [23.423770900888687, 7.391674504211623], [23.405650598086226, 7.391674504211623], [23.405650598086226, 7.373594919238383], [23.387530295283764, 7.373594919238383], [23.387530295283764, 7.3555160530653625], [23.369409992481298, 7.3555160530653625], [23.369409992481298, 7.337437903852126], [23.351289689678833, 7.337437903852126], [23.351289689678833, 7.3193604697589025], [23.33316938687637, 7.3193604697589025], [23.33316938687637, 7.301283748946568], [23.31504908407391, 7.301283748946568], [23.31504908407391, 7.28320773957667], [23.296928781271443, 7.28320773957667], [23.296928781271443, 7.26513243981139], [23.278808478468978, 7.26513243981139], [23.278808478468978, 7.24705784781357], [23.260688175666516, 7.24705784781357], [23.260688175666516, 7.228983961746708], [23.242567872864054, 7.228983961746708], [23.242567872864054, 7.192838300063053], [23.22444757006159, 7.192838300063053], [23.22444757006159, 7.174766520776469], [23.206327267259123, 7.174766520776469], [23.206327267259123, 7.156695440081262], [23.188206964456665, 7.156695440081262], [23.188206964456665, 6.614878793697557], [23.1700866616542, 6.614878793697557], [23.1700866616542, 6.578778772787667], [23.151966358851734, 6.578778772787667], [23.151966358851734, 6.506586377508248], [23.133846056049272, 6.506586377508248], [23.133846056049272, 6.488539861145044], [23.115725753246807, 6.488539861145044], [23.115725753246807, 6.470493974141921], [23.09760545044434, 6.470493974141921], [23.09760545044434, 6.452448714688592], [23.07948514764188, 6.452448714688592], [23.07948514764188, 6.434404080975341], [23.061364844839417, 6.434404080975341], [23.061364844839417, 6.416360071193019], [23.043244542036955, 6.416360071193019], [23.043244542036955, 6.3983166835330465], [23.02512423923449, 6.3983166835330465], [23.02512423923449, 6.380273916187413], [23.007003936432028, 6.380273916187413], [23.007003936432028, 6.362231767348663], [22.988883633629563, 6.362231767348663], [22.988883633629563, 6.344190235209911], [22.970763330827097, 6.344190235209911], [22.970763330827097, 6.326149317964829], [22.952643028024635, 6.326149317964829], [22.952643028024635, 6.3081090138076465], [22.934522725222173, 6.3081090138076465], [22.934522725222173, 6.29006932093315], [22.916402422419708, 6.29006932093315], [22.916402422419708, 6.272030237536685], [22.880161816814784, 6.272030237536685], [22.880161816814784, 6.2539917618141425], [22.807680605604926, 6.2539917618141425], [22.807680605604926, 6.235953891961972], [22.789560302802464, 6.235953891961972], [22.789560302802464, 6.21791662617717], [22.77144, 6.21791662617717], [22.77144, 6.055608119919961], [22.789560302802464, 6.055608119919961], [22.789560302802464, 6.037576795763397], [22.807680605604926, 6.037576795763397], [22.807680605604926, 6.019546055876962], [22.880161816814784, 6.019546055876962], [22.880161816814784, 6.037576795763397], [22.916402422419708, 6.037576795763397], [22.916402422419708, 6.055608119919961], [22.934522725222173, 6.055608119919961], [22.934522725222173, 6.0736400301437214], [22.952643028024635, 6.0736400301437214], [22.952643028024635, 6.091672528232279], [22.970763330827097, 6.091672528232279], [22.970763330827097, 6.109705615983766], [22.988883633629563, 6.109705615983766], [22.988883633629563, 6.127739295196852], [23.007003936432028, 6.127739295196852], [23.007003936432028, 6.145773567670733], [23.02512423923449, 6.145773567670733], [23.02512423923449, 6.163808435205156], [23.043244542036955, 6.163808435205156], [23.043244542036955, 6.181843899600398], [23.061364844839417, 6.181843899600398], [23.061364844839417, 6.199879962657283], [23.07948514764188, 6.199879962657283], [23.07948514764188, 6.21791662617717], [23.09760545044434, 6.21791662617717], [23.09760545044434, 6.235953891961972], [23.115725753246807, 6.235953891961972], [23.115725753246807, 6.2539917618141425], [23.133846056049272, 6.2539917618141425], [23.133846056049272, 6.272030237536685], [23.151966358851734, 6.272030237536685], [23.151966358851734, 6.29006932093315], [23.1700866616542, 6.29006932093315], [23.1700866616542, 6.3081090138076465], [23.188206964456665, 6.3081090138076465], [23.188206964456665, 6.326149317964829], [23.206327267259123, 6.326149317964829], [23.206327267259123, 6.344190235209911], [23.22444757006159, 6.344190235209911], [23.22444757006159, 6.362231767348663], [23.242567872864054, 6.362231767348663], [23.242567872864054, 6.380273916187413], [23.260688175666516, 6.380273916187413], [23.260688175666516, 6.3983166835330465], [23.278808478468978, 6.3983166835330465], [23.278808478468978, 6.416360071193019], [23.296928781271443, 6.416360071193019], [23.296928781271443, 6.434404080975341], [23.31504908407391, 6.434404080975341], [23.31504908407391, 6.452448714688592], [23.33316938687637, 6.452448714688592], [23.33316938687637, 6.470493974141921], [23.351289689678833, 6.470493974141921], [23.351289689678833, 6.488539861145044], [23.369409992481298, 6.488539861145044], [23.369409992481298, 6.506586377508248], [23.387530295283764, 6.506586377508248], [23.387530295283764, 6.578778772787667], [23.405650598086226, 6.578778772787667], [23.405650598086226, 6.614878793697557], [23.423770900888687, 6.614878793697557], [23.423770900888687, 7.156695440081262], [23.441891203691153, 7.156695440081262], [23.441891203691153, 7.174766520776469], [23.460011506493615, 7.174766520776469], [23.460011506493615, 7.192838300063053], [23.47813180929608, 7.192838300063053], [23.47813180929608, 7.228983961746708], [23.496252112098546, 7.228983961746708], [23.496252112098546, 7.24705784781357], [23.514372414901008, 7.24705784781357], [23.514372414901008, 7.26513243981139], [23.53249271770347, 7.26513243981139], [23.53249271770347, 7.28320773957667], [23.550613020505935, 7.28320773957667], [23.550613020505935, 7.301283748946568], [23.5687333233084, 7.301283748946568], [23.5687333233084, 7.3193604697589025], [23.58685362611086, 7.3193604697589025], [23.58685362611086, 7.337437903852126], [23.604973928913324, 7.337437903852126], [23.604973928913324, 7.3555160530653625], [23.62309423171579, 7.3555160530653625], [23.62309423171579, 7.373594919238383], [23.64121453451825, 7.373594919238383], [23.64121453451825, 7.391674504211623], [23.659334837320714, 7.391674504211623], [23.659334837320714, 7.409754809826169], [24.366026646616795, 7.409754809826169], [24.366026646616795, 7.391674504211623], [24.38414694941926, 7.391674504211623], [24.38414694941926, 7.373594919238383], [24.402267252221723, 7.373594919238383], [24.402267252221723, 7.3555160530653625], [24.43850785782665, 7.3555160530653625], [24.43850785782665, 7.337437903852126], [24.510989069036505, 7.337437903852126], [24.510989069036505, 7.3193604697589025], [24.529109371838967, 7.3193604697589025], [24.529109371838967, 7.301283748946568], [24.547229674641432, 7.301283748946568], [24.547229674641432, 7.28320773957667], [24.565349977443898, 7.28320773957667], [24.565349977443898, 7.26513243981139], [24.583470280246356, 7.26513243981139], [24.583470280246356, 7.24705784781357], [24.60159058304882, 7.24705784781357], [24.60159058304882, 7.228983961746708], [24.619710885851287, 7.228983961746708], [24.619710885851287, 7.210910779774943], [24.63783118865375, 7.210910779774943], [24.63783118865375, 7.192838300063053], [24.65595149145621, 7.192838300063053], [24.65595149145621, 7.174766520776469], [24.674071794258676, 7.174766520776469], [24.674071794258676, 7.156695440081262], [24.69219209706114, 7.156695440081262], [24.69219209706114, 7.138625056144142], [24.710312399863604, 7.138625056144142], [24.710312399863604, 7.12055536713246], [24.728432702666066, 7.12055536713246], [24.728432702666066, 7.102486371214199], [24.74655300546853, 7.102486371214199], [24.74655300546853, 7.084418066557984], [24.764673308270996, 7.084418066557984], [24.764673308270996, 7.066350451333066], [24.78279361107346, 7.066350451333066], [24.78279361107346, 7.0482835237093315], [24.80091391387592, 7.0482835237093315], [24.80091391387592, 7.0302172818572926], [24.819034216678386, 7.0302172818572926], [24.819034216678386, 7.012151723948095], [24.837154519480848, 7.012151723948095], [24.837154519480848, 6.994086848153506], [24.855274822283313, 6.994086848153506], [24.855274822283313, 6.976022652645915], [24.873395125085775, 6.976022652645915], [24.873395125085775, 6.957959135598339], [25.14519966712273, 6.957959135598339], [25.14519966712273, 6.976022652645915], [25.163319969925194, 6.976022652645915], [25.163319969925194, 6.994086848153506], [25.18144027272766, 6.994086848153506], [25.18144027272766, 7.138625056144142], [25.163319969925194, 7.138625056144142], [25.163319969925194, 7.174766520776469], [25.14519966712273, 7.174766520776469], [25.14519966712273, 7.192838300063053], [24.873395125085775, 7.192838300063053], [24.873395125085775, 7.210910779774943], [24.855274822283313, 7.210910779774943], [24.855274822283313, 7.228983961746708], [24.837154519480848, 7.228983961746708], [24.837154519480848, 7.24705784781357], [24.819034216678386, 7.24705784781357], [24.819034216678386, 7.26513243981139], [24.80091391387592, 7.26513243981139], [24.80091391387592, 7.28320773957667], [24.78279361107346, 7.28320773957667], [24.78279361107346, 7.301283748946568], [24.764673308270996, 7.301283748946568], [24.764673308270996, 7.3193604697589025], [24.74655300546853, 7.3193604697589025], [24.74655300546853, 7.337437903852126], [24.728432702666066, 7.337437903852126], [24.728432702666066, 7.3555160530653625], [24.710312399863604, 7.3555160530653625], [24.710312399863604, 7.373594919238383], [24.69219209706114, 7.373594919238383], [24.69219209706114, 7.391674504211623], [24.674071794258676, 7.391674504211623], [24.674071794258676, 7.409754809826169], [24.65595149145621, 7.409754809826169], [24.65595149145621, 7.427835837923782], [24.63783118865375, 7.427835837923782], [24.63783118865375, 7.445917590346881], [24.619710885851287, 7.445917590346881], [24.619710885851287, 7.4640000689385495], [24.60159058304882, 7.4640000689385495], [24.60159058304882, 7.482083275542536], [24.583470280246356, 7.482083275542536], [24.583470280246356, 7.5001672120032685], [24.565349977443898, 7.5001672120032685], [24.565349977443898, 7.51825188016584], [24.547229674641432, 7.51825188016584], [24.547229674641432, 7.536337281876012], [24.529109371838967, 7.536337281876012], [24.529109371838967, 7.554423418980234], [24.510989069036505, 7.554423418980234], [24.510989069036505, 7.572510293325618], [24.43850785782665, 7.572510293325618], [24.43850785782665, 7.590597906759964], [24.402267252221723, 7.590597906759964], [24.402267252221723, 7.608686261131753], [24.38414694941926, 7.608686261131753], [24.38414694941926, 7.62677535829014], [24.366026646616795, 7.62677535829014], [24.366026646616795, 7.644865200084975], [23.659334837320714, 7.644865200084975]]]}}]}