<?xml version="1.0" encoding="UTF-8"?><kml xmlns="http://www.opengis.net/kml/2.2"><Document><Style id="core"><LineStyle><color>ff00a000</color><width>1.5</width></LineStyle><PolyStyle><color>7f00a000</color></PolyStyle></Style><Style id="wilderness"><LineStyle><color>ff00d0d0</color><width>1.5</width></LineStyle><PolyStyle><color>7f00d0d0</color></PolyStyle></Style><Style id="community"><LineStyle><color>ff0080ff</color><width>1.5</width></LineStyle><PolyStyle><color>7f0080ff</color></PolyStyle></Style><Style id="corridor"><LineStyle><color>ffd000d0</color><width>1.5</width></LineStyle><PolyStyle><color>7fd000d0</color></PolyStyle></Style><Placemark><name>core proposal 1 (1,954,400 ha, support 0.65)</name><description><![CDATA[core · 1,954,400 ha · 4 clusters, 0 people (GHSL lower bound), 0 new since 2015<br/>fire 1,459/1000km2/yr, 2238 fronts (89% transhumance, 351 ≥150 km)<br/>clearing since 2020 0.35 km2; cropland 0.0→0.0%; mining reported/candidates/top5% 0/0/0<br/>boundary: study-area edge on the NE/SW (378 km); Chinko on the W/SW (92 km); unnamed river (order 5) on the N/NW (88 km); Mbomou on the SW (76 km); primary road on the SW/SE (70 km); secondary road on the NE/N (64 km) — 21% follows no nameable feature]]></description><styleUrl>#core</styleUrl><Polygon><outerBoundaryIs><LinearRing><coordinates>25.09084,6.68709,0 25.19956,6.68709,0 25.19956,6.66903,0 25.21768,6.66903,0 25.21768,6.41636,0 25.23580,6.41636,0 25.23580,6.39832,0 25.21768,6.39832,0 25.21768,6.10971,0 25.19956,6.10971,0 25.19956,5.82125,0 25.18144,5.82125,0 25.18144,5.51492,0 25.16332,5.51492,0 25.16332,5.22674,0 25.14520,5.22674,0 25.14520,4.93870,0 25.12708,4.93870,0 25.12708,4.79473,0 25.10896,4.79473,0 25.10896,4.77673,0 25.09084,4.77673,0 25.09084,4.75874,0 24.98212,4.75874,0 24.98212,4.74075,0 24.87340,4.74075,0 24.87340,4.72275,0 24.74655,4.72275,0 24.74655,4.70476,0 24.63783,4.70476,0 24.63783,4.68677,0 24.52911,4.68677,0 24.52911,4.66877,0 24.51099,4.66877,0 24.51099,4.77673,0 24.49287,4.77673,0 24.49287,4.66877,0 24.42039,4.66877,0 24.42039,4.65078,0 24.31167,4.65078,0 24.31167,4.63279,0 24.20294,4.63279,0 24.20294,4.61480,0 24.07610,4.61480,0 24.07610,4.59681,0 23.89490,4.59681,0 23.89490,4.61480,0 23.78618,4.61480,0 23.78618,4.63279,0 23.65933,4.63279,0 23.65933,4.65078,0 23.53249,4.65078,0 23.53249,4.66877,0 23.47813,4.66877,0 23.47813,4.68677,0 23.51437,4.68677,0 23.51437,4.70476,0 23.56873,4.70476,0 23.56873,4.72275,0 23.60497,4.72275,0 23.60497,4.74075,0 23.64121,4.74075,0 23.64121,4.75874,0 23.67746,4.75874,0 23.67746,4.77673,0 23.76806,4.77673,0 23.76806,4.79473,0 23.82242,4.79473,0 23.82242,4.81272,0 23.85866,4.81272,0 23.85866,4.83072,0 23.93114,4.83072,0 23.93114,4.84872,0 23.94926,4.84872,0 23.94926,4.86671,0 24.02174,4.86671,0 24.02174,4.88471,0 24.05798,4.88471,0 24.05798,4.90271,0 24.09422,4.90271,0 24.09422,4.92070,0 24.13046,4.92070,0 24.13046,4.90271,0 24.14858,4.90271,0 24.14858,4.92070,0 24.18482,4.92070,0 24.18482,4.93870,0 24.20294,4.93870,0 24.20294,4.97470,0 24.07610,4.97470,0 24.07610,4.95670,0 23.98550,4.95670,0 23.98550,4.93870,0 23.96738,4.93870,0 23.96738,4.95670,0 23.91302,4.95670,0 23.91302,4.97470,0 23.93114,4.97470,0 23.93114,5.02870,0 23.94926,5.02870,0 23.94926,5.04670,0 23.96738,5.04670,0 23.96738,5.06471,0 23.98550,5.06471,0 23.98550,5.10071,0 24.00362,5.10071,0 24.00362,5.11871,0 24.02174,5.11871,0 24.02174,5.15472,0 24.03986,5.15472,0 24.03986,5.19073,0 24.05798,5.19073,0 24.05798,5.20874,0 24.07610,5.20874,0 24.07610,5.26276,0 24.11234,5.26276,0 24.11234,5.29877,0 24.13046,5.29877,0 24.13046,5.33479,0 24.14858,5.33479,0 24.14858,5.37081,0 24.18482,5.37081,0 24.18482,5.38882,0 24.22106,5.38882,0 24.22106,5.42485,0 24.23918,5.42485,0 24.23918,5.53293,0 24.31167,5.53293,0 24.31167,5.60500,0 24.32979,5.60500,0 24.32979,5.64103,0 24.36603,5.64103,0 24.36603,5.65905,0 24.38415,5.65905,0 24.38415,5.67707,0 24.40227,5.67707,0 24.40227,5.69509,0 24.42039,5.69509,0 24.42039,5.71311,0 24.43851,5.71311,0 24.43851,5.73113,0 24.45663,5.73113,0 24.45663,5.74915,0 24.47475,5.74915,0 24.47475,5.76718,0 24.49287,5.76718,0 24.49287,5.78520,0 24.51099,5.78520,0 24.51099,5.83927,0 24.52911,5.83927,0 24.52911,5.85730,0 24.54723,5.85730,0 24.54723,5.89335,0 24.56535,5.89335,0 24.56535,5.94743,0 24.58347,5.94743,0 24.58347,6.03758,0 24.60159,6.03758,0 24.60159,6.05561,0 24.61971,6.05561,0 24.61971,6.07364,0 24.63783,6.07364,0 24.63783,6.10971,0 24.65595,6.10971,0 24.65595,6.14577,0 24.67407,6.14577,0 24.67407,6.18184,0 24.69219,6.18184,0 24.69219,6.21792,0 24.71031,6.21792,0 24.71031,6.41636,0 24.72843,6.41636,0 24.72843,6.45245,0 24.74655,6.45245,0 24.74655,6.47049,0 24.76467,6.47049,0 24.76467,6.48854,0 24.81903,6.48854,0 24.81903,6.50659,0 24.85527,6.50659,0 24.85527,6.38027,0 24.87340,6.38027,0 24.87340,6.54268,0 24.89152,6.54268,0 24.89152,6.56073,0 24.90964,6.56073,0 24.90964,6.57878,0 24.94588,6.57878,0 24.94588,6.59683,0 24.98212,6.59683,0 24.98212,6.61488,0 25.01836,6.61488,0 25.01836,6.63293,0 25.03648,6.63293,0 25.03648,6.56073,0 25.05460,6.56073,0 25.05460,6.65098,0 25.07272,6.65098,0 25.07272,6.66903,0 25.09084,6.66903,0 25.09084,6.68709,0</coordinates></LinearRing></outerBoundaryIs></Polygon></Placemark><Placemark><name>core proposal 2 (1,929,600 ha, support 0.88)</name><description><![CDATA[core · 1,929,600 ha · 17 clusters, 0 people (GHSL lower bound), 0 new since 2015<br/>fire 1,069/1000km2/yr, 2535 fronts (92% transhumance, 474 ≥150 km)<br/>clearing since 2020 1.37 km2; cropland 0.0→0.0%; mining reported/candidates/top5% 0/0/0<br/>boundary: secondary road on the NW/W (118 km); Mbari on the N/SW (118 km); Chinko on the E/SE (118 km); unnamed river (order 4) on the NE/N (108 km); study-area edge on the S/SW (86 km); tertiary road on the NW/N (64 km) — 23% follows no nameable feature]]></description><styleUrl>#core</styleUrl><Polygon><outerBoundaryIs><LinearRing><coordinates>23.17009,6.50659,0 23.27881,6.50659,0 23.27881,6.47049,0 23.29693,6.47049,0 23.29693,6.30811,0 23.31505,6.30811,0 23.31505,6.19988,0 23.29693,6.19988,0 23.29693,6.18184,0 23.27881,6.18184,0 23.27881,6.14577,0 23.29693,6.14577,0 23.29693,6.09167,0 23.27881,6.09167,0 23.27881,6.05561,0 23.29693,6.05561,0 23.29693,5.98349,0 23.33317,5.98349,0 23.33317,6.00152,0 23.36941,6.00152,0 23.36941,6.01955,0 23.38753,6.01955,0 23.38753,6.03758,0 23.40565,6.03758,0 23.40565,6.05561,0 23.42377,6.05561,0 23.42377,6.09167,0 23.49625,6.09167,0 23.49625,6.07364,0 23.51437,6.07364,0 23.51437,6.05561,0 23.78618,6.05561,0 23.78618,6.07364,0 23.87678,6.07364,0 23.87678,6.05561,0 23.91302,6.05561,0 23.91302,6.03758,0 23.94926,6.03758,0 23.94926,6.01955,0 23.98550,6.01955,0 23.98550,6.00152,0 24.02174,6.00152,0 24.02174,5.96546,0 24.03986,5.96546,0 24.03986,5.94743,0 24.05798,5.94743,0 24.05798,5.91137,0 24.07610,5.91137,0 24.07610,5.87532,0 24.09422,5.87532,0 24.09422,5.85730,0 24.13046,5.85730,0 24.13046,5.83927,0 24.14858,5.83927,0 24.14858,5.82125,0 24.23918,5.82125,0 24.23918,5.78520,0 24.25730,5.78520,0 24.25730,5.74915,0 24.27543,5.74915,0 24.27543,5.73113,0 24.29355,5.73113,0 24.29355,5.71311,0 24.27543,5.71311,0 24.27543,5.69509,0 24.29355,5.69509,0 24.29355,5.65905,0 24.31167,5.65905,0 24.31167,5.64103,0 24.32979,5.64103,0 24.32979,5.60500,0 24.31167,5.60500,0 24.31167,5.53293,0 24.23918,5.53293,0 24.23918,5.42485,0 24.22106,5.42485,0 24.22106,5.38882,0 24.18482,5.38882,0 24.18482,5.37081,0 24.14858,5.37081,0 24.14858,5.33479,0 24.13046,5.33479,0 24.13046,5.29877,0 24.11234,5.29877,0 24.11234,5.26276,0 24.07610,5.26276,0 24.07610,5.20874,0 24.05798,5.20874,0 24.05798,5.19073,0 24.03986,5.19073,0 24.03986,5.15472,0 24.02174,5.15472,0 24.02174,5.11871,0 24.00362,5.11871,0 24.00362,5.10071,0 23.98550,5.10071,0 23.98550,5.06471,0 23.96738,5.06471,0 23.96738,5.04670,0 23.94926,5.04670,0 23.94926,5.02870,0 23.93114,5.02870,0 23.93114,4.97470,0 23.89490,4.97470,0 23.89490,4.93870,0 23.87678,4.93870,0 23.87678,4.92070,0 23.89490,4.92070,0 23.89490,4.88471,0 23.87678,4.88471,0 23.87678,4.86671,0 23.89490,4.86671,0 23.89490,4.83072,0 23.85866,4.83072,0 23.85866,4.81272,0 23.82242,4.81272,0 23.82242,4.79473,0 23.76806,4.79473,0 23.76806,4.77673,0 23.67746,4.77673,0 23.67746,4.75874,0 23.64121,4.75874,0 23.64121,4.74075,0 23.60497,4.74075,0 23.60497,4.72275,0 23.56873,4.72275,0 23.56873,4.70476,0 23.51437,4.70476,0 23.51437,4.68677,0 23.47813,4.68677,0 23.47813,4.66877,0 23.42377,4.66877,0 23.42377,4.68677,0 23.29693,4.68677,0 23.29693,4.70476,0 23.17009,4.70476,0 23.17009,4.72275,0 23.04324,4.72275,0 23.04324,4.74075,0 22.93452,4.74075,0 22.93452,4.75874,0 22.88016,4.75874,0 22.88016,4.77673,0 22.86204,4.77673,0 22.86204,4.79473,0 22.88016,4.79473,0 22.88016,4.81272,0 22.89828,4.81272,0 22.89828,4.83072,0 22.91640,4.83072,0 22.91640,4.84872,0 22.93452,4.84872,0 22.93452,4.90271,0 22.95264,4.90271,0 22.95264,4.95670,0 22.97076,4.95670,0 22.97076,5.02870,0 22.98888,5.02870,0 22.98888,5.06471,0 23.00700,5.06471,0 23.00700,5.08271,0 23.02512,5.08271,0 23.02512,5.10071,0 23.06136,5.10071,0 23.06136,5.11871,0 23.07949,5.11871,0 23.07949,5.13672,0 23.09761,5.13672,0 23.09761,5.17273,0 23.11573,5.17273,0 23.11573,5.19073,0 23.13385,5.19073,0 23.13385,5.20874,0 23.15197,5.20874,0 23.15197,5.22674,0 23.18821,5.22674,0 23.18821,5.24475,0 23.20633,5.24475,0 23.20633,5.31678,0 23.22445,5.31678,0 23.22445,5.33479,0 23.24257,5.33479,0 23.24257,5.37081,0 23.26069,5.37081,0 23.26069,5.38882,0 23.27881,5.38882,0 23.27881,5.42485,0 23.29693,5.42485,0 23.29693,5.46087,0 23.31505,5.46087,0 23.31505,5.49690,0 23.33317,5.49690,0 23.33317,5.53293,0 23.35129,5.53293,0 23.35129,5.58698,0 23.38753,5.58698,0 23.38753,5.60500,0 23.40565,5.60500,0 23.40565,5.62301,0 23.42377,5.62301,0 23.42377,5.67707,0 23.35129,5.67707,0 23.35129,5.65905,0 23.33317,5.65905,0 23.33317,5.62301,0 23.26069,5.62301,0 23.26069,5.64103,0 23.24257,5.64103,0 23.24257,5.67707,0 23.18821,5.67707,0 23.18821,5.64103,0 23.17009,5.64103,0 23.17009,5.62301,0 23.13385,5.62301,0 23.13385,5.64103,0 23.00700,5.64103,0 23.00700,5.65905,0 22.93452,5.65905,0 22.93452,5.67707,0 22.88016,5.67707,0 22.88016,5.69509,0 22.77144,5.69509,0 22.77144,5.96546,0 22.80768,5.96546,0 22.80768,5.98349,0 22.82580,5.98349,0 22.82580,6.01955,0 22.84392,6.01955,0 22.84392,6.12774,0 22.86204,6.12774,0 22.86204,6.14577,0 22.84392,6.14577,0 22.84392,6.18184,0 22.82580,6.18184,0 22.82580,6.29007,0 22.84392,6.29007,0 22.84392,6.36223,0 22.82580,6.36223,0 22.82580,6.45245,0 22.93452,6.45245,0 22.93452,6.43440,0 22.95264,6.43440,0 22.95264,6.41636,0 22.98888,6.41636,0 22.98888,6.39832,0 23.04324,6.39832,0 23.04324,6.41636,0 23.06136,6.41636,0 23.06136,6.43440,0 23.09761,6.43440,0 23.09761,6.45245,0 23.13385,6.45245,0 23.13385,6.47049,0 23.15197,6.47049,0 23.15197,6.48854,0 23.17009,6.48854,0 23.17009,6.50659,0</coordinates></LinearRing></outerBoundaryIs></Polygon></Placemark></Document></kml>