{"type": "FeatureCollection", "features": [{"type": "Feature", "properties": {"support": 0.25, "want": "core"}, "geometry": {"type": "Polygon", "coordinates": [[[23.64121453451825, 7.753419991897343], [23.64121453451825, 7.373594919238383], [23.659334837320714, 7.373594919238383], [23.659334837320714, 7.3555160530653625], [23.67745514012318, 7.3555160530653625], [23.67745514012318, 7.301283748946568], [23.695575442925644, 7.301283748946568], [23.695575442925644, 7.12055536713246], [23.78617695693796, 7.12055536713246], [23.78617695693796, 7.0482835237093315], [23.82241756254289, 7.0482835237093315], [23.82241756254289, 7.0302172818572926], [23.876778470950278, 7.0302172818572926], [23.876778470950278, 7.012151723948095], [23.949259682160132, 7.012151723948095], [23.949259682160132, 6.994086848153506], [23.967379984962594, 6.994086848153506], [23.967379984962594, 6.976022652645915], [23.98550028776506, 6.976022652645915], [23.98550028776506, 6.957959135598339], [24.021740893369987, 6.957959135598339], [24.021740893369987, 6.921834129578388], [24.03986119617245, 6.921834129578388], [24.03986119617245, 6.903772636955135], [24.057981498974915, 6.903772636955135], [24.057981498974915, 6.885711815490141], [24.07610180177738, 6.885711815490141], [24.07610180177738, 6.867651663359505], [24.094222104579842, 6.867651663359505], [24.094222104579842, 6.83153335980875], [24.112342407382307, 6.83153335980875], [24.112342407382307, 6.81347520474388], [24.13046271018477, 6.81347520474388], [24.13046271018477, 6.7773608789278255], [24.14858301298723, 6.7773608789278255], [24.14858301298723, 6.759304704535516], [24.166703315789697, 6.759304704535516], [24.166703315789697, 6.741249186727278], [24.18482361859216, 6.741249186727278], [24.18482361859216, 6.705140113587365], [24.202943921394624, 6.705140113587365], [24.202943921394624, 6.687086554619362], [24.257304829802017, 6.687086554619362], [24.257304829802017, 6.6690336449627665], [24.23918452699955, 6.6690336449627665], [24.23918452699955, 6.578778772787667], [24.329786041011868, 6.578778772787667], [24.329786041011868, 6.5607297208698], [24.23918452699955, 6.5607297208698], [24.23918452699955, 6.416360071193019], [24.221064224197086, 6.416360071193019], [24.221064224197086, 6.362231767348663], [24.202943921394624, 6.362231767348663], [24.202943921394624, 6.344190235209911], [24.18482361859216, 6.344190235209911], [24.18482361859216, 6.29006932093315], [24.202943921394624, 6.29006932093315], [24.202943921394624, 6.272030237536685], [24.221064224197086, 6.272030237536685], [24.221064224197086, 6.199879962657283], [24.202943921394624, 6.199879962657283], [24.202943921394624, 6.163808435205156], [24.221064224197086, 6.163808435205156], [24.221064224197086, 6.109705615983766], [24.202943921394624, 6.109705615983766], [24.202943921394624, 6.091672528232279], [24.221064224197086, 6.091672528232279], [24.221064224197086, 6.0736400301437214], [24.23918452699955, 6.0736400301437214], [24.23918452699955, 5.983486321728838], [24.221064224197086, 5.983486321728838], [24.221064224197086, 5.9654573238756505], [24.23918452699955, 5.9654573238756505], [24.23918452699955, 5.929401057636212], [24.257304829802017, 5.929401057636212], [24.257304829802017, 5.911373785661595], [24.275425132604475, 5.911373785661595], [24.275425132604475, 5.875320955035565], [24.29354543540694, 5.875320955035565], [24.29354543540694, 5.857295392798895], [24.257304829802017, 5.857295392798895], [24.257304829802017, 5.839270396890478], [24.23918452699955, 5.839270396890478], [24.23918452699955, 5.82124596551897], [24.14858301298723, 5.82124596551897], [24.14858301298723, 5.839270396890478], [24.13046271018477, 5.839270396890478], [24.13046271018477, 5.857295392798895], [24.094222104579842, 5.857295392798895], [24.094222104579842, 5.875320955035565], [24.07610180177738, 5.875320955035565], [24.07610180177738, 5.911373785661595], [24.057981498974915, 5.911373785661595], [24.057981498974915, 5.947428903109589], [24.03986119617245, 5.947428903109589], [24.03986119617245, 5.9654573238756505], [24.021740893369987, 5.9654573238756505], [24.021740893369987, 6.001515898464112], [23.98550028776506, 6.001515898464112], [23.98550028776506, 6.019546055876962], [23.949259682160132, 6.019546055876962], [23.949259682160132, 6.037576795763397], [23.913019076555205, 6.037576795763397], [23.913019076555205, 6.055608119919961], [23.876778470950278, 6.055608119919961], [23.876778470950278, 6.0736400301437214], [23.78617695693796, 6.0736400301437214], [23.78617695693796, 6.055608119919961], [23.514372414901008, 6.055608119919961], [23.514372414901008, 6.0736400301437214], [23.496252112098546, 6.0736400301437214], [23.496252112098546, 6.091672528232279], [23.423770900888687, 6.091672528232279], [23.423770900888687, 6.055608119919961], [23.405650598086226, 6.055608119919961], [23.405650598086226, 6.037576795763397], [23.387530295283764, 6.037576795763397], [23.387530295283764, 6.019546055876962], [23.369409992481298, 6.019546055876962], [23.369409992481298, 6.001515898464112], [23.33316938687637, 6.001515898464112], [23.33316938687637, 5.983486321728838], [23.296928781271443, 5.983486321728838], [23.296928781271443, 6.055608119919961], [23.278808478468978, 6.055608119919961], [23.278808478468978, 6.091672528232279], [23.296928781271443, 6.091672528232279], [23.296928781271443, 6.145773567670733], [23.278808478468978, 6.145773567670733], [23.278808478468978, 6.181843899600398], [23.296928781271443, 6.181843899600398], [23.296928781271443, 6.199879962657283], [23.31504908407391, 6.199879962657283], [23.31504908407391, 6.3081090138076465], [23.296928781271443, 6.3081090138076465], [23.296928781271443, 6.470493974141921], [23.278808478468978, 6.470493974141921], [23.278808478468978, 6.506586377508248], [23.1700866616542, 6.506586377508248], [23.1700866616542, 6.488539861145044], [23.151966358851734, 6.488539861145044], [23.151966358851734, 6.470493974141921], [23.133846056049272, 6.470493974141921], [23.133846056049272, 6.452448714688592], [23.09760545044434, 6.452448714688592], [23.09760545044434, 6.434404080975341], [23.061364844839417, 6.434404080975341], [23.061364844839417, 6.416360071193019], [23.043244542036955, 6.416360071193019], [23.043244542036955, 6.3983166835330465], [22.988883633629563, 6.3983166835330465], [22.988883633629563, 6.416360071193019], [22.952643028024635, 6.416360071193019], [22.952643028024635, 6.434404080975341], [22.934522725222173, 6.434404080975341], [22.934522725222173, 6.452448714688592], [22.82580090840739, 6.452448714688592], [22.82580090840739, 6.362231767348663], [22.843921211209853, 6.362231767348663], [22.843921211209853, 6.29006932093315], [22.82580090840739, 6.29006932093315], [22.82580090840739, 6.181843899600398], [22.843921211209853, 6.181843899600398], [22.843921211209853, 6.145773567670733], [22.86204151401232, 6.145773567670733], [22.86204151401232, 6.127739295196852], [22.843921211209853, 6.127739295196852], [22.843921211209853, 6.019546055876962], [22.82580090840739, 6.019546055876962], [22.82580090840739, 5.983486321728838], [22.807680605604926, 5.983486321728838], [22.807680605604926, 5.9654573238756505], [22.77144, 5.9654573238756505], [22.77144, 5.695090602585723], [22.880161816814784, 5.695090602585723], [22.880161816814784, 5.677070623081992], [22.934522725222173, 5.677070623081992], [22.934522725222173, 5.659051192015834], [23.007003936432028, 5.659051192015834], [23.007003936432028, 5.641032307600932], [23.133846056049272, 5.641032307600932], [23.133846056049272, 5.623013968051463], [23.1700866616542, 5.623013968051463], [23.1700866616542, 5.641032307600932], [23.188206964456665, 5.641032307600932], [23.188206964456665, 5.677070623081992], [23.242567872864054, 5.677070623081992], [23.242567872864054, 5.641032307600932], [23.260688175666516, 5.641032307600932], [23.260688175666516, 5.623013968051463], [23.33316938687637, 5.623013968051463], [23.33316938687637, 5.659051192015834], [23.351289689678833, 5.659051192015834], [23.351289689678833, 5.677070623081992], [23.423770900888687, 5.677070623081992], [23.423770900888687, 5.623013968051463], [23.405650598086226, 5.623013968051463], [23.405650598086226, 5.604996171582095], [23.387530295283764, 5.604996171582095], [23.387530295283764, 5.5869789164079835], [23.351289689678833, 5.5869789164079835], [23.351289689678833, 5.532930380816075], [23.33316938687637, 5.532930380816075], [23.33316938687637, 5.496900697530866], [23.31504908407391, 5.496900697530866], [23.31504908407391, 5.4608731366317045], [23.296928781271443, 5.4608731366317045], [23.296928781271443, 5.424847683868815], [23.278808478468978, 5.424847683868815], [23.278808478468978, 5.388824325000005], [23.260688175666516, 5.388824325000005], [23.260688175666516, 5.370813426327261], [23.242567872864054, 5.370813426327261], [23.242567872864054, 5.334793181611953], [23.22444757006159, 5.334793181611953], [23.22444757006159, 5.316783832013532], [23.206327267259123, 5.316783832013532], [23.206327267259123, 5.244751543884652], [23.188206964456665, 5.244751543884652], [23.188206964456665, 5.226744740538213], [23.151966358851734, 5.226744740538213], [23.151966358851734, 5.208738441115516], [23.133846056049272, 5.208738441115516], [23.133846056049272, 5.19073264384207], [23.115725753246807, 5.19073264384207], [23.115725753246807, 5.172727346943836], [23.09760545044434, 5.172727346943836], [23.09760545044434, 5.136718247179099], [23.07948514764188, 5.136718247179099], [23.07948514764188, 5.118714440766757], [23.061364844839417, 5.118714440766757], [23.061364844839417, 5.100711127637952], [23.02512423923449, 5.100711127637952], [23.02512423923449, 5.082708306020875], [23.007003936432028, 5.082708306020875], [23.007003936432028, 5.064705974144161], [22.988883633629563, 5.064705974144161], [22.988883633629563, 5.028702772528555], [22.970763330827097, 5.028702772528555], [22.970763330827097, 4.956702168290195], [22.77144, 4.956702168290195], [22.77144, 4.794728561639507], [22.789560302802464, 4.794728561639507], [22.789560302802464, 4.776733825056585], [22.807680605604926, 4.776733825056585], [22.807680605604926, 4.758739548166734], [22.934522725222173, 4.758739548166734], [22.934522725222173, 4.740745729206253], [23.043244542036955, 4.740745729206253], [23.043244542036955, 4.722752366411846], [23.1700866616542, 4.722752366411846], [23.1700866616542, 4.704759458020632], [23.296928781271443, 4.704759458020632], [23.296928781271443, 4.68676700227013], [23.423770900888687, 4.68676700227013], [23.423770900888687, 4.6687749973982715], [23.53249271770347, 4.6687749973982715], [23.53249271770347, 4.650783441643385], [23.659334837320714, 4.650783441643385], [23.659334837320714, 4.632792333244202], [23.78617695693796, 4.632792333244202], [23.78617695693796, 4.614801670439857], [23.89489877375274, 4.614801670439857], [23.89489877375274, 4.596811451469884], [24.07610180177738, 4.596811451469884], [24.07610180177738, 4.614801670439857], [24.202943921394624, 4.614801670439857], [24.202943921394624, 4.632792333244202], [24.311665738209406, 4.632792333244202], [24.311665738209406, 4.650783441643385], [24.420387555024185, 4.650783441643385], [24.420387555024185, 4.6687749973982715], [24.49286876623404, 4.6687749973982715], [24.49286876623404, 4.776733825056585], [24.510989069036505, 4.776733825056585], [24.510989069036505, 4.6687749973982715], [24.529109371838967, 4.6687749973982715], [24.529109371838967, 4.68676700227013], [24.63783118865375, 4.68676700227013], [24.63783118865375, 4.704759458020632], [24.74655300546853, 4.704759458020632], [24.74655300546853, 4.722752366411846], [24.873395125085775, 4.722752366411846], [24.873395125085775, 4.740745729206253], [24.982116941900557, 4.740745729206253], [24.982116941900557, 4.758739548166734], [25.09083875871534, 4.758739548166734], [25.09083875871534, 4.776733825056585], [25.1089590615178, 4.776733825056585], [25.1089590615178, 4.794728561639507], [25.127079364320267, 4.794728561639507], [25.127079364320267, 4.938703215034501], [25.14519966712273, 4.938703215034501], [25.14519966712273, 5.226744740538213], [25.163319969925194, 5.226744740538213], [25.163319969925194, 5.514915272984303], [25.18144027272766, 5.514915272984303], [25.18144027272766, 5.82124596551897], [25.19956057553012, 5.82124596551897], [25.19956057553012, 6.109705615983766], [25.217680878332583, 6.109705615983766], [25.217680878332583, 6.3983166835330465], [25.23580118113505, 6.3983166835330465], [25.23580118113505, 6.416360071193019], [25.217680878332583, 6.416360071193019], [25.217680878332583, 6.6690336449627665], [25.19956057553012, 6.6690336449627665], [25.19956057553012, 6.687086554619362], [25.09083875871534, 6.687086554619362], [25.09083875871534, 6.6690336449627665], [25.072718455912877, 6.6690336449627665], [25.072718455912877, 6.650981382800897], [25.036477850307946, 6.650981382800897], [25.036477850307946, 6.632929766317661], [25.018357547505484, 6.632929766317661], [25.018357547505484, 6.614878793697557], [24.982116941900557, 6.614878793697557], [24.982116941900557, 6.59682846312567], [24.94587633629563, 6.59682846312567], [24.94587633629563, 6.578778772787667], [24.909635730690702, 6.578778772787667], [24.909635730690702, 6.5607297208698], [24.89151542788824, 6.5607297208698], [24.89151542788824, 6.5426813055589035], [24.873395125085775, 6.5426813055589035], [24.873395125085775, 6.524633525042389], [24.855274822283313, 6.524633525042389], [24.855274822283313, 6.506586377508248], [24.819034216678386, 6.506586377508248], [24.819034216678386, 6.488539861145044], [24.764673308270996, 6.488539861145044], [24.764673308270996, 6.470493974141921], [24.74655300546853, 6.470493974141921], [24.74655300546853, 6.452448714688592], [24.728432702666066, 6.452448714688592], [24.728432702666066, 6.434404080975341], [24.710312399863604, 6.434404080975341], [24.710312399863604, 6.470493974141921], [24.69219209706114, 6.470493974141921], [24.69219209706114, 6.506586377508248], [24.674071794258676, 6.506586377508248], [24.674071794258676, 6.524633525042389], [24.65595149145621, 6.524633525042389], [24.65595149145621, 6.705140113587365], [24.674071794258676, 6.705140113587365], [24.674071794258676, 6.759304704535516], [24.710312399863604, 6.759304704535516], [24.710312399863604, 6.7773608789278255], [24.74655300546853, 6.7773608789278255], [24.74655300546853, 6.79541771172386], [24.764673308270996, 6.79541771172386], [24.764673308270996, 6.81347520474388], [24.78279361107346, 6.81347520474388], [24.78279361107346, 6.83153335980875], [24.80091391387592, 6.83153335980875], [24.80091391387592, 6.939896295184412], [24.764673308270996, 6.939896295184412], [24.764673308270996, 6.957959135598339], [24.74655300546853, 6.957959135598339], [24.74655300546853, 6.976022652645915], [24.69219209706114, 6.976022652645915], [24.69219209706114, 6.994086848153506], [24.565349977443898, 6.994086848153506], [24.565349977443898, 7.012151723948095], [24.547229674641432, 7.012151723948095], [24.547229674641432, 7.0302172818572926], [24.565349977443898, 7.0302172818572926], [24.565349977443898, 7.0482835237093315], [24.547229674641432, 7.0482835237093315], [24.547229674641432, 7.12055536713246], [24.529109371838967, 7.12055536713246], [24.529109371838967, 7.156695440081262], [24.510989069036505, 7.156695440081262], [24.510989069036505, 7.174766520776469], [24.529109371838967, 7.174766520776469], [24.529109371838967, 7.192838300063053], [24.547229674641432, 7.192838300063053], [24.547229674641432, 7.210910779774943], [24.529109371838967, 7.210910779774943], [24.529109371838967, 7.554423418980234], [24.510989069036505, 7.554423418980234], [24.510989069036505, 7.608686261131753], [24.49286876623404, 7.608686261131753], [24.49286876623404, 7.62677535829014], [24.474748463431578, 7.62677535829014], [24.474748463431578, 7.699139211796903], [24.456628160629112, 7.699139211796903], [24.456628160629112, 7.753419991897343], [23.64121453451825, 7.753419991897343]], [[23.768056654135496, 7.662955788366787], [23.78617695693796, 7.662955788366787], [23.78617695693796, 7.4640000689385495], [23.749936351333034, 7.4640000689385495], [23.749936351333034, 7.482083275542536], [23.768056654135496, 7.482083275542536], [23.768056654135496, 7.662955788366787]], [[24.49286876623404, 7.554423418980234], [24.510989069036505, 7.554423418980234], [24.510989069036505, 7.4640000689385495], [24.49286876623404, 7.4640000689385495], [24.49286876623404, 7.554423418980234]], [[23.949259682160132, 7.482083275542536], [23.967379984962594, 7.482083275542536], [23.967379984962594, 7.373594919238383], [23.949259682160132, 7.373594919238383], [23.949259682160132, 7.482083275542536]], [[24.13046271018477, 7.482083275542536], [24.14858301298723, 7.482083275542536], [24.14858301298723, 7.26513243981139], [24.112342407382307, 7.26513243981139], [24.112342407382307, 7.301283748946568], [24.13046271018477, 7.301283748946568], [24.13046271018477, 7.482083275542536]], [[24.23918452699955, 6.21791662617717], [24.329786041011868, 6.21791662617717], [24.329786041011868, 6.199879962657283], [24.23918452699955, 6.199879962657283], [24.23918452699955, 6.21791662617717]], [[24.49286876623404, 6.037576795763397], [24.583470280246356, 6.037576795763397], [24.583470280246356, 6.019546055876962], [24.49286876623404, 6.019546055876962], [24.49286876623404, 6.037576795763397]], [[24.855274822283313, 6.037576795763397], [24.873395125085775, 6.037576795763397], [24.873395125085775, 5.875320955035565], [24.855274822283313, 5.875320955035565], [24.855274822283313, 6.037576795763397]], [[23.58685362611086, 5.136718247179099], [23.604973928913324, 5.136718247179099], [23.604973928913324, 4.956702168290195], [23.58685362611086, 4.956702168290195], [23.58685362611086, 5.136718247179099]], [[23.768056654135496, 5.136718247179099], [23.78617695693796, 5.136718247179099], [23.78617695693796, 4.992701508628968], [23.768056654135496, 4.992701508628968], [23.768056654135496, 5.136718247179099]], [[24.674071794258676, 5.136718247179099], [24.69219209706114, 5.136718247179099], [24.69219209706114, 4.956702168290195], [24.674071794258676, 4.956702168290195], [24.674071794258676, 5.136718247179099]], [[24.837154519480848, 5.136718247179099], [24.873395125085775, 5.136718247179099], [24.873395125085775, 4.956702168290195], [24.837154519480848, 4.956702168290195], [24.837154519480848, 5.136718247179099]], [[25.036477850307946, 5.136718247179099], [25.054598153110412, 5.136718247179099], [25.054598153110412, 4.974701598898909], [25.036477850307946, 4.974701598898909], [25.036477850307946, 5.136718247179099]], [[24.275425132604475, 4.992701508628968], [24.329786041011868, 4.992701508628968], [24.329786041011868, 4.938703215034501], [24.257304829802017, 4.938703215034501], [24.257304829802017, 4.974701598898909], [24.275425132604475, 4.974701598898909], [24.275425132604475, 4.992701508628968]]]}}, {"type": "Feature", "properties": {"support": 0.5, "want": "core"}, "geometry": {"type": "Polygon", "coordinates": [[[25.09083875871534, 6.687086554619362], [25.09083875871534, 6.6690336449627665], [25.072718455912877, 6.6690336449627665], [25.072718455912877, 6.650981382800897], [25.054598153110412, 6.650981382800897], [25.054598153110412, 6.5607297208698], [25.036477850307946, 6.5607297208698], [25.036477850307946, 6.632929766317661], [25.018357547505484, 6.632929766317661], [25.018357547505484, 6.614878793697557], [24.982116941900557, 6.614878793697557], [24.982116941900557, 6.59682846312567], [24.94587633629563, 6.59682846312567], [24.94587633629563, 6.578778772787667], [24.909635730690702, 6.578778772787667], [24.909635730690702, 6.5607297208698], [24.89151542788824, 6.5607297208698], [24.89151542788824, 6.5426813055589035], [24.873395125085775, 6.5426813055589035], [24.873395125085775, 6.380273916187413], [24.855274822283313, 6.380273916187413], [24.855274822283313, 6.506586377508248], [24.819034216678386, 6.506586377508248], [24.819034216678386, 6.488539861145044], [24.764673308270996, 6.488539861145044], [24.764673308270996, 6.470493974141921], [24.74655300546853, 6.470493974141921], [24.74655300546853, 6.452448714688592], [24.728432702666066, 6.452448714688592], [24.728432702666066, 6.416360071193019], [24.710312399863604, 6.416360071193019], [24.710312399863604, 6.21791662617717], [24.69219209706114, 6.21791662617717], [24.69219209706114, 6.181843899600398], [24.674071794258676, 6.181843899600398], [24.674071794258676, 6.145773567670733], [24.65595149145621, 6.145773567670733], [24.65595149145621, 6.109705615983766], [24.63783118865375, 6.109705615983766], [24.63783118865375, 6.0736400301437214], [24.619710885851287, 6.0736400301437214], [24.619710885851287, 6.055608119919961], [24.60159058304882, 6.055608119919961], [24.60159058304882, 6.037576795763397], [24.583470280246356, 6.037576795763397], [24.583470280246356, 5.947428903109589], [24.565349977443898, 5.947428903109589], [24.565349977443898, 5.8933470853923415], [24.547229674641432, 5.8933470853923415], [24.547229674641432, 5.857295392798895], [24.529109371838967, 5.857295392798895], [24.529109371838967, 5.839270396890478], [24.510989069036505, 5.839270396890478], [24.510989069036505, 5.785198789223855], [24.49286876623404, 5.785198789223855], [24.49286876623404, 5.767176040720106], [24.474748463431578, 5.767176040720106], [24.474748463431578, 5.749153849592978], [24.456628160629112, 5.749153849592978], [24.456628160629112, 5.731132214053658], [24.43850785782665, 5.731132214053658], [24.43850785782665, 5.713111132313843], [24.420387555024185, 5.713111132313843], [24.420387555024185, 5.695090602585723], [24.402267252221723, 5.695090602585723], [24.402267252221723, 5.677070623081992], [24.38414694941926, 5.677070623081992], [24.38414694941926, 5.659051192015834], [24.366026646616795, 5.659051192015834], [24.366026646616795, 5.641032307600932], [24.311665738209406, 5.641032307600932], [24.311665738209406, 5.659051192015834], [24.29354543540694, 5.659051192015834], [24.29354543540694, 5.695090602585723], [24.275425132604475, 5.695090602585723], [24.275425132604475, 5.713111132313843], [24.29354543540694, 5.713111132313843], [24.29354543540694, 5.731132214053658], [24.275425132604475, 5.731132214053658], [24.275425132604475, 5.749153849592978], [24.257304829802017, 5.749153849592978], [24.257304829802017, 5.785198789223855], [24.23918452699955, 5.785198789223855], [24.23918452699955, 5.82124596551897], [24.14858301298723, 5.82124596551897], [24.14858301298723, 5.839270396890478], [24.13046271018477, 5.839270396890478], [24.13046271018477, 5.857295392798895], [24.094222104579842, 5.857295392798895], [24.094222104579842, 5.875320955035565], [24.07610180177738, 5.875320955035565], [24.07610180177738, 5.911373785661595], [24.057981498974915, 5.911373785661595], [24.057981498974915, 5.947428903109589], [24.03986119617245, 5.947428903109589], [24.03986119617245, 5.9654573238756505], [24.021740893369987, 5.9654573238756505], [24.021740893369987, 6.001515898464112], [23.98550028776506, 6.001515898464112], [23.98550028776506, 6.019546055876962], [23.949259682160132, 6.019546055876962], [23.949259682160132, 6.037576795763397], [23.913019076555205, 6.037576795763397], [23.913019076555205, 6.055608119919961], [23.876778470950278, 6.055608119919961], [23.876778470950278, 6.0736400301437214], [23.78617695693796, 6.0736400301437214], [23.78617695693796, 6.055608119919961], [23.514372414901008, 6.055608119919961], [23.514372414901008, 6.0736400301437214], [23.496252112098546, 6.0736400301437214], [23.496252112098546, 6.091672528232279], [23.423770900888687, 6.091672528232279], [23.423770900888687, 6.055608119919961], [23.405650598086226, 6.055608119919961], [23.405650598086226, 6.037576795763397], [23.387530295283764, 6.037576795763397], [23.387530295283764, 6.019546055876962], [23.369409992481298, 6.019546055876962], [23.369409992481298, 6.001515898464112], [23.33316938687637, 6.001515898464112], [23.33316938687637, 5.983486321728838], [23.296928781271443, 5.983486321728838], [23.296928781271443, 6.055608119919961], [23.278808478468978, 6.055608119919961], [23.278808478468978, 6.091672528232279], [23.296928781271443, 6.091672528232279], [23.296928781271443, 6.145773567670733], [23.278808478468978, 6.145773567670733], [23.278808478468978, 6.181843899600398], [23.296928781271443, 6.181843899600398], [23.296928781271443, 6.199879962657283], [23.31504908407391, 6.199879962657283], [23.31504908407391, 6.3081090138076465], [23.296928781271443, 6.3081090138076465], [23.296928781271443, 6.470493974141921], [23.278808478468978, 6.470493974141921], [23.278808478468978, 6.506586377508248], [23.1700866616542, 6.506586377508248], [23.1700866616542, 6.488539861145044], [23.151966358851734, 6.488539861145044], [23.151966358851734, 6.470493974141921], [23.133846056049272, 6.470493974141921], [23.133846056049272, 6.452448714688592], [23.09760545044434, 6.452448714688592], [23.09760545044434, 6.434404080975341], [23.061364844839417, 6.434404080975341], [23.061364844839417, 6.416360071193019], [23.043244542036955, 6.416360071193019], [23.043244542036955, 6.3983166835330465], [22.988883633629563, 6.3983166835330465], [22.988883633629563, 6.416360071193019], [22.952643028024635, 6.416360071193019], [22.952643028024635, 6.434404080975341], [22.934522725222173, 6.434404080975341], [22.934522725222173, 6.452448714688592], [22.82580090840739, 6.452448714688592], [22.82580090840739, 6.362231767348663], [22.843921211209853, 6.362231767348663], [22.843921211209853, 6.29006932093315], [22.82580090840739, 6.29006932093315], [22.82580090840739, 6.181843899600398], [22.843921211209853, 6.181843899600398], [22.843921211209853, 6.145773567670733], [22.86204151401232, 6.145773567670733], [22.86204151401232, 6.127739295196852], [22.843921211209853, 6.127739295196852], [22.843921211209853, 6.019546055876962], [22.82580090840739, 6.019546055876962], [22.82580090840739, 5.983486321728838], [22.807680605604926, 5.983486321728838], [22.807680605604926, 5.9654573238756505], [22.77144, 5.9654573238756505], [22.77144, 5.695090602585723], [22.880161816814784, 5.695090602585723], [22.880161816814784, 5.677070623081992], [22.934522725222173, 5.677070623081992], [22.934522725222173, 5.659051192015834], [23.007003936432028, 5.659051192015834], [23.007003936432028, 5.641032307600932], [23.133846056049272, 5.641032307600932], [23.133846056049272, 5.623013968051463], [23.1700866616542, 5.623013968051463], [23.1700866616542, 5.641032307600932], [23.188206964456665, 5.641032307600932], [23.188206964456665, 5.677070623081992], [23.242567872864054, 5.677070623081992], [23.242567872864054, 5.641032307600932], [23.260688175666516, 5.641032307600932], [23.260688175666516, 5.623013968051463], [23.33316938687637, 5.623013968051463], [23.33316938687637, 5.659051192015834], [23.351289689678833, 5.659051192015834], [23.351289689678833, 5.677070623081992], [23.423770900888687, 5.677070623081992], [23.423770900888687, 5.623013968051463], [23.405650598086226, 5.623013968051463], [23.405650598086226, 5.604996171582095], [23.387530295283764, 5.604996171582095], [23.387530295283764, 5.5869789164079835], [23.351289689678833, 5.5869789164079835], [23.351289689678833, 5.532930380816075], [23.33316938687637, 5.532930380816075], [23.33316938687637, 5.496900697530866], [23.31504908407391, 5.496900697530866], [23.31504908407391, 5.4608731366317045], [23.296928781271443, 5.4608731366317045], [23.296928781271443, 5.424847683868815], [23.278808478468978, 5.424847683868815], [23.278808478468978, 5.388824325000005], [23.260688175666516, 5.388824325000005], [23.260688175666516, 5.370813426327261], [23.242567872864054, 5.370813426327261], [23.242567872864054, 5.334793181611953], [23.22444757006159, 5.334793181611953], [23.22444757006159, 5.316783832013532], [23.206327267259123, 5.316783832013532], [23.206327267259123, 5.244751543884652], [23.188206964456665, 5.244751543884652], [23.188206964456665, 5.226744740538213], [23.151966358851734, 5.226744740538213], [23.151966358851734, 5.208738441115516], [23.133846056049272, 5.208738441115516], [23.133846056049272, 5.19073264384207], [23.115725753246807, 5.19073264384207], [23.115725753246807, 5.172727346943836], [23.09760545044434, 5.172727346943836], [23.09760545044434, 5.136718247179099], [23.07948514764188, 5.136718247179099], [23.07948514764188, 5.118714440766757], [23.061364844839417, 5.118714440766757], [23.061364844839417, 5.100711127637952], [23.02512423923449, 5.100711127637952], [23.02512423923449, 5.082708306020875], [23.007003936432028, 5.082708306020875], [23.007003936432028, 5.064705974144161], [22.988883633629563, 5.064705974144161], [22.988883633629563, 5.028702772528555], [22.970763330827097, 5.028702772528555], [22.970763330827097, 4.956702168290195], [22.952643028024635, 4.956702168290195], [22.952643028024635, 4.902706733511022], [22.934522725222173, 4.902706733511022], [22.934522725222173, 4.848715547189927], [22.916402422419708, 4.848715547189927], [22.916402422419708, 4.830719420941443], [22.898282119617242, 4.830719420941443], [22.898282119617242, 4.812723759679616], [22.880161816814784, 4.812723759679616], [22.880161816814784, 4.794728561639507], [22.86204151401232, 4.794728561639507], [22.86204151401232, 4.776733825056585], [22.880161816814784, 4.776733825056585], [22.880161816814784, 4.758739548166734], [22.934522725222173, 4.758739548166734], [22.934522725222173, 4.740745729206253], [23.043244542036955, 4.740745729206253], [23.043244542036955, 4.722752366411846], [23.1700866616542, 4.722752366411846], [23.1700866616542, 4.704759458020632], [23.296928781271443, 4.704759458020632], [23.296928781271443, 4.68676700227013], [23.423770900888687, 4.68676700227013], [23.423770900888687, 4.6687749973982715], [23.53249271770347, 4.6687749973982715], [23.53249271770347, 4.650783441643385], [23.659334837320714, 4.650783441643385], [23.659334837320714, 4.632792333244202], [23.78617695693796, 4.632792333244202], [23.78617695693796, 4.614801670439857], [23.89489877375274, 4.614801670439857], [23.89489877375274, 4.596811451469884], [24.07610180177738, 4.596811451469884], [24.07610180177738, 4.614801670439857], [24.202943921394624, 4.614801670439857], [24.202943921394624, 4.632792333244202], [24.311665738209406, 4.632792333244202], [24.311665738209406, 4.650783441643385], [24.420387555024185, 4.650783441643385], [24.420387555024185, 4.6687749973982715], [24.49286876623404, 4.6687749973982715], [24.49286876623404, 4.776733825056585], [24.510989069036505, 4.776733825056585], [24.510989069036505, 4.6687749973982715], [24.529109371838967, 4.6687749973982715], [24.529109371838967, 4.68676700227013], [24.63783118865375, 4.68676700227013], [24.63783118865375, 4.704759458020632], [24.74655300546853, 4.704759458020632], [24.74655300546853, 4.722752366411846], [24.873395125085775, 4.722752366411846], [24.873395125085775, 4.740745729206253], [24.982116941900557, 4.740745729206253], [24.982116941900557, 4.758739548166734], [25.09083875871534, 4.758739548166734], [25.09083875871534, 4.776733825056585], [25.1089590615178, 4.776733825056585], [25.1089590615178, 4.794728561639507], [25.127079364320267, 4.794728561639507], [25.127079364320267, 4.938703215034501], [25.14519966712273, 4.938703215034501], [25.14519966712273, 5.226744740538213], [25.163319969925194, 5.226744740538213], [25.163319969925194, 5.514915272984303], [25.18144027272766, 5.514915272984303], [25.18144027272766, 5.82124596551897], [25.19956057553012, 5.82124596551897], [25.19956057553012, 6.109705615983766], [25.217680878332583, 6.109705615983766], [25.217680878332583, 6.3983166835330465], [25.23580118113505, 6.3983166835330465], [25.23580118113505, 6.416360071193019], [25.217680878332583, 6.416360071193019], [25.217680878332583, 6.6690336449627665], [25.19956057553012, 6.6690336449627665], [25.19956057553012, 6.687086554619362], [25.09083875871534, 6.687086554619362]], [[23.22444757006159, 6.21791662617717], [23.278808478468978, 6.21791662617717], [23.278808478468978, 6.181843899600398], [23.242567872864054, 6.181843899600398], [23.242567872864054, 6.163808435205156], [23.22444757006159, 6.163808435205156], [23.22444757006159, 6.21791662617717]], [[24.855274822283313, 6.037576795763397], [24.873395125085775, 6.037576795763397], [24.873395125085775, 5.875320955035565], [24.855274822283313, 5.875320955035565], [24.855274822283313, 6.037576795763397]], [[25.036477850307946, 6.037576795763397], [25.054598153110412, 6.037576795763397], [25.054598153110412, 5.839270396890478], [24.94587633629563, 5.839270396890478], [24.94587633629563, 5.857295392798895], [24.96399663909809, 5.857295392798895], [24.96399663909809, 5.875320955035565], [24.982116941900557, 5.875320955035565], [24.982116941900557, 5.911373785661595], [25.018357547505484, 5.911373785661595], [25.018357547505484, 5.929401057636212], [25.036477850307946, 5.929401057636212], [25.036477850307946, 6.037576795763397]], [[23.768056654135496, 5.857295392798895], [23.78617695693796, 5.857295392798895], [23.78617695693796, 5.695090602585723], [23.768056654135496, 5.695090602585723], [23.768056654135496, 5.857295392798895]], [[24.80091391387592, 5.713111132313843], [24.873395125085775, 5.713111132313843], [24.873395125085775, 5.659051192015834], [24.78279361107346, 5.659051192015834], [24.78279361107346, 5.695090602585723], [24.80091391387592, 5.695090602585723], [24.80091391387592, 5.713111132313843]], [[23.58685362611086, 5.641032307600932], [23.604973928913324, 5.641032307600932], [23.604973928913324, 5.478886652673817], [23.58685362611086, 5.478886652673817], [23.58685362611086, 5.641032307600932]], [[24.674071794258676, 5.550946022808598], [24.69219209706114, 5.550946022808598], [24.69219209706114, 5.478886652673817], [24.63783118865375, 5.478886652673817], [24.63783118865375, 5.514915272984303], [24.65595149145621, 5.514915272984303], [24.65595149145621, 5.532930380816075], [24.674071794258676, 5.532930380816075], [24.674071794258676, 5.550946022808598]], [[23.58685362611086, 5.136718247179099], [23.604973928913324, 5.136718247179099], [23.604973928913324, 4.956702168290195], [23.58685362611086, 4.956702168290195], [23.58685362611086, 5.136718247179099]], [[23.768056654135496, 5.136718247179099], [23.78617695693796, 5.136718247179099], [23.78617695693796, 4.992701508628968], [23.768056654135496, 4.992701508628968], [23.768056654135496, 5.136718247179099]], [[24.311665738209406, 5.136718247179099], [24.34790634381433, 5.136718247179099], [24.34790634381433, 5.118714440766757], [24.366026646616795, 5.118714440766757], [24.366026646616795, 5.082708306020875], [24.34790634381433, 5.082708306020875], [24.34790634381433, 5.064705974144161], [24.329786041011868, 5.064705974144161], [24.329786041011868, 5.082708306020875], [24.311665738209406, 5.082708306020875], [24.311665738209406, 5.136718247179099]], [[24.674071794258676, 5.136718247179099], [24.69219209706114, 5.136718247179099], [24.69219209706114, 4.956702168290195], [24.674071794258676, 4.956702168290195], [24.674071794258676, 5.136718247179099]], [[24.837154519480848, 5.136718247179099], [24.873395125085775, 5.136718247179099], [24.873395125085775, 4.956702168290195], [24.837154519480848, 4.956702168290195], [24.837154519480848, 5.136718247179099]], [[25.036477850307946, 5.136718247179099], [25.054598153110412, 5.136718247179099], [25.054598153110412, 4.974701598898909], [25.036477850307946, 4.974701598898909], [25.036477850307946, 5.136718247179099]], [[24.275425132604475, 4.992701508628968], [24.329786041011868, 4.992701508628968], [24.329786041011868, 4.938703215034501], [24.257304829802017, 4.938703215034501], [24.257304829802017, 4.974701598898909], [24.275425132604475, 4.974701598898909], [24.275425132604475, 4.992701508628968]], [[23.89489877375274, 4.974701598898909], [23.913019076555205, 4.974701598898909], [23.913019076555205, 4.956702168290195], [23.967379984962594, 4.956702168290195], [23.967379984962594, 4.938703215034501], [23.98550028776506, 4.938703215034501], [23.98550028776506, 4.956702168290195], [24.07610180177738, 4.956702168290195], [24.07610180177738, 4.974701598898909], [24.202943921394624, 4.974701598898909], [24.202943921394624, 4.938703215034501], [24.18482361859216, 4.938703215034501], [24.18482361859216, 4.920704737363933], [24.14858301298723, 4.920704737363933], [24.14858301298723, 4.902706733511022], [24.13046271018477, 4.902706733511022], [24.13046271018477, 4.920704737363933], [24.094222104579842, 4.920704737363933], [24.094222104579842, 4.902706733511022], [24.057981498974915, 4.902706733511022], [24.057981498974915, 4.884709201708727], [24.021740893369987, 4.884709201708727], [24.021740893369987, 4.866712140190429], [23.949259682160132, 4.866712140190429], [23.949259682160132, 4.848715547189927], [23.93113937935767, 4.848715547189927], [23.93113937935767, 4.830719420941443], [23.89489877375274, 4.830719420941443], [23.89489877375274, 4.866712140190429], [23.876778470950278, 4.866712140190429], [23.876778470950278, 4.884709201708727], [23.89489877375274, 4.884709201708727], [23.89489877375274, 4.920704737363933], [23.876778470950278, 4.920704737363933], [23.876778470950278, 4.938703215034501], [23.89489877375274, 4.938703215034501], [23.89489877375274, 4.974701598898909]], [[23.22444757006159, 4.956702168290195], [23.242567872864054, 4.956702168290195], [23.242567872864054, 4.830719420941443], [23.22444757006159, 4.830719420941443], [23.22444757006159, 4.956702168290195]], [[23.405650598086226, 4.956702168290195], [23.423770900888687, 4.956702168290195], [23.423770900888687, 4.866712140190429], [23.405650598086226, 4.866712140190429], [23.405650598086226, 4.956702168290195]]]}}, {"type": "Feature", "properties": {"support": 0.75, "want": "core"}, "geometry": {"type": "Polygon", "coordinates": [[[23.1700866616542, 6.506586377508248], [23.1700866616542, 6.488539861145044], [23.151966358851734, 6.488539861145044], [23.151966358851734, 6.470493974141921], [23.133846056049272, 6.470493974141921], [23.133846056049272, 6.452448714688592], [23.09760545044434, 6.452448714688592], [23.09760545044434, 6.434404080975341], [23.061364844839417, 6.434404080975341], [23.061364844839417, 6.416360071193019], [23.043244542036955, 6.416360071193019], [23.043244542036955, 6.3983166835330465], [22.988883633629563, 6.3983166835330465], [22.988883633629563, 6.416360071193019], [22.952643028024635, 6.416360071193019], [22.952643028024635, 6.434404080975341], [22.934522725222173, 6.434404080975341], [22.934522725222173, 6.452448714688592], [22.82580090840739, 6.452448714688592], [22.82580090840739, 6.362231767348663], [22.843921211209853, 6.362231767348663], [22.843921211209853, 6.29006932093315], [22.82580090840739, 6.29006932093315], [22.82580090840739, 6.181843899600398], [22.843921211209853, 6.181843899600398], [22.843921211209853, 6.145773567670733], [22.86204151401232, 6.145773567670733], [22.86204151401232, 6.127739295196852], [22.843921211209853, 6.127739295196852], [22.843921211209853, 6.019546055876962], [22.82580090840739, 6.019546055876962], [22.82580090840739, 5.983486321728838], [22.807680605604926, 5.983486321728838], [22.807680605604926, 5.9654573238756505], [22.77144, 5.9654573238756505], [22.77144, 5.857295392798895], [22.880161816814784, 5.857295392798895], [22.880161816814784, 5.839270396890478], [22.77144, 5.839270396890478], [22.77144, 5.695090602585723], [22.880161816814784, 5.695090602585723], [22.880161816814784, 5.677070623081992], [22.934522725222173, 5.677070623081992], [22.934522725222173, 5.659051192015834], [23.007003936432028, 5.659051192015834], [23.007003936432028, 5.641032307600932], [23.133846056049272, 5.641032307600932], [23.133846056049272, 5.623013968051463], [23.1700866616542, 5.623013968051463], [23.1700866616542, 5.641032307600932], [23.188206964456665, 5.641032307600932], [23.188206964456665, 5.677070623081992], [23.242567872864054, 5.677070623081992], [23.242567872864054, 5.641032307600932], [23.260688175666516, 5.641032307600932], [23.260688175666516, 5.623013968051463], [23.33316938687637, 5.623013968051463], [23.33316938687637, 5.659051192015834], [23.351289689678833, 5.659051192015834], [23.351289689678833, 5.677070623081992], [23.423770900888687, 5.677070623081992], [23.423770900888687, 5.623013968051463], [23.405650598086226, 5.623013968051463], [23.405650598086226, 5.604996171582095], [23.387530295283764, 5.604996171582095], [23.387530295283764, 5.5869789164079835], [23.351289689678833, 5.5869789164079835], [23.351289689678833, 5.532930380816075], [23.33316938687637, 5.532930380816075], [23.33316938687637, 5.496900697530866], [23.31504908407391, 5.496900697530866], [23.31504908407391, 5.4608731366317045], [23.296928781271443, 5.4608731366317045], [23.296928781271443, 5.424847683868815], [23.278808478468978, 5.424847683868815], [23.278808478468978, 5.388824325000005], [23.260688175666516, 5.388824325000005], [23.260688175666516, 5.370813426327261], [23.242567872864054, 5.370813426327261], [23.242567872864054, 5.334793181611953], [23.22444757006159, 5.334793181611953], [23.22444757006159, 5.316783832013532], [23.206327267259123, 5.316783832013532], [23.206327267259123, 5.244751543884652], [23.188206964456665, 5.244751543884652], [23.188206964456665, 5.226744740538213], [23.151966358851734, 5.226744740538213], [23.151966358851734, 5.208738441115516], [23.133846056049272, 5.208738441115516], [23.133846056049272, 5.19073264384207], [23.115725753246807, 5.19073264384207], [23.115725753246807, 5.172727346943836], [23.09760545044434, 5.172727346943836], [23.09760545044434, 5.136718247179099], [23.07948514764188, 5.136718247179099], [23.07948514764188, 5.118714440766757], [23.061364844839417, 5.118714440766757], [23.061364844839417, 5.100711127637952], [23.02512423923449, 5.100711127637952], [23.02512423923449, 5.082708306020875], [23.007003936432028, 5.082708306020875], [23.007003936432028, 5.064705974144161], [22.988883633629563, 5.064705974144161], [22.988883633629563, 5.028702772528555], [22.970763330827097, 5.028702772528555], [22.970763330827097, 4.956702168290195], [22.952643028024635, 4.956702168290195], [22.952643028024635, 4.902706733511022], [22.934522725222173, 4.902706733511022], [22.934522725222173, 4.848715547189927], [22.916402422419708, 4.848715547189927], [22.916402422419708, 4.830719420941443], [22.898282119617242, 4.830719420941443], [22.898282119617242, 4.812723759679616], [22.880161816814784, 4.812723759679616], [22.880161816814784, 4.794728561639507], [22.86204151401232, 4.794728561639507], [22.86204151401232, 4.776733825056585], [22.880161816814784, 4.776733825056585], [22.880161816814784, 4.758739548166734], [22.934522725222173, 4.758739548166734], [22.934522725222173, 4.740745729206253], [23.043244542036955, 4.740745729206253], [23.043244542036955, 4.722752366411846], [23.1700866616542, 4.722752366411846], [23.1700866616542, 4.704759458020632], [23.296928781271443, 4.704759458020632], [23.296928781271443, 4.68676700227013], [23.423770900888687, 4.68676700227013], [23.423770900888687, 4.6687749973982715], [23.47813180929608, 4.6687749973982715], [23.47813180929608, 4.68676700227013], [23.514372414901008, 4.68676700227013], [23.514372414901008, 4.704759458020632], [23.5687333233084, 4.704759458020632], [23.5687333233084, 4.722752366411846], [23.604973928913324, 4.722752366411846], [23.604973928913324, 4.740745729206253], [23.64121453451825, 4.740745729206253], [23.64121453451825, 4.758739548166734], [23.67745514012318, 4.758739548166734], [23.67745514012318, 4.776733825056585], [23.768056654135496, 4.776733825056585], [23.768056654135496, 4.794728561639507], [23.82241756254289, 4.794728561639507], [23.82241756254289, 4.812723759679616], [23.858658168147816, 4.812723759679616], [23.858658168147816, 4.830719420941443], [23.89489877375274, 4.830719420941443], [23.89489877375274, 4.866712140190429], [23.876778470950278, 4.866712140190429], [23.876778470950278, 4.884709201708727], [23.89489877375274, 4.884709201708727], [23.89489877375274, 4.920704737363933], [23.876778470950278, 4.920704737363933], [23.876778470950278, 4.938703215034501], [23.89489877375274, 4.938703215034501], [23.89489877375274, 4.974701598898909], [23.913019076555205, 4.974701598898909], [23.913019076555205, 4.956702168290195], [23.967379984962594, 4.956702168290195], [23.967379984962594, 4.938703215034501], [23.98550028776506, 4.938703215034501], [23.98550028776506, 4.956702168290195], [24.07610180177738, 4.956702168290195], [24.07610180177738, 4.974701598898909], [24.202943921394624, 4.974701598898909], [24.202943921394624, 4.956702168290195], [24.257304829802017, 4.956702168290195], [24.257304829802017, 4.974701598898909], [24.275425132604475, 4.974701598898909], [24.275425132604475, 4.992701508628968], [24.329786041011868, 4.992701508628968], [24.329786041011868, 5.010701899249121], [24.38414694941926, 5.010701899249121], [24.38414694941926, 5.046704130236883], [24.366026646616795, 5.046704130236883], [24.366026646616795, 5.064705974144161], [24.329786041011868, 5.064705974144161], [24.329786041011868, 5.082708306020875], [24.311665738209406, 5.082708306020875], [24.311665738209406, 5.136718247179099], [24.34790634381433, 5.136718247179099], [24.34790634381433, 5.118714440766757], [24.366026646616795, 5.118714440766757], [24.366026646616795, 5.100711127637952], [24.420387555024185, 5.100711127637952], [24.420387555024185, 5.082708306020875], [24.43850785782665, 5.082708306020875], [24.43850785782665, 5.100711127637952], [24.474748463431578, 5.100711127637952], [24.474748463431578, 5.172727346943836], [24.49286876623404, 5.172727346943836], [24.49286876623404, 5.19073264384207], [24.510989069036505, 5.19073264384207], [24.510989069036505, 5.244751543884652], [24.529109371838967, 5.244751543884652], [24.529109371838967, 5.262758852929777], [24.547229674641432, 5.262758852929777], [24.547229674641432, 5.316783832013532], [24.565349977443898, 5.316783832013532], [24.565349977443898, 5.334793181611953], [24.583470280246356, 5.334793181611953], [24.583470280246356, 5.352803045790631], [24.60159058304882, 5.352803045790631], [24.60159058304882, 5.406835743587491], [24.619710885851287, 5.406835743587491], [24.619710885851287, 5.4608731366317045], [24.63783118865375, 5.4608731366317045], [24.63783118865375, 5.514915272984303], [24.65595149145621, 5.514915272984303], [24.65595149145621, 5.532930380816075], [24.674071794258676, 5.532930380816075], [24.674071794258676, 5.550946022808598], [24.69219209706114, 5.550946022808598], [24.69219209706114, 5.568962200744774], [24.710312399863604, 5.568962200744774], [24.710312399863604, 5.604996171582095], [24.728432702666066, 5.604996171582095], [24.728432702666066, 5.623013968051463], [24.74655300546853, 5.623013968051463], [24.74655300546853, 5.641032307600932], [24.764673308270996, 5.641032307600932], [24.764673308270996, 5.659051192015834], [24.78279361107346, 5.659051192015834], [24.78279361107346, 5.695090602585723], [24.80091391387592, 5.695090602585723], [24.80091391387592, 5.713111132313843], [24.819034216678386, 5.713111132313843], [24.819034216678386, 5.731132214053658], [24.837154519480848, 5.731132214053658], [24.837154519480848, 5.767176040720106], [24.855274822283313, 5.767176040720106], [24.855274822283313, 5.785198789223855], [24.873395125085775, 5.785198789223855], [24.873395125085775, 5.803222096893536], [24.855274822283313, 5.803222096893536], [24.855274822283313, 5.82124596551897], [24.80091391387592, 5.82124596551897], [24.80091391387592, 5.803222096893536], [24.764673308270996, 5.803222096893536], [24.764673308270996, 5.785198789223855], [24.710312399863604, 5.785198789223855], [24.710312399863604, 5.767176040720106], [24.583470280246356, 5.767176040720106], [24.583470280246356, 5.785198789223855], [24.547229674641432, 5.785198789223855], [24.547229674641432, 5.803222096893536], [24.510989069036505, 5.803222096893536], [24.510989069036505, 5.785198789223855], [24.49286876623404, 5.785198789223855], [24.49286876623404, 5.767176040720106], [24.474748463431578, 5.767176040720106], [24.474748463431578, 5.749153849592978], [24.456628160629112, 5.749153849592978], [24.456628160629112, 5.731132214053658], [24.43850785782665, 5.731132214053658], [24.43850785782665, 5.713111132313843], [24.420387555024185, 5.713111132313843], [24.420387555024185, 5.695090602585723], [24.402267252221723, 5.695090602585723], [24.402267252221723, 5.677070623081992], [24.38414694941926, 5.677070623081992], [24.38414694941926, 5.659051192015834], [24.366026646616795, 5.659051192015834], [24.366026646616795, 5.641032307600932], [24.311665738209406, 5.641032307600932], [24.311665738209406, 5.659051192015834], [24.29354543540694, 5.659051192015834], [24.29354543540694, 5.695090602585723], [24.275425132604475, 5.695090602585723], [24.275425132604475, 5.713111132313843], [24.29354543540694, 5.713111132313843], [24.29354543540694, 5.731132214053658], [24.275425132604475, 5.731132214053658], [24.275425132604475, 5.749153849592978], [24.257304829802017, 5.749153849592978], [24.257304829802017, 5.785198789223855], [24.23918452699955, 5.785198789223855], [24.23918452699955, 5.82124596551897], [24.14858301298723, 5.82124596551897], [24.14858301298723, 5.839270396890478], [24.13046271018477, 5.839270396890478], [24.13046271018477, 5.857295392798895], [24.094222104579842, 5.857295392798895], [24.094222104579842, 5.875320955035565], [24.07610180177738, 5.875320955035565], [24.07610180177738, 5.911373785661595], [24.057981498974915, 5.911373785661595], [24.057981498974915, 5.947428903109589], [24.03986119617245, 5.947428903109589], [24.03986119617245, 5.9654573238756505], [24.021740893369987, 5.9654573238756505], [24.021740893369987, 6.001515898464112], [23.98550028776506, 6.001515898464112], [23.98550028776506, 6.019546055876962], [23.949259682160132, 6.019546055876962], [23.949259682160132, 6.037576795763397], [23.913019076555205, 6.037576795763397], [23.913019076555205, 6.055608119919961], [23.876778470950278, 6.055608119919961], [23.876778470950278, 6.0736400301437214], [23.78617695693796, 6.0736400301437214], [23.78617695693796, 6.055608119919961], [23.514372414901008, 6.055608119919961], [23.514372414901008, 6.0736400301437214], [23.496252112098546, 6.0736400301437214], [23.496252112098546, 6.091672528232279], [23.423770900888687, 6.091672528232279], [23.423770900888687, 6.055608119919961], [23.405650598086226, 6.055608119919961], [23.405650598086226, 6.037576795763397], [23.387530295283764, 6.037576795763397], [23.387530295283764, 6.019546055876962], [23.369409992481298, 6.019546055876962], [23.369409992481298, 6.001515898464112], [23.33316938687637, 6.001515898464112], [23.33316938687637, 5.983486321728838], [23.296928781271443, 5.983486321728838], [23.296928781271443, 6.055608119919961], [23.278808478468978, 6.055608119919961], [23.278808478468978, 6.091672528232279], [23.296928781271443, 6.091672528232279], [23.296928781271443, 6.145773567670733], [23.278808478468978, 6.145773567670733], [23.278808478468978, 6.181843899600398], [23.296928781271443, 6.181843899600398], [23.296928781271443, 6.199879962657283], [23.31504908407391, 6.199879962657283], [23.31504908407391, 6.3081090138076465], [23.296928781271443, 6.3081090138076465], [23.296928781271443, 6.470493974141921], [23.278808478468978, 6.470493974141921], [23.278808478468978, 6.506586377508248], [23.1700866616542, 6.506586377508248]], [[23.22444757006159, 6.21791662617717], [23.278808478468978, 6.21791662617717], [23.278808478468978, 6.181843899600398], [23.242567872864054, 6.181843899600398], [23.242567872864054, 6.163808435205156], [23.22444757006159, 6.163808435205156], [23.22444757006159, 6.21791662617717]], [[23.33316938687637, 5.8933470853923415], [23.405650598086226, 5.8933470853923415], [23.405650598086226, 5.875320955035565], [23.423770900888687, 5.875320955035565], [23.423770900888687, 5.857295392798895], [23.441891203691153, 5.857295392798895], [23.441891203691153, 5.767176040720106], [23.423770900888687, 5.767176040720106], [23.423770900888687, 5.749153849592978], [23.405650598086226, 5.749153849592978], [23.405650598086226, 5.731132214053658], [23.387530295283764, 5.731132214053658], [23.387530295283764, 5.713111132313843], [23.369409992481298, 5.713111132313843], [23.369409992481298, 5.695090602585723], [23.351289689678833, 5.695090602585723], [23.351289689678833, 5.713111132313843], [23.33316938687637, 5.713111132313843], [23.33316938687637, 5.731132214053658], [23.31504908407391, 5.731132214053658], [23.31504908407391, 5.839270396890478], [23.33316938687637, 5.839270396890478], [23.33316938687637, 5.8933470853923415]], [[23.768056654135496, 5.857295392798895], [23.78617695693796, 5.857295392798895], [23.78617695693796, 5.695090602585723], [23.768056654135496, 5.695090602585723], [23.768056654135496, 5.857295392798895]], [[23.58685362611086, 5.641032307600932], [23.604973928913324, 5.641032307600932], [23.604973928913324, 5.478886652673817], [23.58685362611086, 5.478886652673817], [23.58685362611086, 5.641032307600932]], [[23.58685362611086, 5.136718247179099], [23.604973928913324, 5.136718247179099], [23.604973928913324, 4.956702168290195], [23.58685362611086, 4.956702168290195], [23.58685362611086, 5.136718247179099]], [[23.768056654135496, 5.136718247179099], [23.78617695693796, 5.136718247179099], [23.78617695693796, 4.992701508628968], [23.768056654135496, 4.992701508628968], [23.768056654135496, 5.136718247179099]], [[23.22444757006159, 4.956702168290195], [23.242567872864054, 4.956702168290195], [23.242567872864054, 4.830719420941443], [23.22444757006159, 4.830719420941443], [23.22444757006159, 4.956702168290195]], [[23.405650598086226, 4.956702168290195], [23.423770900888687, 4.956702168290195], [23.423770900888687, 4.866712140190429], [23.405650598086226, 4.866712140190429], [23.405650598086226, 4.956702168290195]]]}}]}