{"type": "FeatureCollection", "features": [{"type": "Feature", "properties": {"uid": 1, "seed": "core proposal 1", "seed_kind": "optimized", "area_km2": 19544.0, "area_ha": 1954400, "country": "CAF", "in_zones": "[]", "overlaps": "[\"WDPA Zemongo (Faunal Reserve) 25%\"]", "km_to_park": 0.0, "clusters": 4, "population_est": 0, "pop_per_km2": 0.0, "osm_places": 31, "new_since_2015": 0, "camps": 1, "built_km2": 0.87, "built_2000_km2": 0.0, "built_2015_km2": 0.0, "towns": "[]", "fire_det_2024_25": 57041, "fire_per_1000km2_yr": 1459, "fire_nov_feb_share": 0.89, "fronts": 2238, "fronts_per_1000km2": 114.5, "fronts_transhumance_pct": 89, "fronts_long": 351, "fronts_long_per_1000km2": 17.96, "front_dirs": "{\"SW\": 354, \"SE\": 298, \"NE\": 293}", "front_dirs_all": "{\"E\": 254, \"S\": 287, \"NW\": 239, \"W\": 244, \"SE\": 298, \"SW\": 354, \"N\": 269, \"NE\": 293}", "clearing_events": 22, "clearing_km2": 0.35, "clearing_since_2020_km2": 0.35, "clearing_encroach_slash": 22, "mine_reported": 0, "mine_candidates": 0, "mine_top05_cells": 0, "mine_watchlist": 0, "mining_measured": false, "cropland_2003_pct": 0.0, "cropland_2019_pct": 0.0, "boundary_legibility": 1.0, "built_growth_x": null, "front_axis_coherence": 0.29, "front_axis": "NE\u2013SW", "rationale": "[\"core\", \"long-front density/1000km2 17.96 >= 88.0: no\", \"transhumance share % 89 >= 50: yes\", \"axis coherence 0.29 >= 0.5: no\", \"people/km2 0.0 <= 2: yes\", \"\\u2014 not a corridor; core?\", \"people/km2 0.0 <= 0.02: yes\", \"cropland 2019 % 0 <= 0.05: yes\", \"clearing since 2020 km2/1000km2 0.018 <= 0.5: yes\", \"reported workings 0 <= 0: yes\"]", "cls": "core", "boundary": "[\"study-area edge on the NE/SW (378 km)\", \"Chinko on the W/SW (92 km)\", \"unnamed river (order 5) on the N/NW (88 km)\", \"Mbomou on the SW (76 km)\", \"primary road on the SW/SE (70 km)\", \"secondary road on the NE/N (64 km)\"]", "perimeter_km": 1124, "unattributed_pct": 21, "support_mean": 0.65, "contested_units": 23, "area_ha_p10_p50_p90": "[1910520, 1976000, 1996680]"}, "geometry": {"type": "Polygon", "coordinates": [[[25.09083875871534, 6.687086554619362], [25.19956057553012, 6.687086554619362], [25.19956057553012, 6.6690336449627665], [25.217680878332583, 6.6690336449627665], [25.217680878332583, 6.416360071193019], [25.23580118113505, 6.416360071193019], [25.23580118113505, 6.3983166835330465], [25.217680878332583, 6.3983166835330465], [25.217680878332583, 6.109705615983766], [25.19956057553012, 6.109705615983766], [25.19956057553012, 5.82124596551897], [25.18144027272766, 5.82124596551897], [25.18144027272766, 5.514915272984303], [25.163319969925194, 5.514915272984303], [25.163319969925194, 5.226744740538213], [25.14519966712273, 5.226744740538213], [25.14519966712273, 4.938703215034501], [25.127079364320267, 4.938703215034501], [25.127079364320267, 4.794728561639507], [25.1089590615178, 4.794728561639507], [25.1089590615178, 4.776733825056585], [25.09083875871534, 4.776733825056585], [25.09083875871534, 4.758739548166734], [24.982116941900557, 4.758739548166734], [24.982116941900557, 4.740745729206253], [24.873395125085775, 4.740745729206253], [24.873395125085775, 4.722752366411846], [24.74655300546853, 4.722752366411846], [24.74655300546853, 4.704759458020632], [24.63783118865375, 4.704759458020632], [24.63783118865375, 4.68676700227013], [24.529109371838967, 4.68676700227013], [24.529109371838967, 4.6687749973982715], [24.510989069036505, 4.6687749973982715], [24.510989069036505, 4.776733825056585], [24.49286876623404, 4.776733825056585], [24.49286876623404, 4.6687749973982715], [24.420387555024185, 4.6687749973982715], [24.420387555024185, 4.650783441643385], [24.311665738209406, 4.650783441643385], [24.311665738209406, 4.632792333244202], [24.202943921394624, 4.632792333244202], [24.202943921394624, 4.614801670439857], [24.07610180177738, 4.614801670439857], [24.07610180177738, 4.596811451469884], [23.89489877375274, 4.596811451469884], [23.89489877375274, 4.614801670439857], [23.78617695693796, 4.614801670439857], [23.78617695693796, 4.632792333244202], [23.659334837320714, 4.632792333244202], [23.659334837320714, 4.650783441643385], [23.53249271770347, 4.650783441643385], [23.53249271770347, 4.6687749973982715], [23.47813180929608, 4.6687749973982715], [23.47813180929608, 4.68676700227013], [23.514372414901008, 4.68676700227013], [23.514372414901008, 4.704759458020632], [23.5687333233084, 4.704759458020632], [23.5687333233084, 4.722752366411846], [23.604973928913324, 4.722752366411846], [23.604973928913324, 4.740745729206253], [23.64121453451825, 4.740745729206253], [23.64121453451825, 4.758739548166734], [23.67745514012318, 4.758739548166734], [23.67745514012318, 4.776733825056585], [23.768056654135496, 4.776733825056585], [23.768056654135496, 4.794728561639507], [23.82241756254289, 4.794728561639507], [23.82241756254289, 4.812723759679616], [23.858658168147816, 4.812723759679616], [23.858658168147816, 4.830719420941443], [23.93113937935767, 4.830719420941443], [23.93113937935767, 4.848715547189927], [23.949259682160132, 4.848715547189927], [23.949259682160132, 4.866712140190429], [24.021740893369987, 4.866712140190429], [24.021740893369987, 4.884709201708727], [24.057981498974915, 4.884709201708727], [24.057981498974915, 4.902706733511022], [24.094222104579842, 4.902706733511022], [24.094222104579842, 4.920704737363933], [24.13046271018477, 4.920704737363933], [24.13046271018477, 4.902706733511022], [24.14858301298723, 4.902706733511022], [24.14858301298723, 4.920704737363933], [24.18482361859216, 4.920704737363933], [24.18482361859216, 4.938703215034501], [24.202943921394624, 4.938703215034501], [24.202943921394624, 4.974701598898909], [24.07610180177738, 4.974701598898909], [24.07610180177738, 4.956702168290195], [23.98550028776506, 4.956702168290195], [23.98550028776506, 4.938703215034501], [23.967379984962594, 4.938703215034501], [23.967379984962594, 4.956702168290195], [23.913019076555205, 4.956702168290195], [23.913019076555205, 4.974701598898909], [23.93113937935767, 4.974701598898909], [23.93113937935767, 5.028702772528555], [23.949259682160132, 5.028702772528555], [23.949259682160132, 5.046704130236883], [23.967379984962594, 5.046704130236883], [23.967379984962594, 5.064705974144161], [23.98550028776506, 5.064705974144161], [23.98550028776506, 5.100711127637952], [24.003620590567525, 5.100711127637952], [24.003620590567525, 5.118714440766757], [24.021740893369987, 5.118714440766757], [24.021740893369987, 5.154722548647227], [24.03986119617245, 5.154722548647227], [24.03986119617245, 5.19073264384207], [24.057981498974915, 5.19073264384207], [24.057981498974915, 5.208738441115516], [24.07610180177738, 5.208738441115516], [24.07610180177738, 5.262758852929777], [24.112342407382307, 5.262758852929777], [24.112342407382307, 5.2987749952181336], [24.13046271018477, 5.2987749952181336], [24.13046271018477, 5.334793181611953], [24.14858301298723, 5.334793181611953], [24.14858301298723, 5.370813426327261], [24.18482361859216, 5.370813426327261], [24.18482361859216, 5.388824325000005], [24.221064224197086, 5.388824325000005], [24.221064224197086, 5.424847683868815], [24.23918452699955, 5.424847683868815], [24.23918452699955, 5.532930380816075], [24.311665738209406, 5.532930380816075], [24.311665738209406, 5.604996171582095], [24.329786041011868, 5.604996171582095], [24.329786041011868, 5.641032307600932], [24.366026646616795, 5.641032307600932], [24.366026646616795, 5.659051192015834], [24.38414694941926, 5.659051192015834], [24.38414694941926, 5.677070623081992], [24.402267252221723, 5.677070623081992], [24.402267252221723, 5.695090602585723], [24.420387555024185, 5.695090602585723], [24.420387555024185, 5.713111132313843], [24.43850785782665, 5.713111132313843], [24.43850785782665, 5.731132214053658], [24.456628160629112, 5.731132214053658], [24.456628160629112, 5.749153849592978], [24.474748463431578, 5.749153849592978], [24.474748463431578, 5.767176040720106], [24.49286876623404, 5.767176040720106], [24.49286876623404, 5.785198789223855], [24.510989069036505, 5.785198789223855], [24.510989069036505, 5.839270396890478], [24.529109371838967, 5.839270396890478], [24.529109371838967, 5.857295392798895], [24.547229674641432, 5.857295392798895], [24.547229674641432, 5.8933470853923415], [24.565349977443898, 5.8933470853923415], [24.565349977443898, 5.947428903109589], [24.583470280246356, 5.947428903109589], [24.583470280246356, 6.037576795763397], [24.60159058304882, 6.037576795763397], [24.60159058304882, 6.055608119919961], [24.619710885851287, 6.055608119919961], [24.619710885851287, 6.0736400301437214], [24.63783118865375, 6.0736400301437214], [24.63783118865375, 6.109705615983766], [24.65595149145621, 6.109705615983766], [24.65595149145621, 6.145773567670733], [24.674071794258676, 6.145773567670733], [24.674071794258676, 6.181843899600398], [24.69219209706114, 6.181843899600398], [24.69219209706114, 6.21791662617717], [24.710312399863604, 6.21791662617717], [24.710312399863604, 6.416360071193019], [24.728432702666066, 6.416360071193019], [24.728432702666066, 6.452448714688592], [24.74655300546853, 6.452448714688592], [24.74655300546853, 6.470493974141921], [24.764673308270996, 6.470493974141921], [24.764673308270996, 6.488539861145044], [24.819034216678386, 6.488539861145044], [24.819034216678386, 6.506586377508248], [24.855274822283313, 6.506586377508248], [24.855274822283313, 6.380273916187413], [24.873395125085775, 6.380273916187413], [24.873395125085775, 6.5426813055589035], [24.89151542788824, 6.5426813055589035], [24.89151542788824, 6.5607297208698], [24.909635730690702, 6.5607297208698], [24.909635730690702, 6.578778772787667], [24.94587633629563, 6.578778772787667], [24.94587633629563, 6.59682846312567], [24.982116941900557, 6.59682846312567], [24.982116941900557, 6.614878793697557], [25.018357547505484, 6.614878793697557], [25.018357547505484, 6.632929766317661], [25.036477850307946, 6.632929766317661], [25.036477850307946, 6.5607297208698], [25.054598153110412, 6.5607297208698], [25.054598153110412, 6.650981382800897], [25.072718455912877, 6.650981382800897], [25.072718455912877, 6.6690336449627665], [25.09083875871534, 6.6690336449627665], [25.09083875871534, 6.687086554619362]]]}}, {"type": "Feature", "properties": {"uid": 2, "seed": "core proposal 2", "seed_kind": "optimized", "area_km2": 19296.0, "area_ha": 1929600, "country": "CAF", "in_zones": "[]", "overlaps": "[\"PARK CAF_Chinko 35%\", \"WDPA Chinko (Conservation Area) 35%\"]", "km_to_park": 0.0, "clusters": 17, "population_est": 0, "pop_per_km2": 0.0, "osm_places": 92, "new_since_2015": 0, "camps": 0, "built_km2": 2.77, "built_2000_km2": 0.0, "built_2015_km2": 0.0, "towns": "[]", "fire_det_2024_25": 41257, "fire_per_1000km2_yr": 1069, "fire_nov_feb_share": 0.82, "fronts": 2535, "fronts_per_1000km2": 131.4, "fronts_transhumance_pct": 92, "fronts_long": 474, "fronts_long_per_1000km2": 24.56, "front_dirs": "{\"S\": 358, \"N\": 348, \"SE\": 330}", "front_dirs_all": "{\"S\": 358, \"E\": 326, \"N\": 348, \"W\": 284, \"SW\": 293, \"SE\": 330, \"NE\": 297, \"NW\": 299}", "clearing_events": 116, "clearing_km2": 3.91, "clearing_since_2020_km2": 1.37, "clearing_encroach_slash": 31, "mine_reported": 0, "mine_candidates": 0, "mine_top05_cells": 0, "mine_watchlist": 0, "mining_measured": false, "cropland_2003_pct": 0.0, "cropland_2019_pct": 0.0, "boundary_legibility": 1.0, "built_growth_x": null, "front_axis_coherence": 0.28, "front_axis": "N\u2013S", "rationale": "[\"core\", \"long-front density/1000km2 24.56 >= 88.0: no\", \"transhumance share % 92 >= 50: yes\", \"axis coherence 0.28 >= 0.5: no\", \"people/km2 0.0 <= 2: yes\", \"\\u2014 not a corridor; core?\", \"people/km2 0.0 <= 0.02: yes\", \"cropland 2019 % 0 <= 0.05: yes\", \"clearing since 2020 km2/1000km2 0.071 <= 0.5: yes\", \"reported workings 0 <= 0: yes\"]", "cls": "core", "boundary": "[\"secondary road on the NW/W (118 km)\", \"Mbari on the N/SW (118 km)\", \"Chinko on the E/SE (118 km)\", \"unnamed river (order 4) on the NE/N (108 km)\", \"study-area edge on the S/SW (86 km)\", \"tertiary road on the NW/N (64 km)\"]", "perimeter_km": 950, "unattributed_pct": 23, "support_mean": 0.88, "contested_units": 6, "area_ha_p10_p50_p90": "[1911560, 1931000, 1994160]"}, "geometry": {"type": "Polygon", "coordinates": [[[23.1700866616542, 6.506586377508248], [23.278808478468978, 6.506586377508248], [23.278808478468978, 6.470493974141921], [23.296928781271443, 6.470493974141921], [23.296928781271443, 6.3081090138076465], [23.31504908407391, 6.3081090138076465], [23.31504908407391, 6.199879962657283], [23.296928781271443, 6.199879962657283], [23.296928781271443, 6.181843899600398], [23.278808478468978, 6.181843899600398], [23.278808478468978, 6.145773567670733], [23.296928781271443, 6.145773567670733], [23.296928781271443, 6.091672528232279], [23.278808478468978, 6.091672528232279], [23.278808478468978, 6.055608119919961], [23.296928781271443, 6.055608119919961], [23.296928781271443, 5.983486321728838], [23.33316938687637, 5.983486321728838], [23.33316938687637, 6.001515898464112], [23.369409992481298, 6.001515898464112], [23.369409992481298, 6.019546055876962], [23.387530295283764, 6.019546055876962], [23.387530295283764, 6.037576795763397], [23.405650598086226, 6.037576795763397], [23.405650598086226, 6.055608119919961], [23.423770900888687, 6.055608119919961], [23.423770900888687, 6.091672528232279], [23.496252112098546, 6.091672528232279], [23.496252112098546, 6.0736400301437214], [23.514372414901008, 6.0736400301437214], [23.514372414901008, 6.055608119919961], [23.78617695693796, 6.055608119919961], [23.78617695693796, 6.0736400301437214], [23.876778470950278, 6.0736400301437214], [23.876778470950278, 6.055608119919961], [23.913019076555205, 6.055608119919961], [23.913019076555205, 6.037576795763397], [23.949259682160132, 6.037576795763397], [23.949259682160132, 6.019546055876962], [23.98550028776506, 6.019546055876962], [23.98550028776506, 6.001515898464112], [24.021740893369987, 6.001515898464112], [24.021740893369987, 5.9654573238756505], [24.03986119617245, 5.9654573238756505], [24.03986119617245, 5.947428903109589], [24.057981498974915, 5.947428903109589], [24.057981498974915, 5.911373785661595], [24.07610180177738, 5.911373785661595], [24.07610180177738, 5.875320955035565], [24.094222104579842, 5.875320955035565], [24.094222104579842, 5.857295392798895], [24.13046271018477, 5.857295392798895], [24.13046271018477, 5.839270396890478], [24.14858301298723, 5.839270396890478], [24.14858301298723, 5.82124596551897], [24.23918452699955, 5.82124596551897], [24.23918452699955, 5.785198789223855], [24.257304829802017, 5.785198789223855], [24.257304829802017, 5.749153849592978], [24.275425132604475, 5.749153849592978], [24.275425132604475, 5.731132214053658], [24.29354543540694, 5.731132214053658], [24.29354543540694, 5.713111132313843], [24.275425132604475, 5.713111132313843], [24.275425132604475, 5.695090602585723], [24.29354543540694, 5.695090602585723], [24.29354543540694, 5.659051192015834], [24.311665738209406, 5.659051192015834], [24.311665738209406, 5.641032307600932], [24.329786041011868, 5.641032307600932], [24.329786041011868, 5.604996171582095], [24.311665738209406, 5.604996171582095], [24.311665738209406, 5.532930380816075], [24.23918452699955, 5.532930380816075], [24.23918452699955, 5.424847683868815], [24.221064224197086, 5.424847683868815], [24.221064224197086, 5.388824325000005], [24.18482361859216, 5.388824325000005], [24.18482361859216, 5.370813426327261], [24.14858301298723, 5.370813426327261], [24.14858301298723, 5.334793181611953], [24.13046271018477, 5.334793181611953], [24.13046271018477, 5.2987749952181336], [24.112342407382307, 5.2987749952181336], [24.112342407382307, 5.262758852929777], [24.07610180177738, 5.262758852929777], [24.07610180177738, 5.208738441115516], [24.057981498974915, 5.208738441115516], [24.057981498974915, 5.19073264384207], [24.03986119617245, 5.19073264384207], [24.03986119617245, 5.154722548647227], [24.021740893369987, 5.154722548647227], [24.021740893369987, 5.118714440766757], [24.003620590567525, 5.118714440766757], [24.003620590567525, 5.100711127637952], [23.98550028776506, 5.100711127637952], [23.98550028776506, 5.064705974144161], [23.967379984962594, 5.064705974144161], [23.967379984962594, 5.046704130236883], [23.949259682160132, 5.046704130236883], [23.949259682160132, 5.028702772528555], [23.93113937935767, 5.028702772528555], [23.93113937935767, 4.974701598898909], [23.89489877375274, 4.974701598898909], [23.89489877375274, 4.938703215034501], [23.876778470950278, 4.938703215034501], [23.876778470950278, 4.920704737363933], [23.89489877375274, 4.920704737363933], [23.89489877375274, 4.884709201708727], [23.876778470950278, 4.884709201708727], [23.876778470950278, 4.866712140190429], [23.89489877375274, 4.866712140190429], [23.89489877375274, 4.830719420941443], [23.858658168147816, 4.830719420941443], [23.858658168147816, 4.812723759679616], [23.82241756254289, 4.812723759679616], [23.82241756254289, 4.794728561639507], [23.768056654135496, 4.794728561639507], [23.768056654135496, 4.776733825056585], [23.67745514012318, 4.776733825056585], [23.67745514012318, 4.758739548166734], [23.64121453451825, 4.758739548166734], [23.64121453451825, 4.740745729206253], [23.604973928913324, 4.740745729206253], [23.604973928913324, 4.722752366411846], [23.5687333233084, 4.722752366411846], [23.5687333233084, 4.704759458020632], [23.514372414901008, 4.704759458020632], [23.514372414901008, 4.68676700227013], [23.47813180929608, 4.68676700227013], [23.47813180929608, 4.6687749973982715], [23.423770900888687, 4.6687749973982715], [23.423770900888687, 4.68676700227013], [23.296928781271443, 4.68676700227013], [23.296928781271443, 4.704759458020632], [23.1700866616542, 4.704759458020632], [23.1700866616542, 4.722752366411846], [23.043244542036955, 4.722752366411846], [23.043244542036955, 4.740745729206253], [22.934522725222173, 4.740745729206253], [22.934522725222173, 4.758739548166734], [22.880161816814784, 4.758739548166734], [22.880161816814784, 4.776733825056585], [22.86204151401232, 4.776733825056585], [22.86204151401232, 4.794728561639507], [22.880161816814784, 4.794728561639507], [22.880161816814784, 4.812723759679616], [22.898282119617242, 4.812723759679616], [22.898282119617242, 4.830719420941443], [22.916402422419708, 4.830719420941443], [22.916402422419708, 4.848715547189927], [22.934522725222173, 4.848715547189927], [22.934522725222173, 4.902706733511022], [22.952643028024635, 4.902706733511022], [22.952643028024635, 4.956702168290195], [22.970763330827097, 4.956702168290195], [22.970763330827097, 5.028702772528555], [22.988883633629563, 5.028702772528555], [22.988883633629563, 5.064705974144161], [23.007003936432028, 5.064705974144161], [23.007003936432028, 5.082708306020875], [23.02512423923449, 5.082708306020875], [23.02512423923449, 5.100711127637952], [23.061364844839417, 5.100711127637952], [23.061364844839417, 5.118714440766757], [23.07948514764188, 5.118714440766757], [23.07948514764188, 5.136718247179099], [23.09760545044434, 5.136718247179099], [23.09760545044434, 5.172727346943836], [23.115725753246807, 5.172727346943836], [23.115725753246807, 5.19073264384207], [23.133846056049272, 5.19073264384207], [23.133846056049272, 5.208738441115516], [23.151966358851734, 5.208738441115516], [23.151966358851734, 5.226744740538213], [23.188206964456665, 5.226744740538213], [23.188206964456665, 5.244751543884652], [23.206327267259123, 5.244751543884652], [23.206327267259123, 5.316783832013532], [23.22444757006159, 5.316783832013532], [23.22444757006159, 5.334793181611953], [23.242567872864054, 5.334793181611953], [23.242567872864054, 5.370813426327261], [23.260688175666516, 5.370813426327261], [23.260688175666516, 5.388824325000005], [23.278808478468978, 5.388824325000005], [23.278808478468978, 5.424847683868815], [23.296928781271443, 5.424847683868815], [23.296928781271443, 5.4608731366317045], [23.31504908407391, 5.4608731366317045], [23.31504908407391, 5.496900697530866], [23.33316938687637, 5.496900697530866], [23.33316938687637, 5.532930380816075], [23.351289689678833, 5.532930380816075], [23.351289689678833, 5.5869789164079835], [23.387530295283764, 5.5869789164079835], [23.387530295283764, 5.604996171582095], [23.405650598086226, 5.604996171582095], [23.405650598086226, 5.623013968051463], [23.423770900888687, 5.623013968051463], [23.423770900888687, 5.677070623081992], [23.351289689678833, 5.677070623081992], [23.351289689678833, 5.659051192015834], [23.33316938687637, 5.659051192015834], [23.33316938687637, 5.623013968051463], [23.260688175666516, 5.623013968051463], [23.260688175666516, 5.641032307600932], [23.242567872864054, 5.641032307600932], [23.242567872864054, 5.677070623081992], [23.188206964456665, 5.677070623081992], [23.188206964456665, 5.641032307600932], [23.1700866616542, 5.641032307600932], [23.1700866616542, 5.623013968051463], [23.133846056049272, 5.623013968051463], [23.133846056049272, 5.641032307600932], [23.007003936432028, 5.641032307600932], [23.007003936432028, 5.659051192015834], [22.934522725222173, 5.659051192015834], [22.934522725222173, 5.677070623081992], [22.880161816814784, 5.677070623081992], [22.880161816814784, 5.695090602585723], [22.77144, 5.695090602585723], [22.77144, 5.9654573238756505], [22.807680605604926, 5.9654573238756505], [22.807680605604926, 5.983486321728838], [22.82580090840739, 5.983486321728838], [22.82580090840739, 6.019546055876962], [22.843921211209853, 6.019546055876962], [22.843921211209853, 6.127739295196852], [22.86204151401232, 6.127739295196852], [22.86204151401232, 6.145773567670733], [22.843921211209853, 6.145773567670733], [22.843921211209853, 6.181843899600398], [22.82580090840739, 6.181843899600398], [22.82580090840739, 6.29006932093315], [22.843921211209853, 6.29006932093315], [22.843921211209853, 6.362231767348663], [22.82580090840739, 6.362231767348663], [22.82580090840739, 6.452448714688592], [22.934522725222173, 6.452448714688592], [22.934522725222173, 6.434404080975341], [22.952643028024635, 6.434404080975341], [22.952643028024635, 6.416360071193019], [22.988883633629563, 6.416360071193019], [22.988883633629563, 6.3983166835330465], [23.043244542036955, 6.3983166835330465], [23.043244542036955, 6.416360071193019], [23.061364844839417, 6.416360071193019], [23.061364844839417, 6.434404080975341], [23.09760545044434, 6.434404080975341], [23.09760545044434, 6.452448714688592], [23.133846056049272, 6.452448714688592], [23.133846056049272, 6.470493974141921], [23.151966358851734, 6.470493974141921], [23.151966358851734, 6.488539861145044], [23.1700866616542, 6.488539861145044], [23.1700866616542, 6.506586377508248]]]}}]}