{"type":"FeatureCollection","features":[
{"type":"Feature","geometry":{"type":"LineString","coordinates":[[19.9991996,-25.7647127],[19.9995303,-25.7647719],[19.9997492,-25.7648939],[20.0000894,-25.7651228],[20.0008766,-25.7657354],[20.0025015,-25.7669998],[20.0030564,-25.7673048],[20.0044076,-25.7680537],[20.0052925,-25.768866],[20.0060818,-25.7698556],[20.00653,-25.7707582],[20.0067448,-25.7717831],[20.0067005,-25.7728425],[20.0065612,-25.7736996],[20.0062695,-25.7748713],[20.0060755,-25.7754679],[20.0056021,-25.7768047],[20.0054901,-25.7781643],[20.0057166,-25.7794508],[20.0060794,-25.7806251],[20.0065458,-25.7814641],[20.0074456,-25.7823749],[20.0086432,-25.7830936],[20.0114919,-25.784382],[20.014284,-25.7856233],[20.0190965,-25.7887884],[20.021644,-25.790180200000003],[20.0226337,-25.7905934],[20.0231123,-25.7907228],[20.0255551,-25.7907754],[20.0264889,-25.7907508],[20.0290183,-25.7906004],[20.0319875,-25.7904974],[20.0330061,-25.790534],[20.0337581,-25.7906852],[20.0345481,-25.7909731],[20.0351956,-25.7914478],[20.0357519,-25.7921372],[20.0363006,-25.7932123],[20.0367576,-25.7942702],[20.0367811,-25.7954629],[20.0367482,-25.7965257],[20.036388,-25.7976743],[20.0353431,-25.7997614],[20.0347987,-25.8012946],[20.0346651,-25.8021626],[20.0345858,-25.803125],[20.0345782,-25.803852],[20.0347799,-25.8047032],[20.0353808,-25.8056029],[20.036394,-25.8065344],[20.0381407,-25.8080067],[20.0397295,-25.8092903],[20.0405321,-25.8100731],[20.0413413,-25.8111374],[20.0423703,-25.8127521],[20.0435664,-25.814712],[20.0450444,-25.8168405],[20.0472186,-25.8192203],[20.0486107,-25.8205426],[20.0503542,-25.8216988],[20.0514941,-25.8223891],[20.0524344,-25.8226715],[20.0526856,-25.8226902],[20.0533076,-25.8227366],[20.0542183,-25.8225966],[20.0552408,-25.8223946],[20.0563921,-25.8220005],[20.0575529,-25.8213541],[20.0587375,-25.8207096],[20.059746,-25.8201555],[20.0603774,-25.819974],[20.0612566,-25.8199985],[20.0619913,-25.820234],[20.0627926,-25.8207246],[20.0632096,-25.8213032],[20.0634943,-25.8219929],[20.0636621,-25.8226571],[20.0636499,-25.8235619],[20.0636839,-25.8247896],[20.06375,-25.82585],[20.0636772,-25.8271942],[20.06343,-25.82801],[20.0625924,-25.83019],[20.0613314,-25.8335608],[20.0607735,-25.8353575],[20.0599149,-25.8371945],[20.0591827,-25.8391629],[20.0586936,-25.8411561],[20.0581838,-25.8431782],[20.0579322,-25.8449011],[20.0580439,-25.8474056],[20.058319,-25.84874],[20.0588065,-25.8495548],[20.0598265,-25.850707],[20.0615054,-25.8518912],[20.062513,-25.8522117],[20.0647174,-25.852637],[20.0666851,-25.8527544],[20.0685233,-25.8526875],[20.0711927,-25.8524865],[20.0744751,-25.8521387],[20.0769736,-25.8516312],[20.0783512,-25.8512924],[20.0801632,-25.8510301],[20.08199,-25.85072],[20.0829961,-25.8504776],[20.0847333,-25.8501726],[20.0860744,-25.8500797],[20.0875841,-25.8501286],[20.0884211,-25.8503017],[20.08986,-25.85087],[20.09059,-25.85129],[20.09096,-25.85163],[20.0915156,-25.8526298],[20.0920741,-25.8540921],[20.0927047,-25.8554745],[20.0934698,-25.8572979],[20.0943103,-25.8596174],[20.0948879,-25.861162],[20.0957146,-25.8622595],[20.0967114,-25.8631606],[20.0983943,-25.8640497],[20.1004493,-25.8647968],[20.1013588,-25.865074],[20.1024815,-25.8656187],[20.1026985,-25.865724],[20.1034203,-25.8661232],[20.1039801,-25.8665172],[20.104276,-25.86673],[20.1055944,-25.8680411],[20.1073292,-25.8698543],[20.1086876,-25.8710611],[20.10958,-25.87157],[20.111298,-25.8727435],[20.1126136,-25.8731783],[20.1132619,-25.8733057],[20.1139238,-25.8733868],[20.11558,-25.8734141],[20.11762,-25.8734],[20.11828,-25.87339],[20.1198816,-25.8733763],[20.12164,-25.8736],[20.12267,-25.8737],[20.12316,-25.8738],[20.12352,-25.87389],[20.1242,-25.87421],[20.12457,-25.87447],[20.12484,-25.87468],[20.12537,-25.87519],[20.12568,-25.87558],[20.12602,-25.87621],[20.12628,-25.87691],[20.1261957,-25.8773363],[20.126743,-25.8789716],[20.1273033,-25.8807364],[20.1281644,-25.8827147],[20.1289425,-25.8840767],[20.129457,-25.8848163],[20.13055,-25.88592],[20.13224,-25.88724],[20.13404,-25.88845],[20.13553,-25.88929],[20.13664,-25.88981],[20.1382765,-25.8905531],[20.1397941,-25.8911052],[20.14147,-25.89191],[20.14328,-25.89271],[20.144135,-25.8930684],[20.1442731,-25.8931214],[20.1475747,-25.8943898],[20.1493963,-25.8952203],[20.1511062,-25.8960945],[20.1522377,-25.8967304],[20.1528669,-25.8973192],[20.1532667,-25.8979253],[20.153422,-25.8984432],[20.1538103,-25.8994624],[20.1541968,-25.9003621],[20.1546114,-25.9012132],[20.1550481,-25.9018498],[20.1554859,-25.9022672],[20.1560937,-25.9025225],[20.1567443,-25.9026504],[20.1576591,-25.9026714],[20.1589223,-25.9024488],[20.1598512,-25.9023571],[20.1606933,-25.9023656],[20.1613906,-25.9024414],[20.1619395,-25.9025815],[20.1624114,-25.9028384],[20.1627,-25.90313],[20.16298,-25.90371],[20.1632484,-25.9047058],[20.16339,-25.90548],[20.16349,-25.90653],[20.1635555,-25.9073604],[20.1635432,-25.9079704],[20.1635738,-25.9080878],[20.1636621,-25.9086166],[20.16406,-25.90934],[20.1646755,-25.9109668],[20.1655355,-25.9127989],[20.166417,-25.9150374],[20.1677117,-25.9174943],[20.1692141,-25.9197417],[20.170465,-25.9214292],[20.1716202,-25.9226468],[20.1723199,-25.9232208],[20.1734423,-25.9239526],[20.17446,-25.9244],[20.175218,-25.9246853],[20.1765,-25.92505],[20.17741,-25.92524],[20.1783159,-25.9253489],[20.1790892,-25.9253455],[20.1797743,-25.9252643],[20.1807853,-25.9249543],[20.1821828,-25.9243556],[20.1842104,-25.9237404],[20.18446,-25.92366],[20.18491,-25.9235],[20.1855,-25.92325],[20.18594,-25.92303],[20.18626,-25.9229],[20.18697,-25.92254],[20.188110000000003,-25.92214],[20.18888,-25.922],[20.18912,-25.92197],[20.18938,-25.92195],[20.18977,-25.92194],[20.19029,-25.92187],[20.19068,-25.92189],[20.19121,-25.92194],[20.19204,-25.92206],[20.19206,-25.92208],[20.19245,-25.92222],[20.19285,-25.92239],[20.19323,-25.92258],[20.19349,-25.92268],[20.19383,-25.92286],[20.19536,-25.92387],[20.1961,-25.92451],[20.19658,-25.92499],[20.19729,-25.92574],[20.1975,-25.92593],[20.1978,-25.92629],[20.19796,-25.92652],[20.1981,-25.92678],[20.19899,-25.92786],[20.20001,-25.92882],[20.20042,-25.92934],[20.20043,-25.92937],[20.20061,-25.92958],[20.20151,-25.93052],[20.20221,-25.93118],[20.20268,-25.93176],[20.20296,-25.93207],[20.20348,-25.9326],[20.20377,-25.9328],[20.20459,-25.93342],[20.20521,-25.93408],[20.20541,-25.93425],[20.20563,-25.93454],[20.20635,-25.93527],[20.20664,-25.93559],[20.20705,-25.93587],[20.20836,-25.93696],[20.20946,-25.93782],[20.2097,-25.93803],[20.21011,-25.93835],[20.2104,-25.93855],[20.21078,-25.93876],[20.2113,-25.93911],[20.21154,-25.9393],[20.21242,-25.93987],[20.21271,-25.94011],[20.21343,-25.94062],[20.2139,-25.94107],[20.2142,-25.94139],[20.21454,-25.9418],[20.21485,-25.94212],[20.21519,-25.94252],[20.21541,-25.94274],[20.21628,-25.94381],[20.21652,-25.94418],[20.21671,-25.94453],[20.21686,-25.94489],[20.21696,-25.94517],[20.21718,-25.94595],[20.21731,-25.94655],[20.21739,-25.94741],[20.21748,-25.9481],[20.21749,-25.94848],[20.21763,-25.94974],[20.21766,-25.95019],[20.2179,-25.95179],[20.21792,-25.95218],[20.21797,-25.95265],[20.2181055,-25.9539719],[20.2182044,-25.95482],[20.21828,-25.95512],[20.21842,-25.9557],[20.21868,-25.95656],[20.21889,-25.95715],[20.2191,-25.95761],[20.21938,-25.95807],[20.2201584,-25.9588804],[20.2217421,-25.9604027],[20.2242494,-25.9621394],[20.2262848,-25.9632996],[20.2275349,-25.9638675],[20.2289541,-25.9643558],[20.2304159,-25.9647039],[20.2315911,-25.9649011],[20.2327744,-25.9649177],[20.2342017,-25.9647851],[20.2366156,-25.9644196],[20.2382365,-25.9640162],[20.2424659,-25.9631071],[20.2450365,-25.9625601],[20.2473215,-25.9620906],[20.2483473,-25.9619575],[20.2507193,-25.9617551],[20.2519597,-25.9618043],[20.2527785,-25.9619202],[20.2537815,-25.9621915],[20.25472,-25.96258],[20.256156,-25.9633455],[20.25794,-25.96433],[20.26038,-25.96574],[20.26147,-25.96631],[20.26276,-25.96705],[20.26416,-25.96798],[20.26494,-25.96842],[20.266066,-25.9688737],[20.2673046,-25.9694481],[20.2692204,-25.9698937],[20.2702104,-25.970129],[20.2704089,-25.9701194],[20.2714965,-25.9701196],[20.272468,-25.9700862],[20.2735849,-25.969929],[20.2747317,-25.9699649],[20.2754975,-25.9700664],[20.2765214,-25.9703],[20.2774609,-25.9706039],[20.2782524,-25.9710014],[20.2790101,-25.9715213],[20.2795658,-25.9721313],[20.2800656,-25.9728873],[20.2808014,-25.9744096],[20.2817522,-25.9760074],[20.2819315,-25.9763073],[20.282063,-25.9765274],[20.2827522,-25.9777863],[20.2834646,-25.9786642],[20.2844651,-25.9795937],[20.2856968,-25.9805189],[20.28656,-25.98101],[20.2871,-25.98128],[20.2881451,-25.9817421],[20.2895184,-25.9821653],[20.2902578,-25.9823095],[20.2912376,-25.98243],[20.2937876,-25.9823553],[20.295929,-25.9825237],[20.2972371,-25.9827037],[20.2983746,-25.9828916],[20.2993545,-25.9830974],[20.3006062,-25.9836047],[20.3016054,-25.9841868],[20.30203,-25.98448],[20.3026424,-25.9850311],[20.3056449,-25.9882174],[20.30715,-25.98945],[20.308528,-25.99043],[20.31188,-25.99232],[20.31442,-25.9936337],[20.3176562,-25.9955337],[20.31896,-25.99637],[20.32001,-25.99695],[20.3233197,-25.9988226],[20.3249119,-25.9997279],[20.3260216,-26.00012],[20.3273486,-26.0005416],[20.3289758,-26.0008205],[20.3298914,-26.0008479],[20.3308481,-26.0007852],[20.3317795,-26.0005358],[20.3328173,-26.0001047],[20.3336743,-25.9996669],[20.3354528,-25.9982741],[20.3378166,-25.9966078],[20.3390421,-25.9959481],[20.340272,-25.9954088],[20.341062,-25.9952088],[20.3415217,-25.9951231],[20.3421702,-25.9950752],[20.343052,-25.9951188],[20.343772,-25.9952088],[20.344522,-25.9954588],[20.345532,-25.9959088],[20.346482,-25.9965288],[20.346882,-25.9970288],[20.347152,-25.9974188],[20.347432,-25.9981588],[20.3476519,-25.9993692],[20.3477213,-26.0001168],[20.3476972,-26.000698],[20.3476849,-26.0010607],[20.346612,-26.0059734],[20.3465822,-26.0071225],[20.3466522,-26.0077246],[20.3468861,-26.008569],[20.346902,-26.0086264],[20.3473517,-26.0094664],[20.3480304,-26.0100446],[20.3488906,-26.0107725],[20.3498305,-26.0113847],[20.3512908,-26.0121093],[20.3522092,-26.0124307],[20.3536009,-26.0127061],[20.3546003,-26.012775],[20.3570401,-26.0125678],[20.3589102,-26.0124269],[20.3600992,-26.0121642],[20.3625387,-26.0117064],[20.3634488,-26.0115958],[20.3653203,-26.0115932],[20.36611,-26.01157],[20.3667032,-26.0113863],[20.3672211,-26.01107],[20.3674731,-26.0109427],[20.3679719,-26.0108364],[20.3696762,-26.0107206],[20.3708223,-26.0107332],[20.3718068,-26.0108864],[20.3726673,-26.011149],[20.3740573,-26.0118111],[20.3763069,-26.0130149],[20.3776831,-26.0135622],[20.3787536,-26.0138759],[20.3795715,-26.0140316],[20.3805674,-26.0140511],[20.3814423,-26.0139332],[20.3825041,-26.0137048],[20.3849028,-26.0130395],[20.3897234,-26.0116822],[20.3931725,-26.0104144],[20.3946128,-26.0100225],[20.3956794,-26.0098773],[20.3968985,-26.0098761],[20.3980776,-26.010192],[20.3991267,-26.0108201],[20.3998667,-26.0116021],[20.40053,-26.01285],[20.4011393,-26.0141237],[20.4012256,-26.0143041],[20.4015797,-26.0160826],[20.4022718,-26.0181876],[20.4030896,-26.0202804],[20.4037939,-26.0217635],[20.404095,-26.0224192],[20.4041156,-26.0224642],[20.4056678,-26.0258447],[20.40638,-26.0274818],[20.407009,-26.0285777],[20.4083286,-26.0300734],[20.4090228,-26.030681],[20.4097865,-26.0314574],[20.4109078,-26.0321826],[20.4111174,-26.0322549],[20.4117025,-26.0324566],[20.4169823,-26.0337205],[20.4214007,-26.0348558],[20.4228029,-26.0354634],[20.4255661,-26.0370191],[20.4271454,-26.0381502],[20.4281107,-26.0391976],[20.42931,-26.0407374],[20.4302992,-26.0424083],[20.4310005,-26.0442254],[20.4317648,-26.0457807],[20.4328141,-26.0471899],[20.4346305,-26.0488043],[20.4366366,-26.0503159],[20.4391862,-26.052182],[20.4406607,-26.0535253],[20.4418595,-26.0545895],[20.444346,-26.0573962],[20.4459465,-26.0592524],[20.4467105,-26.0599902],[20.4484047,-26.0614861],[20.4496201,-26.062562],[20.4519836,-26.0647359],[20.454531,-26.0670094],[20.4559317,-26.0686864],[20.4572149,-26.0704598],[20.4591005,-26.0729664],[20.46091,-26.07476],[20.46321,-26.07687],[20.46572,-26.07888],[20.4667435,-26.0799632],[20.46787,-26.08144],[20.46981,-26.08469],[20.47056,-26.08582],[20.47207,-26.0876],[20.47297,-26.0887],[20.4747682,-26.0911349],[20.4759759,-26.0930335],[20.4775266,-26.0958497],[20.47891,-26.09806],[20.4810119,-26.1011649],[20.48307,-26.10362],[20.48547,-26.10571],[20.4864,-26.10658],[20.4882318,-26.1082246],[20.4905,-26.11047],[20.49294,-26.11289],[20.4959264,-26.115987],[20.49857,-26.11793],[20.5054256,-26.1220099],[20.5072715,-26.1231889],[20.5100066,-26.1250629],[20.5109,-26.12573],[20.5119561,-26.1266265],[20.5136044,-26.1284838],[20.51586,-26.13081],[20.5181136,-26.1328675],[20.5196673,-26.1349121],[20.5201762,-26.1357365],[20.5207841,-26.1369072],[20.5214738,-26.1395079],[20.5221289,-26.1428499],[20.5225122,-26.1449066],[20.5229983,-26.1460722],[20.5242946,-26.1481369],[20.525659,-26.1494903],[20.5275217,-26.1508944],[20.5290617,-26.15222],[20.5292569,-26.1523881],[20.53056,-26.15372],[20.5311,-26.15441],[20.53143,-26.15512],[20.53165,-26.15583],[20.53174,-26.15621],[20.53196,-26.15688],[20.53214,-26.15759],[20.53235,-26.15806],[20.53239,-26.1582],[20.53295,-26.1592],[20.53352,-26.15983],[20.53387,-26.1601],[20.53515,-26.16063],[20.53548,-26.16082],[20.53676,-26.16141],[20.53746,-26.16171],[20.53795,-26.16201],[20.53841,-26.16223],[20.53906,-26.16259],[20.53952,-26.16292],[20.53991,-26.16333],[20.54084,-26.16439],[20.54108,-26.16475],[20.54132,-26.16518],[20.5416,-26.16578],[20.54187,-26.16648],[20.5418054,-26.1673415],[20.5427539,-26.171727],[20.5430231,-26.1729715],[20.5437019,-26.1755094],[20.5441336,-26.1780151],[20.5441788,-26.178838],[20.5445875,-26.1806143],[20.5446858,-26.1821539],[20.5447967,-26.1840599],[20.5448309,-26.184202],[20.5450553,-26.1851354],[20.5457687,-26.1872845],[20.54643,-26.18822],[20.5471357,-26.1892494],[20.54883,-26.19135],[20.5502948,-26.1931207],[20.5514275,-26.1947046],[20.5527219,-26.196991],[20.5535794,-26.1985962],[20.5555726,-26.2021724],[20.5571069,-26.2048198],[20.5586094,-26.2074121],[20.5604227,-26.2110352],[20.5610808,-26.2130044],[20.5617491,-26.2151678],[20.5620438,-26.2164838],[20.5623228,-26.2193021],[20.5624215,-26.2244443],[20.5624292,-26.2270875],[20.5626151,-26.2286323],[20.563077,-26.2305705],[20.5635906,-26.2317465],[20.5645785,-26.2334469],[20.5653594,-26.2344751],[20.5662773,-26.2353254],[20.5673886,-26.2360963],[20.5714788,-26.238307],[20.5723213,-26.2389928],[20.57302,-26.23973],[20.57361,-26.2404],[20.57373,-26.24059],[20.57406,-26.24132],[20.5742827,-26.2423265],[20.5743427,-26.2429365],[20.5741497,-26.2466681],[20.574442,-26.2485906],[20.5747027,-26.2503562],[20.57554,-26.2532],[20.57591,-26.2542],[20.5762677,-26.2562772],[20.57689,-26.26153],[20.57755,-26.26639],[20.57764,-26.26843],[20.57788,-26.27007],[20.57937,-26.27577],[20.5802459,-26.279703],[20.5805133,-26.28075],[20.58064,-26.28154],[20.58146,-26.28419],[20.58192,-26.28591],[20.5831178,-26.2896338],[20.583518,-26.2915884],[20.5839727,-26.2949374],[20.5837327,-26.2977223],[20.58349,-26.29935],[20.58322,-26.30122],[20.5828225,-26.3059341],[20.58284,-26.30745],[20.5826564,-26.3098752],[20.5825983,-26.3109751],[20.5828845,-26.3121438],[20.58307,-26.31279],[20.5838697,-26.3157447],[20.58572,-26.31933],[20.5878244,-26.3241094],[20.5895762,-26.3283939],[20.590017,-26.3298739],[20.5909117,-26.3334676],[20.5911764,-26.3353793],[20.5912352,-26.3358036],[20.59151,-26.33875],[20.5918795,-26.3403364],[20.59332,-26.34562],[20.5945285,-26.3501609],[20.5954868,-26.353882],[20.5965646,-26.3582035],[20.5978941,-26.3621591],[20.6001127,-26.3680032],[20.6020283,-26.3712823],[20.6034945,-26.37367],[20.6042066,-26.375308],[20.6052731,-26.3779488],[20.6058582,-26.3796948],[20.6068965,-26.3820383],[20.6077199,-26.3844673],[20.6098,-26.38876],[20.6101984,-26.3903487],[20.6116792,-26.3948141],[20.6120852,-26.3966145],[20.6121601,-26.3992793],[20.6118671,-26.4032422],[20.6119414,-26.405643],[20.6121101,-26.4065133],[20.6127705,-26.4090435],[20.613804,-26.4111908],[20.6150711,-26.4151154],[20.617221,-26.4192904],[20.620433,-26.4262823],[20.6244448,-26.432711],[20.6250677,-26.4341887],[20.6254768,-26.4348356],[20.6255299,-26.4350001],[20.625577,-26.4356153]]},"properties":{"admin_level":"8","intermittent":"yes","name":"Auob","tidal":"no","waterway":"river"}},
{"type":"Feature","geometry":{"type":"LineString","coordinates":[[21.8389294,-26.6648547],[21.8387282,-26.664766],[21.8383822,-26.6643489],[21.8371591,-26.6635268],[21.8355766,-26.6623067],[21.8321943,-26.6602932],[21.8303651,-26.6595022],[21.8262935,-26.6592049],[21.8245393,-26.6592625],[21.8234825,-26.6595741],[21.8225223,-26.6601494],[21.8184829,-26.6626327],[21.809932,-26.6688168],[21.8083495,-26.6698474],[21.8072337,-26.6702836],[21.7960864,-26.6722011],[21.7948043,-26.6724168],[21.7934954,-26.6729585],[21.7871708,-26.6757147],[21.7832547,-26.6789071],[21.7795962,-26.6820754],[21.777944,-26.6834175],[21.7733681,-26.6874053],[21.7709863,-26.6900031],[21.7705572,-26.6923563],[21.7695808,-26.6949348],[21.7692912,-26.6976666],[21.7693984,-26.6994781],[21.7706859,-26.7036187],[21.771276,-26.7043184],[21.7745376,-26.7075387],[21.7792261,-26.7117844],[21.7833996,-26.71534],[21.7849338,-26.7173621],[21.7862964,-26.7193746],[21.7870688,-26.7221537],[21.786747,-26.7242523],[21.7866826,-26.7284974],[21.7860281,-26.7337102],[21.785481,-26.7388172],[21.7845905,-26.7440295],[21.7844188,-26.7484942],[21.7845476,-26.7501996],[21.7854595,-26.7533132],[21.7871654,-26.7579117],[21.7899603,-26.7632141],[21.7917949,-26.7673907],[21.7927337,-26.7697232],[21.7929482,-26.7710451],[21.7921489,-26.7742444],[21.7917949,-26.7753219],[21.7911243,-26.7769407],[21.7902982,-26.7779943],[21.7886299,-26.7800057],[21.7863125,-26.7819453],[21.7845046,-26.7835975],[21.7834586,-26.7851491],[21.7828846,-26.7876536],[21.7823911,-26.7899761],[21.7821604,-26.7937926],[21.782096,-26.7992944],[21.7816722,-26.8007165],[21.780653,-26.8018034],[21.7801595,-26.8019997],[21.7791778,-26.8020332],[21.7763132,-26.8016741],[21.7754602,-26.8017172],[21.7737544,-26.8021721],[21.7724991,-26.8027514],[21.7715442,-26.8033739],[21.7699134,-26.8052125],[21.7655253,-26.8100339],[21.763621,-26.8119633],[21.7605472,-26.814113],[21.7529887,-26.8185558],[21.7477798,-26.8212607],[21.7435044,-26.8236112],[21.7393684,-26.8262729],[21.7348784,-26.829485],[21.7303133,-26.8331373],[21.7272824,-26.8358371],[21.7211294,-26.8412268],[21.7168593,-26.8445916],[21.7115968,-26.8486934],[21.7088342,-26.8510434],[21.7042154,-26.8557384],[21.7025471,-26.8572938],[21.7007124,-26.8583036],[21.6960132,-26.8602896],[21.6946453,-26.8605528],[21.6936958,-26.860505],[21.6914186,-26.8598302],[21.6906971,-26.8594856],[21.6861856,-26.856226499999999],[21.6853327,-26.8556522],[21.6839701,-26.8550971],[21.6799736,-26.8538336],[21.6781282,-26.8535656],[21.6770768,-26.8535512],[21.6760844,-26.8537618],[21.6743195,-26.8545276],[21.6736543,-26.8549774],[21.6732413,-26.8555039],[21.670838,-26.8588922],[21.6697544,-26.8599594],[21.6679895,-26.861376],[21.6652214,-26.8636347],[21.6630113,-26.8647258],[21.6569281,-26.8651948],[21.6540205,-26.8647258],[21.649332,-26.8636635],[21.6435707,-26.8637113],[21.641221,-26.8640654],[21.6350305,-26.8657595],[21.6293764,-26.8665347],[21.62516,-26.8660753],[21.6217375,-26.864142],[21.6169256,-26.8601556],[21.6076183,-26.8502967],[21.6047269,-26.8462764],[21.6026562,-26.8450415],[21.5989923,-26.8432849],[21.5950119,-26.841916],[21.5907687,-26.8411215],[21.5856135,-26.8402886],[21.5804905,-26.8402599],[21.5767246,-26.8401929],[21.5753353,-26.8404083],[21.5732485,-26.841691],[21.5698045,-26.8443858],[21.5662265,-26.8468028],[21.5638822,-26.8484302],[21.5618384,-26.8495836],[21.5607172,-26.8500909],[21.5580404,-26.8498421],[21.5566027,-26.8495262],[21.552633,-26.846688],[21.5489852,-26.8440794],[21.5449941,-26.8431174],[21.5423065,-26.8430791],[21.5410459,-26.8431509],[21.5397263,-26.8444097],[21.5386909,-26.8463864],[21.5353703,-26.8530487],[21.5337074,-26.8558102],[21.5310305,-26.8588396],[21.5284449,-26.8603327],[21.5253282,-26.8613999],[21.5219647,-26.8608543],[21.5177375,-26.8596101],[21.5094119,-26.8564706],[21.5047073,-26.8541303],[21.4979482,-26.8504547],[21.4944345,-26.8482387],[21.494,-26.847875],[21.4912748,-26.8450176],[21.4902073,-26.8441177],[21.4863449,-26.8416049],[21.4835179,-26.8407529],[21.4806104,-26.8401067],[21.4740926,-26.8401163],[21.4700961,-26.8405902],[21.4669043,-26.840705],[21.4630794,-26.8407242],[21.461041,-26.8404896],[21.4593673,-26.8399823],[21.4567172,-26.8381538],[21.4533269,-26.8359424],[21.4495075,-26.8312513],[21.4449048,-26.8288866],[21.439755,-26.8272494],[21.4337575,-26.8270388],[21.4286935,-26.8259569],[21.4139736,-26.8230176],[21.4058089,-26.8224144],[21.4011633,-26.8226825],[21.39552,-26.8238314],[21.3881814,-26.8255165],[21.3819158,-26.8286281],[21.3753605,-26.8308684],[21.373043,-26.8303418],[21.3660478,-26.8303418],[21.3630438,-26.8301312],[21.3582909,-26.8295759],[21.3445258,-26.8257463],[21.3402531,-26.8252412],[21.3368654,-26.8251742],[21.3345507,-26.8254734],[21.3326678,-26.825921],[21.3309646,-26.8265864],[21.3297924,-26.8273859],[21.3286015,-26.8284558],[21.3279793,-26.8293892],[21.3248464,-26.833257],[21.3236475,-26.8344202],[21.3216761,-26.8370098],[21.3196617,-26.8391255],[21.3136482,-26.8437348],[21.310038,-26.845702],[21.304011,-26.8480903],[21.3026753,-26.8486168],[21.2999609,-26.8490452],[21.2979814,-26.8495118],[21.2956667,-26.8494879],[21.2931186,-26.8494831],[21.2892455,-26.8491959],[21.2880921,-26.8489183],[21.2850076,-26.8473533],[21.2820518,-26.8452377],[21.2741071,-26.8387952],[21.2695205,-26.8375603],[21.2668061,-26.8375124],[21.2657091,-26.8375459],[21.2646116,-26.8376755],[21.259135,-26.8389723],[21.255734,-26.840413],[21.2501228,-26.844807],[21.2487173,-26.8456781],[21.24699,-26.8460227],[21.2448656,-26.846329],[21.2427199,-26.846262],[21.2408101,-26.8461471],[21.2363577,-26.845008],[21.2324068,-26.8440507],[21.2305883,-26.8438353],[21.2284666,-26.8435721],[21.2258702,-26.8435003],[21.222614,-26.8440603],[21.2185585,-26.8452856],[21.2129474,-26.8471427],[21.2099326,-26.8477529],[21.2090195,-26.8480486],[21.2061828,-26.848557],[21.2047775,-26.8488855],[21.1994773,-26.8500574],[21.1977285,-26.8508088],[21.196022,-26.8516253],[21.1959022,-26.8516929],[21.193968,-26.8527711],[21.1914897,-26.8543026],[21.1832392,-26.8621895],[21.1792347,-26.8652618],[21.1771774,-26.8667261],[21.169678,-26.8688126],[21.1690128,-26.8688891],[21.1623609,-26.8678651],[21.1611646,-26.867633],[21.1563742,-26.8674487],[21.15473,-26.8674918],[21.1358285,-26.8739614],[21.1316121,-26.873971],[21.125958,-26.8715689],[21.1228466,-26.8692337],[21.1160231,-26.8604954],[21.1148483,-26.8596172],[21.1134106,-26.8590047],[21.1097574,-26.857892],[21.0987711,-26.857088],[21.0926127,-26.8554034],[21.0825276,-26.8498229],[21.0779571,-26.8486647],[21.0715198,-26.8486838],[21.0618746,-26.8518331],[21.0599756,-26.8520819],[21.0438394,-26.847583],[21.0413289,-26.8471235],[21.0330248,-26.8470852],[21.0285401,-26.8479276],[21.0178113,-26.8483105],[21.0109019,-26.8470278],[21.006782,-26.845209],[20.9851956,-26.8263686],[20.982449,-26.8228644],[20.9805393,-26.8180579],[20.9770632,-26.8114319],[20.9726,-26.8081953],[20.9677291,-26.8067015],[20.9622574,-26.8070654],[20.9552622,-26.8115276],[20.9486532,-26.8145151],[20.9465289,-26.814496],[20.9427309,-26.8135576],[20.9346843,-26.8100722],[20.9170246,-26.8019135],[20.9084844,-26.7977765],[20.8991718,-26.7967614],[20.8917475,-26.7974317],[20.8856106,-26.7975466],[20.8698392,-26.8055907],[20.8530807,-26.8154726],[20.8500552,-26.8170813],[20.8443904,-26.8190154],[20.8426523,-26.8189771],[20.8298421,-26.818258],[20.828845,-26.818202],[20.8276319,-26.8181919],[20.8262367,-26.8182662],[20.8251836,-26.8184134],[20.8239442,-26.818664],[20.8227181,-26.8189771],[20.8214552,-26.819323],[20.8205816,-26.8196814],[20.8201567,-26.8199531],[20.8197127,-26.8204133],[20.819295,-26.8209203],[20.818973,-26.82136],[20.8186817,-26.8218298],[20.8184695,-26.8223857],[20.8182664,-26.823453],[20.818124,-26.8244966],[20.8180618,-26.8252963],[20.8181429,-26.8259781],[20.8191454,-26.83128],[20.8192527,-26.833099],[20.819124,-26.8381634],[20.8189975,-26.8386988],[20.8188461,-26.8392098],[20.8186601,-26.8396996],[20.8182871,-26.8402982],[20.8176553,-26.8414019],[20.8170104,-26.8420404],[20.8162857,-26.8424575],[20.8146595,-26.8432922],[20.8139312,-26.8435625],[20.812193099999999,-26.8437061],[20.8076441,-26.8435051],[20.8013141,-26.842567],[20.7950811,-26.8411607],[20.794158,-26.8410449],[20.7927823,-26.8410513],[20.7907148,-26.8410483],[20.7894465,-26.8412317],[20.7883859,-26.8414182],[20.7874481,-26.841739],[20.7867604,-26.8422118],[20.7862017,-26.8427874],[20.7839227,-26.845209],[20.7797921,-26.8513832],[20.7767451,-26.8543888],[20.775479,-26.8565338],[20.7749074,-26.8575021],[20.7745623,-26.8582099],[20.7735865,-26.8596337],[20.773079,-26.8601349],[20.768625,-26.8636889],[20.7661688,-26.8651466],[20.7643608,-26.866159],[20.7635162,-26.8665457],[20.7628952,-26.8667115],[20.7593917,-26.867284],[20.7575544,-26.8674846],[20.7534715,-26.8672423],[20.750914,-26.8669865],[20.74797,-26.86678],[20.74556,-26.86644],[20.7419469,-26.8660079],[20.7401462,-26.8658124],[20.7388679,-26.8659063],[20.7375207,-26.8660104],[20.7364017,-26.8659459],[20.73467,-26.86601],[20.7329478,-26.8659707],[20.732157,-26.8659526],[20.7315093,-26.8659015],[20.7310472,-26.8658539],[20.7308933,-26.8658324],[20.7306754,-26.8657854],[20.7304575,-26.8656873],[20.7300559,-26.8656062],[20.7296133,-26.8656351],[20.7271671,-26.8659366],[20.7241952,-26.8665347],[20.720939,-26.8674487],[20.7158741,-26.8692374],[20.7150366,-26.8695541],[20.7144101,-26.8698428],[20.7126403,-26.8709851],[20.7096434,-26.8734172],[20.7092151,-26.8738179],[20.7083385,-26.8748398],[20.7072334,-26.8770544],[20.7052955,-26.8810568],[20.7043587,-26.885021],[20.700619,-26.8932663],[20.6986893,-26.8964477],[20.6975347,-26.8983828],[20.6966515,-26.8992764],[20.6921237,-26.9031125],[20.6908451,-26.9042251],[20.6904926,-26.9044269],[20.6898189,-26.9048127],[20.6877311,-26.9059669],[20.6852618,-26.9070073],[20.6851523,-26.9071135]]},"properties":{"intermittent":"yes","name":"Molopo","waterway":"river"}},
{"type":"Feature","geometry":{"type":"LineString","coordinates":[[18.7005178,-23.1209959],[18.701344,-23.1220516],[18.7016444,-23.1234527],[18.7011824,-23.1250583],[18.7002061,-23.1265235],[18.6985215,-23.1283625],[18.6983554,-23.128561],[18.6973234,-23.1311696],[18.6971982,-23.1328682],[18.6971356,-23.1344324],[18.6972191,-23.1363229],[18.6968643,-23.1379446],[18.6945685,-23.1425218],[18.691323,-23.1460914],[18.6905091,-23.1471469],[18.6903665,-23.1485011],[18.690843,-23.1495841],[18.6920118,-23.1502078],[18.6929301,-23.1519445],[18.6919115,-23.1614435],[18.6916819,-23.1643815],[18.6921826,-23.1657239],[18.6933185,-23.1678995],[18.6944864,-23.1690189],[18.6963747,-23.1718596],[18.6966022,-23.1731785],[18.6964771,-23.1745129],[18.6955991,-23.1762392],[18.6950272,-23.1781874],[18.693926,-23.1791368],[18.6918083,-23.1822636],[18.6885264,-23.1851986],[18.6855143,-23.1883375],[18.6864897,-23.1897189],[18.6885112,-23.1904268],[18.6886548,-23.1909293],[18.6869228,-23.1934464],[18.6840423,-23.1961473],[18.6831926,-23.1979701],[18.6826298,-23.2010724],[18.6818328,-23.2028807],[18.6829851,-23.2046807],[18.6841867,-23.2059429],[18.6854709,-23.2067347],[18.6869349,-23.2061987],[18.6879456,-23.2050079],[18.6890286,-23.2044328],[18.6895082,-23.2046807],[18.6900754,-23.2053397],[18.6896799,-23.2079939],[18.6898516,-23.2109915],[18.6929415,-23.2120959],[18.6934564,-23.2141469],[18.6914999,-23.2160537],[18.6887941,-23.2171172],[18.6876055,-23.2198827],[18.6877561,-23.2228254],[18.6958597,-23.2302378],[18.6980346,-23.2332873],[18.696448,-23.239709],[18.7008609,-23.2454835],[18.7053011,-23.2502698],[18.7083033,-23.2549672],[18.7133757,-23.2589771],[18.7170206,-23.2621723],[18.7159181,-23.2658316],[18.7158537,-23.2665511],[18.7159463,-23.2672261],[18.7204073,-23.2734527],[18.721261,-23.2742093],[18.7226021,-23.2752638],[18.7234497,-23.2756186],[18.7247157,-23.2759636],[18.7253104,-23.2760152],[18.726089,-23.2760424],[18.7285727,-23.2759932],[18.7289482,-23.2760868],[18.7292317,-23.2762124],[18.7294739,-23.2763677],[18.7296027,-23.2765845],[18.7297414,-23.2794696],[18.7297261,-23.2799846],[18.7289429,-23.283089],[18.728647,-23.2837024],[18.7276983,-23.2852473],[18.7267113,-23.2867157],[18.726486,-23.2873267],[18.7265227,-23.2878415],[18.7267005,-23.2883614],[18.7273979,-23.2892878],[18.7288831,-23.2904727],[18.732301,-23.2925299],[18.7343924,-23.2939986],[18.7349985,-23.2944243],[18.7386992,-23.2996361],[18.7401483,-23.3016769],[18.7439249,-23.3086137],[18.7439249,-23.3183878],[18.7420366,-23.3265848],[18.7401483,-23.3355694],[18.73929,-23.3421893],[18.7406633,-23.3466023],[18.7452982,-23.3492816],[18.7483881,-23.35464],[18.750448,-23.3598406],[18.750448,-23.3659865],[18.7483881,-23.3735503],[18.7449549,-23.3825318],[18.7454698,-23.3905673],[18.7456415,-23.4033286],[18.7456302,-23.4057396],[18.7439995,-23.4074036],[18.7446968,-23.4092743],[18.7443964,-23.4116274],[18.7449329,-23.4123658],[18.7468211,-23.4126415],[18.7475507,-23.4137639],[18.7466715,-23.422232],[18.7478731,-23.4301076],[18.7510703,-23.4385143],[18.7543962,-23.4450699],[18.7580011,-23.4516843],[18.762636,-23.4581409],[18.7650392,-23.4690061],[18.7665842,-23.481445],[18.7641809,-23.4897893],[18.7625764,-23.4944224],[18.762217,-23.4974972],[18.7626575,-23.5017047],[18.7689338,-23.5117695],[18.774309,-23.5236338],[18.7760256,-23.5315033],[18.7770555,-23.5406314],[18.7780855,-23.5491294],[18.7760256,-23.5580989],[18.7726135,-23.5629381],[18.77107,-23.5661118],[18.7708349,-23.572612],[18.7724006,-23.5780471],[18.7746019,-23.5837153],[18.7780448,-23.5876966],[18.7796004,-23.5913614],[18.7809173,-23.5942361],[18.7813016,-23.5945326],[18.7823793,-23.5949983],[18.7834992,-23.5969851],[18.7850747,-23.5985872],[18.7886889,-23.6013915],[18.7918184,-23.6060832],[18.7971399,-23.6152061],[18.7997246,-23.6238989],[18.8011752,-23.6281271],[18.8061609,-23.6305532],[18.8104973,-23.6336183],[18.8122642,-23.6374624],[18.814478,-23.641998],[18.816366,-23.6447726],[18.8189409,-23.6505907],[18.825979,-23.6551507],[18.8301503,-23.6577155],[18.8316929,-23.6603429],[18.8326248,-23.6619117],[18.8357637,-23.6675719],[18.8382474,-23.673726],[18.8362608,-23.6804635],[18.8361833,-23.682338],[18.837307,-23.6840408],[18.8384842,-23.6846779],[18.8393537,-23.6833058],[18.8403035,-23.6826443],[18.8411998,-23.6827055],[18.8418686,-23.6846166],[18.8414807,-23.6861234],[18.8398487,-23.6915012],[18.840036,-23.6939267],[18.8409203,-23.6964753],[18.8456705,-23.7050801],[18.8481204,-23.7098437],[18.8481179,-23.7120329],[18.8496522,-23.7144926],[18.8526514,-23.7178633],[18.8537108,-23.7211541],[18.8566795,-23.72893],[18.8638941,-23.7343711],[18.8659321,-23.7365507],[18.8687473,-23.738282],[18.8715414,-23.7405944],[18.8765835,-23.7424403],[18.879122,-23.7454944],[18.8786358,-23.7481533],[18.8777182,-23.7500494],[18.8773058,-23.7518163],[18.8781059,-23.7577926],[18.8769625,-23.7607719],[18.8776605,-23.7680683],[18.8774774,-23.7716121],[18.8757608,-23.7824514],[18.8761042,-23.7868497],[18.8778208,-23.7896771],[18.8821123,-23.7921903],[18.8862322,-23.7932898],[18.8895558,-23.7952916],[18.891444,-23.7990612],[18.8926457,-23.8034589],[18.892474,-23.8072283],[18.892474,-23.8116258],[18.8936756,-23.8150808],[18.8967655,-23.8179076],[18.8984844,-23.8186574],[18.9039753,-23.8212054],[18.9068936,-23.823875],[18.9094685,-23.8274868],[18.9103268,-23.8323546],[18.9096401,-23.8359661],[18.9092968,-23.8392635],[18.9117001,-23.8433458],[18.9122546,-23.8443259],[18.914275,-23.8478991],[18.9168499,-23.8529232],[18.9189098,-23.85779],[18.9187382,-23.8635987],[18.9187382,-23.8686221],[18.9205222,-23.8721667],[18.9214848,-23.8741163],[18.9271496,-23.8824357],[18.9294045,-23.8869735],[18.9299954,-23.8912125],[18.9314411,-23.8979741],[18.935561,-23.9048795],[18.9398525,-23.9075474],[18.9439724,-23.9100583],[18.9468907,-23.9130399],[18.9475194,-23.9144255],[18.9470844,-23.9164579],[18.9471908,-23.9181799],[18.9495552,-23.9222169],[18.9498193,-23.923982],[18.9496743,-23.9261461],[18.9510888,-23.9285826],[18.9515479,-23.9310574],[18.9509842,-23.9326233],[18.9518688,-23.9356354],[18.9564213,-23.9399735],[18.9587504,-23.9411616],[18.9599369,-23.942225],[18.9613864,-23.9434889],[18.9624366,-23.9456486],[18.9644704,-23.9484982],[18.9675651,-23.9507853],[18.9716099,-23.9541481],[18.9785607,-23.9604207],[18.9829806,-23.9649926],[18.987178,-23.9703605],[18.9879652,-23.9729827],[18.9900963,-23.975624],[18.9915558,-23.978174],[18.9914924,-23.9814547],[18.9927242,-23.9850491],[18.9928676,-23.9863099],[18.9923748,-23.9886364],[18.9932611,-23.9922511],[18.9928667,-23.9950885],[18.988261,-23.9988501],[18.9857304,-24.0025996],[18.9820269,-24.0037137],[18.9810567,-24.007931],[18.9815517,-24.0109586],[18.9827679,-24.0129634],[18.9877461,-24.017981],[18.990321,-24.0222145],[18.9940975,-24.0333464],[18.9966725,-24.0410284],[19.0013073,-24.0460449],[19.0055988,-24.0487099],[19.0081738,-24.0529424],[19.0092037,-24.057645],[19.0076588,-24.0662659],[19.0078304,-24.0731623],[19.0073155,-24.0791179],[19.0091103,-24.0842581],[19.0092037,-24.0846032],[19.0090321,-24.0910284],[19.010577,-24.0972966],[19.0138386,-24.1026244],[19.0199411,-24.105756],[19.0208767,-24.1062283],[19.0251682,-24.1092054],[19.0291464,-24.1139135],[19.0303181,-24.1151594],[19.033923,-24.1206431],[19.0358112,-24.1264399],[19.0385578,-24.1359961],[19.0407894,-24.1385026],[19.0438793,-24.140539],[19.0495442,-24.141009],[19.0558956,-24.1413223],[19.0599239,-24.1414129],[19.0630012,-24.1403316],[19.066575,-24.1378091],[19.0674077,-24.135771],[19.0682437,-24.1319648],[19.0696392,-24.12925],[19.0720202,-24.1266089],[19.0746604,-24.1250201],[19.0766773,-24.1249124],[19.0792416,-24.1256565],[19.0852497,-24.1284765],[19.0905712,-24.1320797],[19.097781,-24.1392859],[19.1044466,-24.1459631],[19.1061924,-24.1477447],[19.1100122,-24.1491756],[19.1105272,-24.1493674],[19.1128872,-24.1502509],[19.1147894,-24.1505276],[19.116506,-24.1504493],[19.117949,-24.1507577],[19.1193545,-24.1512667],[19.1206795,-24.1522751],[19.1281651,-24.1594922],[19.13074,-24.1641908],[19.1329716,-24.169046],[19.1374348,-24.1734311],[19.1434429,-24.1798519],[19.1482494,-24.1837668],[19.1498537,-24.1843897],[19.1544893,-24.1844635],[19.157934,-24.1860742],[19.1594074,-24.1875251],[19.1633449,-24.1897047],[19.1673098,-24.1903997],[19.1705789,-24.1905553],[19.1734837,-24.1928491],[19.1744899,-24.1948233],[19.1747019,-24.1964168],[19.1736954,-24.1997414],[19.1706089,-24.206763],[19.1699188,-24.2105724],[19.1710196,-24.2155859],[19.172207,-24.2171887],[19.1770886,-24.220405],[19.1796635,-24.2240056],[19.1865299,-24.2293281],[19.1944264,-24.2326154],[19.2028655,-24.2342759],[19.2059277,-24.2357461],[19.2086743,-24.2388767],[19.2121075,-24.2441985],[19.2128149,-24.2460866],[19.2133257,-24.2498436],[19.2139958,-24.2518678],[19.2156816,-24.2551356],[19.2179609,-24.2563177],[19.2201756,-24.2568761],[19.2227724,-24.2570817],[19.2320302,-24.2541814],[19.2360727,-24.2548567],[19.23923,-24.2578152],[19.2399128,-24.2600978],[19.2397919,-24.2635885],[19.2392586,-24.2683042],[19.2398327,-24.2737534],[19.2411183,-24.2770638],[19.2443798,-24.2811322],[19.2500446,-24.2847311],[19.2560528,-24.2866088],[19.2608593,-24.288017],[19.2663525,-24.2919286],[19.2713307,-24.2986564],[19.2766522,-24.3071046],[19.282317,-24.3144573],[19.2859219,-24.3178988],[19.2891834,-24.3194631],[19.29296,-24.3200888],[19.2960499,-24.319776],[19.2993115,-24.3193067],[19.3044613,-24.3164909],[19.3075512,-24.3133622],[19.3099545,-24.3110157],[19.3128727,-24.3107028],[19.3159626,-24.3111721],[19.3181942,-24.3128929],[19.3190525,-24.3158652],[19.3205975,-24.3188374],[19.3224857,-24.3218095],[19.3247173,-24.3239995],[19.325919,-24.3263458],[19.3262623,-24.332446],[19.3272479,-24.3367945],[19.328085,-24.338963],[19.3292928,-24.3403806],[19.3314121,-24.3419869],[19.3370243,-24.3454084],[19.3408535,-24.3490247],[19.3430851,-24.3530908],[19.3430851,-24.3571569],[19.3437718,-24.3618482],[19.347205,-24.3648194],[19.3518398,-24.3673213],[19.357848,-24.3701359],[19.3643711,-24.3731068],[19.3700136,-24.3749731],[19.3750141,-24.3760777],[19.3799923,-24.3767031],[19.3890904,-24.3807684],[19.3938969,-24.3837391],[19.3968151,-24.3892112],[19.3981884,-24.3948394],[19.3985317,-24.401249],[19.3983601,-24.4029686],[19.4002483,-24.4046882],[19.4048832,-24.407033],[19.4129513,-24.4092215],[19.4196461,-24.4087525],[19.4280575,-24.4103157],[19.4326923,-24.4126604],[19.4385288,-24.4168808],[19.4438503,-24.4223515],[19.4498585,-24.4234456],[19.4534634,-24.4240708],[19.4601582,-24.4214137],[19.4675396,-24.4189128],[19.4720028,-24.4207885],[19.4756077,-24.4253212],[19.4806862,-24.4344973],[19.4825332,-24.4384476],[19.4864224,-24.4434504],[19.4889973,-24.4468885],[19.4932888,-24.4526704],[19.4936321,-24.459077],[19.494032,-24.4652621],[19.4949636,-24.4675463],[19.496722,-24.4692333],[19.5025585,-24.4714207],[19.509425,-24.4723581],[19.5162914,-24.4731393],[19.5204113,-24.4756391],[19.5217846,-24.4793887],[19.5235012,-24.4840755],[19.5264195,-24.4870438],[19.5310543,-24.488606],[19.5360325,-24.4890746],[19.5401524,-24.4911055],[19.5447872,-24.4932925],[19.5490788,-24.4990722],[19.5540569,-24.5065699],[19.5600651,-24.5135986],[19.5653866,-24.522501],[19.5707081,-24.5289041],[19.5779179,-24.5320275],[19.584441,-24.5339015],[19.5882176,-24.5348384],[19.5926808,-24.5393671],[19.596629,-24.5449886],[19.6002339,-24.5509221],[19.6033238,-24.5527958],[19.607787,-24.5543572],[19.6129368,-24.554201],[19.6204899,-24.5529519],[19.627528,-24.5520151],[19.6349095,-24.5543572],[19.638171,-24.5595096],[19.637656,-24.5659108],[19.6400593,-24.5727801],[19.6429775,-24.5801173],[19.6484707,-24.5851125],[19.6544788,-24.5933855],[19.6596287,-24.597912],[19.6646069,-24.6015019],[19.6755932,-24.601658],[19.682288,-24.6013458],[19.6854385,-24.6029008],[19.6882961,-24.6043113],[19.6888393,-24.6056693],[19.6910427,-24.6111784],[19.6912144,-24.6158604],[19.6913023,-24.6166676],[19.691901,-24.623039],[19.6967075,-24.6281886],[19.7023589,-24.6319819],[19.7063266,-24.632961],[19.7113851,-24.6335538],[19.7219706,-24.6329958],[19.7274559,-24.632711],[19.7332372,-24.6318407],[19.7407751,-24.6324599],[19.7454607,-24.6344019],[19.747691,-24.6352104],[19.7540424,-24.6389553],[19.7615955,-24.6422319],[19.7679189,-24.6459757],[19.7700617,-24.6475113],[19.7727535,-24.649565],[19.7782467,-24.6544015],[19.7856281,-24.6609539],[19.7935246,-24.6690659],[19.8021076,-24.6759294],[19.8139523,-24.680297],[19.8240803,-24.6818568],[19.8321484,-24.6837285],[19.8412464,-24.6840404],[19.8443363,-24.6859121],[19.8517178,-24.6893435],[19.8566959,-24.6907472],[19.8645924,-24.6912151],[19.8730038,-24.6904353],[19.8784969,-24.691839],[19.8819302,-24.6966738],[19.8858784,-24.7024442],[19.8922382,-24.7093314],[19.8944613,-24.7127056],[19.8978947,-24.7189741],[19.9023579,-24.7228724],[19.9066494,-24.7247435],[19.9109409,-24.7252113],[19.9136875,-24.7242757],[19.9145458,-24.7203775],[19.9114243,-24.716422],[19.9073763,-24.7127409],[19.9066292,-24.7100648],[19.9071232,-24.7082926],[19.9089278,-24.7064723],[19.911123,-24.704911],[19.9162601,-24.7038066],[19.9224423,-24.7052514],[19.9289654,-24.7057192],[19.9315889,-24.705931],[19.933325,-24.7068593],[19.9351134,-24.7081051],[19.9355146,-24.7083829],[19.937125,-24.7101641],[19.9379199,-24.7123156],[19.9378891,-24.7141649],[19.9370198,-24.7154101],[19.9361723,-24.7166599],[19.9348819,-24.7192048],[19.9343803,-24.7209101],[19.9354344,-24.7229068],[19.9375485,-24.7241198],[19.9423702,-24.7243878],[19.9427926,-24.7244112],[19.9483328,-24.7239528],[19.9559353,-24.7228893],[19.9632888,-24.7214393],[19.9656426,-24.7216171],[19.9685174,-24.7232468],[19.9705788,-24.7247573],[19.9718807,-24.7266146],[19.9723278,-24.7286821],[19.9720524,-24.7308244],[19.9709766,-24.7324791],[19.9698208,-24.7331632],[19.9674175,-24.7355018],[19.9653935,-24.7385575],[19.9651776,-24.7415769],[19.9653554,-24.7428096],[19.966,-24.7443983],[19.9676747,-24.7458997],[19.9700266,-24.7472566],[19.9710778,-24.7476264],[19.9731084,-24.7481545],[19.9751423,-24.7484418],[19.9776091,-24.7485847],[19.9784686,-24.7486273],[19.9800451,-24.7483337],[19.9814583,-24.7478318],[19.9825357,-24.7470334],[19.9831955,-24.7455371],[19.9842086,-24.74281],[19.9846797,-24.7420501],[19.9853127,-24.7413838],[19.9865907,-24.7408939],[19.9880779,-24.7405143],[19.9897294,-24.7405174],[19.9911901,-24.7406787],[19.9927367,-24.7413585],[19.9937366,-24.7423281],[19.9957099,-24.7446824],[19.9978425,-24.7477243],[19.9987431,-24.7491142],[19.9992095,-24.7502456],[19.999507,-24.7513569],[19.999447,-24.7597672],[19.9994351,-24.7626591],[19.9994676,-24.7635137],[19.9993916,-24.7642453],[19.9996073,-24.7656056],[20.0002954,-24.7673427],[20.001091,-24.7691045],[20.0021758,-24.7703243],[20.0046164,-24.7720762],[20.0127698,-24.7771658],[20.0151583,-24.7791373],[20.0174087,-24.7806248],[20.0235873,-24.7844064],[20.0257036,-24.7855342],[20.0269827,-24.7865429],[20.0273497,-24.7872797],[20.0273961,-24.7873289],[20.0284154,-24.7887579],[20.0295936,-24.7908815],[20.0296215,-24.7909318],[20.0307331,-24.7933132],[20.0316214,-24.7955532],[20.0325492,-24.7980799],[20.0336019,-24.800583],[20.0349244,-24.8031004],[20.0357471,-24.8054447],[20.0368722,-24.8073979],[20.0380566,-24.8088313],[20.0386488,-24.8093868],[20.040228,-24.8102827],[20.0419059,-24.8107485],[20.0435838,-24.8107665],[20.0444326,-24.8109815],[20.0466435,-24.8113398],[20.0504533,-24.8115369],[20.0535525,-24.8116624],[20.0562371,-24.8121282],[20.0590797,-24.8129345],[20.0610339,-24.8138662],[20.0636199,-24.8153534],[20.0652583,-24.8166792],[20.0659097,-24.817808],[20.0662848,-24.8192772],[20.0661071,-24.8211584],[20.0659294,-24.8234517],[20.0660676,-24.8247417],[20.0665036,-24.8262223],[20.0671293,-24.8277528],[20.0684167,-24.8291668],[20.0698774,-24.8302059],[20.0715948,-24.8309583],[20.0737267,-24.8312271],[20.0768654,-24.831245],[20.0800632,-24.8309762],[20.0826877,-24.8303633],[20.0827479,-24.8303492],[20.0845639,-24.8299372],[20.0861826,-24.8299193],[20.0876631,-24.8303313],[20.0889462,-24.8310479],[20.089874,-24.831872],[20.0905649,-24.8328573],[20.0908406,-24.8338247],[20.090861,-24.8338964],[20.0909202,-24.8352758],[20.0903675,-24.8378017],[20.08942,-24.8407933],[20.0880382,-24.8429787],[20.0870512,-24.8447879],[20.086459,-24.8465434],[20.0864392,-24.8479585],[20.0866366,-24.8492124],[20.0876969,-24.8514002],[20.0902198,-24.8534033],[20.0937058,-24.8553745],[20.0961562,-24.8568153],[20.0985338,-24.8584498],[20.1003297,-24.8592957],[20.1025892,-24.8601232],[20.1046556,-24.860682],[20.1065611,-24.8613372],[20.1087112,-24.8624037],[20.1104027,-24.8640424],[20.1114061,-24.8659933],[20.1121515,-24.8682302],[20.1126676,-24.8712735],[20.1128921,-24.8740498],[20.1128969,-24.8741085],[20.1140813,-24.8769995],[20.114101,-24.8770476],[20.1158498,-24.8798825],[20.1169606,-24.8809016],[20.1180573,-24.881521],[20.1201215,-24.8826393],[20.1224294,-24.8834867],[20.1249108,-24.8834051],[20.1273234,-24.882512],[20.1304999,-24.8807469],[20.1316043,-24.8804806],[20.135058,-24.8798305],[20.1380116,-24.8796533],[20.1401766,-24.8796007],[20.1457802,-24.8796744],[20.1505392,-24.8803246],[20.1537679,-24.8815088],[20.1570471,-24.8837837],[20.1585379,-24.8854741],[20.1595078,-24.8877534],[20.1600623,-24.8887071],[20.1608314,-24.8895052],[20.1628669,-24.8910395],[20.1655618,-24.8929119],[20.1677693,-24.8958505],[20.1701775,-24.898737],[20.1726143,-24.9011294],[20.176456,-24.906278],[20.1789215,-24.9095283],[20.180074,-24.9103054],[20.1815282,-24.910901],[20.1815877,-24.9109324],[20.1837379,-24.9110885],[20.1857447,-24.9107504],[20.1881242,-24.9096324],[20.1931971,-24.905845],[20.1943075,-24.9039303],[20.1950047,-24.9018927],[20.1962662,-24.8979829],[20.197757,-24.8966567],[20.1992764,-24.8959545],[20.200283,-24.8958388],[20.2013119,-24.8957205],[20.2029232,-24.8959397],[20.2049144,-24.8964769],[20.2063356,-24.8973805],[20.2074797,-24.8987176],[20.2078735,-24.8998083],[20.2105896,-24.9039974],[20.2128283,-24.9058384],[20.2145296,-24.9089096],[20.2152273,-24.9130964],[20.2165676,-24.9156441],[20.2186449,-24.9169946],[20.2208535,-24.9176442],[20.2227772,-24.917604],[20.224865,-24.9170926],[20.2254209,-24.9167583],[20.2276724,-24.915721],[20.230775,-24.9137106],[20.233043,-24.9130084],[20.2352263,-24.9130923],[20.238447,-24.9140932],[20.2403853,-24.9152723],[20.2420855,-24.9158888],[20.2460295,-24.9173012],[20.2481034,-24.91801],[20.2520258,-24.9198591],[20.255363,-24.9216601],[20.2589722,-24.9239148],[20.263663,-24.9258436],[20.2657961,-24.9275371],[20.2667854,-24.9291439],[20.2682405,-24.9342745],[20.2682774,-24.9343438],[20.2700308,-24.9376355],[20.2719673,-24.946269],[20.2731467,-24.9481858],[20.276159,-24.949846],[20.2827002,-24.9505207],[20.2845015,-24.9513424],[20.2858135,-24.9528778],[20.2869695,-24.9549685],[20.288158,-24.95942],[20.2863927,-24.9646601],[20.2858811,-24.9680122],[20.2859771,-24.9696645],[20.2866792,-24.9707729],[20.288793,-24.9718114],[20.2897805,-24.9725871],[20.2955104,-24.9796236],[20.2976741,-24.9815309],[20.3003774,-24.982171],[20.3132794,-24.9848521],[20.3133699,-24.9848729],[20.3158128,-24.9858556],[20.3173962,-24.9868085],[20.3182372,-24.9874334],[20.3209279,-24.9894329],[20.3220481,-24.9906133],[20.3232016,-24.9922251],[20.3255844,-24.9962393],[20.3258464,-24.998644],[20.3266078,-25.0009459],[20.3279922,-25.0054012],[20.3287925,-25.0065343],[20.3302834,-25.0073154],[20.3325885,-25.0080786],[20.3353632,-25.0085381],[20.3425786,-25.0086385],[20.344266,-25.0085042],[20.3462765,-25.0085857],[20.3480224,-25.0088753],[20.3493177,-25.009553],[20.350152,-25.0104569],[20.3505902,-25.0131724],[20.3512487,-25.0153282],[20.3534736,-25.017495],[20.3559846,-25.0243053],[20.3573254,-25.0255327],[20.3624571,-25.025809],[20.3663797,-25.0266766],[20.3709496,-25.0291501],[20.3709886,-25.0291712],[20.37309,-25.03006],[20.3802514,-25.03218],[20.3832184,-25.0338502],[20.3852776,-25.0358471],[20.3867693,-25.03835],[20.3866843,-25.0402829],[20.3866184,-25.0403909],[20.385428,-25.0423404],[20.3851221,-25.0443972],[20.3852031,-25.0497779],[20.384737,-25.051752],[20.3836645,-25.0537044],[20.3814531,-25.0560707],[20.3794326,-25.0596939],[20.3788479,-25.0619934],[20.3792041,-25.0637691],[20.3815893,-25.0667376],[20.3834908,-25.0681715],[20.3863673,-25.0694858],[20.3890262,-25.0713559],[20.3915298,-25.0753291],[20.3971688,-25.0787997],[20.4035221,-25.0805712],[20.4080468,-25.0812743],[20.4107823,-25.0821951],[20.4128882,-25.083107],[20.414326,-25.0855811],[20.4146102,-25.0879597],[20.4141687,-25.0897287],[20.4121641,-25.0943044],[20.4099827,-25.0992834],[20.4100143,-25.1017981],[20.4105588,-25.1033154],[20.4123032,-25.1045909],[20.4142525,-25.1054904],[20.4179121,-25.1050988],[20.4205798,-25.1060942],[20.4219023,-25.1072732],[20.424205,-25.1119456],[20.4278538,-25.1157846],[20.4290417,-25.1171116],[20.4293592,-25.1181734],[20.4295198,-25.1199227],[20.4288336,-25.1211331],[20.4267457,-25.122159],[20.4250757,-25.1241286],[20.4239357,-25.1260804],[20.4238168,-25.1285341],[20.4242482,-25.1303265],[20.4246282,-25.1311672],[20.4264911,-25.1326804],[20.4274856,-25.1337101],[20.428507,-25.1351578],[20.4303693,-25.1363551],[20.431065,-25.137222],[20.4314137,-25.1382517],[20.431631,-25.1398725],[20.4313943,-25.1411219],[20.431002199999999,-25.1418694],[20.4303412,-25.1424604],[20.4286999,-25.1432773],[20.4278095,-25.1443372],[20.4274948,-25.1463386],[20.4276743,-25.1485538],[20.4284415,-25.1501304],[20.4314406,-25.1545028],[20.433511,-25.1567834],[20.43618,-25.1581328],[20.4409484,-25.1588342],[20.4447809,-25.158585],[20.4500949,-25.1570377],[20.4557221,-25.1530952],[20.4583051,-25.1515601],[20.4599695,-25.151118],[20.4615703,-25.1515292],[20.4642923,-25.152461],[20.4662689,-25.1544517],[20.4681954,-25.1582358],[20.4682156,-25.1582755],[20.4686409,-25.1611323],[20.4686252,-25.1661697],[20.4679329,-25.1712611],[20.4675116,-25.1743593],[20.4656521,-25.1777518],[20.4610074,-25.1821437],[20.4592936,-25.1838844],[20.4581427,-25.1841839],[20.4561238,-25.1846431],[20.4514498,-25.1855177],[20.4483424,-25.1874386],[20.4449678,-25.1922915],[20.4444887,-25.1938723],[20.444487,-25.1949916],[20.4450232,-25.1962729],[20.4467813,-25.1985257],[20.4505742,-25.2008188],[20.45153,-25.2017646],[20.452664,-25.2030757],[20.4545855,-25.2047881],[20.4556853,-25.2062032],[20.4578363,-25.2087837],[20.4607969,-25.2116704],[20.4617384,-25.2129319],[20.4641291,-25.2202113],[20.4658867,-25.2239158],[20.4680579,-25.2264381],[20.4704804,-25.2280833],[20.4715073,-25.2284316],[20.4727519,-25.2278034],[20.47568,-25.22531],[20.4773834,-25.2248129],[20.4783771,-25.2247374],[20.4827626,-25.2248957],[20.4852638,-25.2236695],[20.4887788,-25.2228161],[20.4923699,-25.223389],[20.4955884,-25.2245843],[20.497586,-25.2271552],[20.4981067,-25.2283721],[20.4982917,-25.2295746],[20.497726,-25.2335311],[20.4953204,-25.2382113],[20.4940134,-25.2426369],[20.4923356,-25.2462136],[20.4889381,-25.2504005],[20.4868445,-25.2535571],[20.4852412,-25.2564697],[20.4852746,-25.2580719],[20.4857174,-25.2587885],[20.4870466,-25.2592266],[20.4884542,-25.2587515],[20.4893158,-25.2586969],[20.4905448,-25.2596621],[20.4928452,-25.2631953],[20.4950682,-25.2673235],[20.4982438,-25.271393],[20.4994935,-25.27234],[20.5052319,-25.2758805],[20.5079985,-25.2767386],[20.5100806,-25.2769062],[20.5117241,-25.277041],[20.5134393,-25.2767221],[20.516714,-25.2758799],[20.5178481,-25.2756741],[20.5188178,-25.2757662],[20.5195725,-25.2758907],[20.5213259,-25.2765481],[20.5223806,-25.2771946],[20.5228976,-25.2779059],[20.5232374,-25.2794922],[20.5226431,-25.2809538],[20.5223741,-25.2822484],[20.5225474,-25.2839098],[20.523273,-25.2855142],[20.5248019,-25.2867493],[20.5271893,-25.2874316],[20.5300277,-25.2876999],[20.5343449,-25.2871976],[20.535613,-25.2873105],[20.5373134,-25.2876567],[20.5387033,-25.288105],[20.5396241,-25.2886061],[20.5409627,-25.2897877],[20.5413875,-25.2907588],[20.541497,-25.2914965],[20.5413914,-25.2922341],[20.5406618,-25.2933633],[20.5396926,-25.2939533],[20.5363804,-25.295612],[20.5359299,-25.2958376],[20.5344032,-25.2966269],[20.5314841,-25.29959],[20.529363,-25.3014086],[20.5274624,-25.3034177],[20.5255079,-25.3044527],[20.5180219,-25.3069777],[20.5169176,-25.3075265],[20.5155087,-25.3088405],[20.5140392,-25.3109989],[20.5129016,-25.3135701],[20.5128402,-25.3142548],[20.5133442,-25.317383],[20.514333,-25.3204772],[20.5153565,-25.3220916],[20.5163632,-25.3233679],[20.518123,-25.3248363],[20.5199327,-25.3258601],[20.5216857,-25.3260298],[20.5239572,-25.3257571],[20.5253683,-25.3252939],[20.5266718,-25.3241785],[20.5275387,-25.3239669],[20.5286271,-25.3238983],[20.5306673,-25.3237034],[20.5321008,-25.322981],[20.5330502,-25.3225598],[20.5346059,-25.3221501],[20.5372879,-25.3203934],[20.5386417,-25.3195536],[20.5412734,-25.3192202],[20.5429015,-25.3193833],[20.5444196,-25.3198066],[20.5454232,-25.3200864],[20.5473641,-25.3213528],[20.5481568,-25.3225431],[20.5485172,-25.3242239],[20.5487101,-25.3270227],[20.5481811,-25.3282353],[20.547613,-25.3290008],[20.5450578,-25.3311949],[20.5446085,-25.3318224],[20.5426,-25.33545],[20.5398484,-25.3420702],[20.5396603,-25.3446313],[20.5404384,-25.3472411],[20.5416754,-25.3500187],[20.5452462,-25.3559673],[20.547316,-25.3617308],[20.5488294,-25.365897],[20.5496202,-25.3675299],[20.5510558,-25.3704943],[20.5520933,-25.3726365],[20.5526771,-25.373842],[20.5543706,-25.3763484],[20.5569154,-25.3801147],[20.5590559,-25.3831748],[20.5592759,-25.3836568],[20.5612758,-25.3894659],[20.5628204,-25.3919751],[20.5652893,-25.3946032],[20.5660348,-25.3949738],[20.5668632,-25.3949566],[20.568344,-25.3949893],[20.5702315,-25.3949428],[20.5725399,-25.3952106],[20.57569,-25.3958073],[20.57818,-25.39648],[20.5789115,-25.3964703],[20.5839174,-25.3943451],[20.5875821,-25.3925033],[20.5897515,-25.3914719],[20.5914756,-25.3908851],[20.592733,-25.3905238],[20.5934015,-25.3904754],[20.5940335,-25.3905428],[20.595444,-25.3909607],[20.5965621,-25.3917128],[20.5991175,-25.3940574],[20.599257,-25.3941762],[20.6006951,-25.3954003],[20.6019073,-25.3968416],[20.6024527,-25.3979457],[20.6032696,-25.3989954],[20.6036654,-25.4001343],[20.6037494,-25.4016111],[20.6031009,-25.4038936],[20.6028084,-25.4070727],[20.6027879,-25.4071932],[20.6022451,-25.4103774],[20.6000906,-25.4145048],[20.5990926,-25.4178819],[20.5985962,-25.420985],[20.5985507,-25.4221025],[20.5986805,-25.4225586],[20.5996347,-25.4250936],[20.6015456,-25.427933],[20.6029037,-25.4292284],[20.6043745,-25.4298742],[20.6066592,-25.4301699],[20.6081987,-25.4302127],[20.6100984,-25.4299381],[20.6130576,-25.4287955],[20.6131503,-25.4287597],[20.6229642,-25.4240282],[20.6252043,-25.4230204],[20.6258634,-25.4229489],[20.6270705,-25.4231005],[20.6281577,-25.4235153],[20.6282263,-25.4235686],[20.629476,-25.4242931],[20.6304326,-25.4252823],[20.631552,-25.4270665],[20.6320879,-25.4284849],[20.6323951,-25.4302897],[20.6324465,-25.4315706],[20.6319146,-25.433165],[20.6310105,-25.4343808],[20.6296233,-25.4352418],[20.6264227,-25.4368944],[20.6236199,-25.4383292],[20.620152,-25.4401044],[20.6181695,-25.4417551],[20.6173704,-25.4423202],[20.6166288,-25.4432438],[20.6162566,-25.4437434],[20.6159734,-25.4443635],[20.6158747,-25.4451968],[20.6159243,-25.4472024],[20.6167257,-25.4499696],[20.6184309,-25.4530206],[20.6194449,-25.4551656],[20.620094,-25.4573107],[20.6209678,-25.4603405],[20.6213332,-25.4608966],[20.6220141,-25.4613316],[20.6227847,-25.4617299],[20.6284838,-25.4626831],[20.63612,-25.4638053],[20.6380824,-25.4636983],[20.6405994,-25.4632275],[20.6435319,-25.4620716],[20.6452472,-25.461111],[20.6463466,-25.4601476],[20.6478484,-25.4580261],[20.6498098,-25.4538564],[20.6523992,-25.4502701],[20.6541926,-25.4482528],[20.6565309,-25.4469003],[20.6581088,-25.4466817],[20.6598322,-25.4468132],[20.6626964,-25.4464156],[20.665682,-25.4464466],[20.66966,-25.44751],[20.6704226,-25.448284],[20.6718499,-25.4503359],[20.6733632,-25.4536932],[20.6735439,-25.4572077],[20.6735428,-25.4601181],[20.6722186,-25.4633775],[20.6698332,-25.4658018],[20.6682123,-25.4680686],[20.6669406,-25.4692323],[20.6610486,-25.4715044],[20.6601983,-25.4717684],[20.6576297,-25.4721018],[20.6552317,-25.472068],[20.6475886,-25.4719253],[20.6436911,-25.471466],[20.6409973,-25.4711485],[20.6395114,-25.4713001],[20.6381619,-25.4717857],[20.6368752,-25.4725514],[20.6353367,-25.4737229],[20.6345759,-25.4754547],[20.6342992,-25.476974],[20.63453,-25.47887],[20.6371004,-25.4852935],[20.6412881,-25.4927642],[20.6422152,-25.4957019],[20.6422315,-25.4981023],[20.6410327,-25.5013732],[20.6390999,-25.5039219],[20.6330892,-25.5084436],[20.6290304,-25.5127145],[20.6282664,-25.5149854],[20.6278623,-25.5190256],[20.6285543,-25.5234059],[20.62972,-25.526526],[20.6304784,-25.5275602],[20.6317052,-25.5285167],[20.6341074,-25.5299384],[20.6381016,-25.5307488],[20.6447177,-25.5313269],[20.6495677,-25.5329969],[20.6551,-25.53654],[20.6644592,-25.5459678],[20.6688076,-25.5494742],[20.6718521,-25.5530507],[20.6743958,-25.5592678],[20.6745377,-25.5596147],[20.6849608,-25.5756357],[20.6929406,-25.5851237],[20.69618,-25.5895136],[20.6970373,-25.5925646],[20.6969171,-25.5942017],[20.6968012,-25.595781],[20.6952837,-25.5984588],[20.6916167,-25.6012715],[20.6905299,-25.6019172],[20.686738,-25.6031371],[20.683982,-25.6036915],[20.6831573,-25.6037676],[20.6760033,-25.6037791],[20.671468,-25.6037022],[20.6673288,-25.6038427],[20.66584,-25.604322],[20.6643254,-25.6050707],[20.6632706,-25.6059442],[20.6623752,-25.6064094],[20.661548,-25.6075533],[20.6605254,-25.6088971],[20.6600327,-25.612373],[20.6594366,-25.6135651],[20.659298,-25.6146348],[20.6585572,-25.6162257],[20.6574438,-25.6180284],[20.6559133,-25.6205918],[20.6536102,-25.6239289],[20.6514704,-25.6270066],[20.6500659,-25.6305561],[20.6498983,-25.6334293],[20.6506257,-25.6357877],[20.6515324,-25.6376445],[20.6538399,-25.6393573],[20.6558635,-25.6402211],[20.657526,-25.640193],[20.6601322,-25.6393573],[20.663847,-25.6376042],[20.6687589,-25.6337549],[20.6719333,-25.6312819],[20.6729995,-25.6309426],[20.6750857,-25.6308005],[20.6792263,-25.6313822],[20.6827173,-25.6325822],[20.6833002,-25.6328151],[20.6858046,-25.6348387],[20.6868798,-25.6361197],[20.6879325,-25.6392134],[20.6882979,-25.6433238],[20.6876006,-25.6479929],[20.6865419,-25.651525],[20.6805385,-25.6593154],[20.6765746,-25.6643139],[20.6756206,-25.6666463],[20.6746844,-25.669851],[20.6743205,-25.6747557],[20.6750852,-25.6799671],[20.6755413,-25.6838051],[20.676318,-25.6864589],[20.6778514,-25.6896561],[20.6811746,-25.6929622],[20.6834127,-25.6946486],[20.6896519,-25.6977795],[20.6985319,-25.7020091],[20.7025759,-25.7044454],[20.7093248,-25.7095371],[20.7123333,-25.7122544],[20.7156552,-25.7168014],[20.7199599,-25.72268],[20.7222879,-25.7268391],[20.7246986,-25.7341709],[20.7265926,-25.7400908],[20.7278546,-25.7437577],[20.7298912,-25.7479904],[20.7304713,-25.7508247],[20.7301739,-25.7601577],[20.7295832,-25.7666251],[20.7298676,-25.768907],[20.7301715,-25.7695925],[20.7307203,-25.7702432],[20.7320037,-25.7713632],[20.7345878,-25.7729057],[20.7362561,-25.7733812],[20.738125,-25.7735927],[20.7402876,-25.7734526],[20.74079,-25.77342],[20.7429085,-25.7730913],[20.7449233,-25.7727098],[20.7482949,-25.7720436],[20.7504191,-25.7720481],[20.7528511,-25.7724492],[20.7542301,-25.7731552],[20.7557726,-25.7738686],[20.7568118,-25.7745502],[20.7587656,-25.7761896],[20.7600865,-25.7773279],[20.7616516,-25.7790885],[20.7625953,-25.7806688],[20.7633383,-25.7827875],[20.7636443,-25.7844805],[20.764103,-25.7860067],[20.7638548,-25.7874795],[20.7634687,-25.7885635],[20.7623959,-25.7901633],[20.7619642,-25.7907663],[20.7613485,-25.7912966],[20.75927,-25.7929],[20.7578829,-25.7938125],[20.7549023,-25.7957732],[20.7521374,-25.7971566],[20.7512171,-25.7978128],[20.7501139,-25.7988384],[20.7489527,-25.7996179],[20.7470426,-25.8011637],[20.7458927,-25.8021668],[20.7444381,-25.8036442],[20.7439169,-25.8045023],[20.7430965,-25.8065174],[20.7423235,-25.8080184],[20.7419894,-25.8096327],[20.7411519,-25.8112841],[20.7394783,-25.8130526],[20.7391647,-25.8136557],[20.7388503,-25.815144],[20.7386315,-25.8167243],[20.7384487,-25.8182715],[20.7383701,-25.8198961],[20.7384868,-25.8209304],[20.7386348,-25.8216796],[20.7388323,-25.8224537],[20.7392099,-25.8230504],[20.7402356,-25.8241246],[20.741248,-25.8249183],[20.7420296,-25.8254413],[20.7427598,-25.8258822],[20.74349,-25.8261051],[20.7442126,-25.8263109],[20.7452102,-25.8264884],[20.7486825,-25.8268217],[20.7507367,-25.8267084],[20.7533554,-25.8262125],[20.7557201,-25.8248383],[20.7574127,-25.8234454],[20.7588419,-25.8220335],[20.76098,-25.81817],[20.7621333,-25.8155485],[20.76469,-25.81201],[20.7672607,-25.8092413],[20.7706367,-25.8069561],[20.773338,-25.8050639],[20.7766113,-25.8028073],[20.7779507,-25.8021297],[20.7805707,-25.8013124],[20.782458,-25.8009713],[20.7840107,-25.801125],[20.7851754,-25.8014193],[20.7869759,-25.802321],[20.787894,-25.8032445],[20.7886209,-25.8045673],[20.78901,-25.8056513],[20.7893626,-25.8073874],[20.7893968,-25.8090387],[20.7891858,-25.8101933],[20.7884353,-25.8126744],[20.786904,-25.8157853],[20.7861929,-25.8169267],[20.7857573,-25.81827],[20.7855046,-25.821188],[20.7857486,-25.8231661],[20.7864209,-25.8249728],[20.7868413,-25.8261025],[20.788298,-25.8299005],[20.7886799,-25.8324569],[20.7887166,-25.8342494],[20.7885991,-25.835806],[20.7881275,-25.8374044],[20.7868021,-25.8396181],[20.7844821,-25.8429557],[20.7830101,-25.8454771],[20.7817573,-25.8487586],[20.781513,-25.8512097],[20.7824784,-25.8538291],[20.7840821,-25.8571174],[20.78503,-25.8590108],[20.7858796,-25.8598686],[20.7870819,-25.8605181],[20.78861,-25.86117],[20.7905413,-25.8616076],[20.79581,-25.86168],[20.801068,-25.8619612],[20.8034079,-25.8623572],[20.8046602,-25.8626559],[20.8061765,-25.86327],[20.8080519,-25.8642956],[20.8105,-25.86618],[20.8117386,-25.8676433],[20.8123193,-25.8686752],[20.8128539,-25.8717805],[20.8130293,-25.87489],[20.8128852,-25.8788472],[20.8129793,-25.8845455],[20.8120748,-25.8894796],[20.8110669,-25.8909501],[20.8086825,-25.8928705],[20.802602,-25.8962785],[20.7997527,-25.8979978],[20.7986513,-25.8988612],[20.7981339,-25.8995914],[20.7977286,-25.9007635],[20.7977686,-25.9018773],[20.7981673,-25.9035203],[20.7994987,-25.9068099],[20.8007112,-25.9095618],[20.8014977,-25.9115993],[20.802313,-25.9162524],[20.8028245,-25.9193159],[20.8031825,-25.921653],[20.8043578,-25.9240241],[20.8057871,-25.9260118],[20.808027,-25.9281535],[20.8106065,-25.930066],[20.8143184,-25.9330445],[20.8177844,-25.935803],[20.8220911,-25.9390036],[20.8255539,-25.9420552],[20.8292857,-25.9449693],[20.8345077,-25.9487945],[20.8372304,-25.9509213],[20.8380017,-25.9517579],[20.8388678,-25.9529473],[20.8397342,-25.9551933],[20.8400584,-25.9580635],[20.8398483,-25.9600322],[20.8391966,-25.9622435],[20.8372784,-25.9648911],[20.8360187,-25.966371],[20.8345628,-25.9680813],[20.8335795,-25.9690192],[20.8322316,-25.9706088],[20.8314204,-25.9721498],[20.8310637,-25.9736102],[20.8307424,-25.9789263],[20.8300564,-25.9827262],[20.8286537,-25.9864466],[20.8280965,-25.9879027],[20.8270657,-25.9897313],[20.8250864,-25.9926136],[20.8240475,-25.9940562],[20.8225544,-25.9957759],[20.8208205,-25.9979043],[20.8196344,-25.9993004],[20.8188246,-26.0005147],[20.8183711,-26.0013332],[20.8174164,-26.0027098],[20.8162469,-26.0047105],[20.8159378,-26.0055112],[20.8157592,-26.0067917],[20.8157675,-26.0074443],[20.8158773,-26.00796],[20.8161427,-26.0084696],[20.8164321,-26.008907],[20.8168399,-26.0095876],[20.8174467,-26.010606],[20.8180652,-26.0113917],[20.8208118,-26.0134718],[20.8261716,-26.017653],[20.828993,-26.0199512],[20.8299394,-26.020886],[20.8307777,-26.022019],[20.8324785,-26.0251638],[20.8339473,-26.0290576],[20.8350177,-26.0339748],[20.8356845,-26.0386448],[20.8353819,-26.0418944],[20.8349763,-26.0432078],[20.8338136,-26.0448264],[20.8324577,-26.0465845],[20.8300247,-26.0478761],[20.8268312,-26.0495596],[20.8254387,-26.0505062],[20.8218979,-26.0533423],[20.8205573,-26.0546584],[20.8197345,-26.0557234],[20.8193393,-26.0565782],[20.8188067,-26.0578439],[20.8186371,-26.0583118],[20.8185977,-26.0590602],[20.8190775,-26.0604717],[20.8230191,-26.0677892],[20.8247277,-26.0706011],[20.8265321,-26.0722767],[20.8299135,-26.0739312],[20.8364364,-26.0762858],[20.8388827,-26.0771406],[20.8403412,-26.0782744],[20.8411988,-26.0796066],[20.8417058,-26.0815789],[20.8408944,-26.0848346],[20.8394231,-26.0879506],[20.8385137,-26.0894699],[20.8370591,-26.0909571],[20.8358543,-26.0919289],[20.8339597,-26.0937278],[20.8321011,-26.0948941],[20.8288584,-26.096505],[20.8266831,-26.0975312],[20.8242651,-26.0988489],[20.8215832,-26.1003215],[20.8206304,-26.1012433],[20.8201217,-26.1022741],[20.8201017,-26.1042314],[20.820533,-26.1055505],[20.8213871,-26.1065184],[20.8227237,-26.1080248],[20.8269617,-26.1124041],[20.8304107,-26.1146019],[20.8342419,-26.1168956],[20.8371871,-26.1184763],[20.8378023,-26.1189789],[20.8383253,-26.119826],[20.8400471,-26.1226318],[20.8404971,-26.1236418],[20.8417766,-26.1246159],[20.8427369,-26.1251752],[20.8437451,-26.1253204],[20.8447068,-26.1251056],[20.8464371,-26.124241],[20.8489299,-26.1232481],[20.8506442,-26.1225718],[20.8519627,-26.1222911],[20.8532506,-26.1223558],[20.8545695,-26.122697],[20.8562314,-26.1233703],[20.8578355,-26.1243696],[20.8606928,-26.1263088],[20.8621064,-26.1280896],[20.86242,-26.1286],[20.862979,-26.1305107],[20.8630855,-26.1323937],[20.8626986,-26.133863],[20.8621151,-26.1349066],[20.8605099,-26.1369729],[20.8599655,-26.1375033],[20.8569693,-26.1402752],[20.8565211,-26.1407952],[20.8562185,-26.1414285],[20.8556869,-26.142767],[20.8553271,-26.1440918],[20.8538571,-26.1490318],[20.8535329,-26.1497495],[20.8500873,-26.154093],[20.8487272,-26.1558106],[20.8479403,-26.1568043],[20.8460415,-26.1592022],[20.8450321,-26.1602507],[20.8418864,-26.1635183],[20.8401009,-26.165373],[20.8381783,-26.1671537],[20.8364264,-26.16849],[20.8359939,-26.1687207],[20.8344971,-26.1695189],[20.831482,-26.1705696],[20.8289786,-26.1715384],[20.8277325,-26.1721585],[20.826529,-26.1728604],[20.8252663,-26.1738684],[20.8235538,-26.1755853],[20.8220811,-26.1772121],[20.8214844,-26.1782324],[20.8201914,-26.1802152],[20.8198773,-26.1807851],[20.8189957,-26.1823848],[20.8185137,-26.183423],[20.8174084,-26.1859093],[20.816053,-26.1895633],[20.8151251,-26.192386],[20.8149811,-26.193531],[20.8147484,-26.1971225],[20.8147418,-26.1995832],[20.8149036,-26.2008677],[20.8150108,-26.2017182],[20.8152371,-26.2027418],[20.8151377,-26.203837],[20.8161324,-26.2116464],[20.8162998,-26.212702],[20.8163284,-26.2136284],[20.8162247,-26.214261],[20.81593,-26.21512],[20.8149533,-26.2169628],[20.813228,-26.2199686],[20.8117609,-26.2229161],[20.8103766,-26.225417],[20.8095481,-26.2269882],[20.8090641,-26.227906],[20.8085598,-26.2289656],[20.8078443,-26.2307223],[20.8077846,-26.2308687],[20.8077604,-26.2309973],[20.8072772,-26.233567],[20.8070686,-26.2359381],[20.8068325,-26.2386219],[20.8064927,-26.2408521],[20.8060765,-26.2428115],[20.8054321,-26.2445283],[20.8035065,-26.2475455],[20.7943452,-26.2557746],[20.7932064,-26.2571934],[20.7926001,-26.2580754],[20.7919057,-26.2589979],[20.791511,-26.259658],[20.7913587,-26.2602732],[20.7911782,-26.2615667],[20.7911579,-26.2634704],[20.7911498,-26.2642265],[20.7911678,-26.2675505],[20.7906905,-26.269766],[20.7897188,-26.271312000000003],[20.7894217,-26.2717384],[20.787859,-26.2730159],[20.7861859,-26.274289],[20.785195,-26.2747732],[20.78229,-26.2760441],[20.7786365,-26.2779715],[20.7757649,-26.2798467],[20.7735974,-26.2812077],[20.7712487,-26.2823226],[20.7694187,-26.2828349],[20.7693728,-26.2828471],[20.7635625,-26.2843879],[20.762652,-26.2847298],[20.7614335,-26.285463],[20.7592103,-26.2873257],[20.7576813,-26.2891021],[20.7574036,-26.2894506],[20.7564839,-26.292128],[20.7560766,-26.2938882],[20.7560141,-26.2953289],[20.7558787,-26.2968626],[20.755839,-26.2970881],[20.7551614,-26.2985187],[20.7545354,-26.2997548],[20.7538132,-26.3011808],[20.7531604,-26.3024699],[20.7527204,-26.3032817],[20.751777,-26.3050226],[20.7510961,-26.306279],[20.7510794,-26.3063095],[20.7481763,-26.3116081],[20.7466064,-26.3140408],[20.7450054,-26.3162812],[20.7441834,-26.3172031],[20.7414947,-26.3202694],[20.7399381,-26.3219858],[20.739111,-26.3227384],[20.7369295,-26.3243532],[20.7360726,-26.3248742],[20.7323279,-26.326542],[20.7300763,-26.3276567],[20.7281217,-26.3286244],[20.7252609,-26.3300407],[20.7230773,-26.3313292],[20.7212428,-26.3327107],[20.7206151,-26.3333353],[20.7200969,-26.3340442],[20.7182876,-26.3363144],[20.7176497,-26.3372926],[20.7168693,-26.3389445],[20.7165344,-26.3397442],[20.7153742,-26.3428535],[20.7142618,-26.3467945],[20.7132244,-26.3487101],[20.711864,-26.351045],[20.7094411,-26.3544608],[20.7074381,-26.3567019],[20.7050432,-26.3589782],[20.7034696,-26.3605835],[20.7017282,-26.3623598],[20.7005341,-26.36376],[20.6995721,-26.3650031],[20.6990211,-26.3658549],[20.6978371,-26.3679818],[20.6976821,-26.3684137],[20.6972395,-26.3697307],[20.6972971,-26.3732118],[20.6984971,-26.3829018],[20.698458,-26.3832693],[20.6978728,-26.3860377],[20.6969162,-26.3908427],[20.6933722,-26.3969931],[20.6927775,-26.3974835],[20.6922652,-26.3977277],[20.691117,-26.3981416],[20.6903719,-26.3982436],[20.6882573,-26.3984001],[20.6866384,-26.3985605],[20.6848099,-26.398505],[20.6830251,-26.3983436],[20.6811515,-26.3983209],[20.6802594,-26.3982631],[20.6794072,-26.3980955],[20.6783908,-26.3980018],[20.6775321,-26.3980511],[20.6768455,-26.3982498],[20.6764415,-26.3985346],[20.6761553,-26.3987936],[20.6758354,-26.3992133],[20.6752785,-26.4000006],[20.6742978,-26.4014682],[20.6729284,-26.4031945],[20.6725691,-26.4036571],[20.6710507,-26.4056123],[20.6694967,-26.4071831],[20.666019,-26.4106984],[20.6638516,-26.4128892],[20.6605944,-26.416236],[20.6581,-26.42087],[20.6557373,-26.425448],[20.65142,-26.43163],[20.64676,-26.43491],[20.6465,-26.43502],[20.6459374,-26.4350757],[20.6444471,-26.4350218],[20.6428271,-26.4349983],[20.6399629,-26.4347998],[20.6381371,-26.4346918],[20.6361271,-26.4345918],[20.6344871,-26.4345918],[20.6326828,-26.4346382],[20.6288671,-26.4347818],[20.6273471,-26.4348418],[20.6268826,-26.4349367],[20.6263708,-26.4351543],[20.625577,-26.4356153],[20.624508,-26.4363014],[20.6236645,-26.4370549],[20.6208725,-26.4399937],[20.6184831,-26.4424636],[20.6174897,-26.4433012],[20.6172193,-26.4436014],[20.6169139,-26.4442324],[20.6167218,-26.445382],[20.616702,-26.4464681],[20.6167175,-26.4475173],[20.6168245,-26.4515774],[20.6167848,-26.4544357],[20.6166402,-26.4568734],[20.6165502,-26.4624734],[20.6164763,-26.4664629],[20.6163287,-26.4677967],[20.6156177,-26.469866],[20.6151005,-26.4713715],[20.6145568,-26.4731263],[20.6142416,-26.4737512],[20.6139913,-26.4740897],[20.6138089,-26.4744362],[20.6135501,-26.4746725],[20.6135084,-26.4747364]]},"properties":{"boat":"no","intermittent":"yes","name":"Nossob","tidal":"no","waterway":"river"}},
{"type":"Feature","geometry":{"type":"LineString","coordinates":[[20.6851523,-26.9071135],[20.6850205,-26.9072972]]},"properties":{"intermittent":"yes","layer":"-1","name":"Molopo","tunnel":"culvert","waterway":"river"}},
{"type":"Feature","geometry":{"type":"LineString","coordinates":[[22.8302416,-25.6573685],[22.8305045,-25.6587248],[22.8304937,-25.6623054],[22.8303623,-25.662685],[22.8264919,-25.6680713],[22.8245983,-25.670426],[22.824389,-25.6709167],[22.8237936,-25.6727733],[22.8235468,-25.6732641],[22.8226402,-25.6747508],[22.8221682,-25.6755122],[22.8216264,-25.6770062],[22.8215539,-25.6774389],[22.8215593,-25.6778136],[22.8210068,-25.6801607],[22.8207707,-25.6826457],[22.8209746,-25.6864939],[22.8211033,-25.6888143],[22.820878,-25.6905643],[22.8204757,-25.6917148],[22.8199017,-25.6931167],[22.8191775,-25.694185],[22.8186786,-25.6949536],[22.816962,-25.6975591],[22.8130674,-25.703229],[22.8104657,-25.7082704],[22.8092104,-25.7101361],[22.8079659,-25.7122531],[22.8062975,-25.7146842],[22.8050047,-25.7164773],[22.8032827,-25.718715],[22.8016359,-25.7207786],[22.7997583,-25.7230066],[22.7973926,-25.7242196],[22.7956974,-25.7253746],[22.7935785,-25.7268728],[22.7925324,-25.7271482],[22.7915722,-25.7273077],[22.790451,-25.7276943],[22.7891475,-25.7281486],[22.7880639,-25.7282839],[22.7814388,-25.7291054],[22.7780485,-25.7296419],[22.7757955,-25.7296998],[22.7740842,-25.7298013],[22.7722871,-25.7303764],[22.7712464,-25.7309176],[22.7700609,-25.7320001],[22.7693796,-25.7327153],[22.7677327,-25.7353514],[22.7669281,-25.7369968],[22.7665579,-25.7384706],[22.7662146,-25.7397221],[22.7658954,-25.741696],[22.7659598,-25.7441942],[22.7652195,-25.7489318],[22.7644175,-25.7524928],[22.7638811,-25.7588124],[22.7636826,-25.7631895],[22.763806,-25.7709916],[22.7639025,-25.7743539],[22.7639562,-25.7786241],[22.763409,-25.7813775],[22.7623093,-25.7840391],[22.7605927,-25.7872222],[22.7602172,-25.7878501],[22.758522,-25.7890046],[22.7564621,-25.7898015],[22.7548206,-25.789903],[22.7524656,-25.7896276],[22.7470046,-25.7886761],[22.7443653,-25.7880675],[22.7418226,-25.7874492],[22.7403098,-25.7874106],[22.7389955,-25.7874299],[22.7382767,-25.7876763],[22.7367103,-25.7887292],[22.7363348,-25.7891736],[22.7347523,-25.7926512],[22.734704,-25.7937477],[22.7351278,-25.7950904],[22.7359271,-25.7962399],[22.7385771,-25.7983408],[22.7394837,-25.7989397],[22.7420747,-25.8001472],[22.744199,-25.8011227],[22.7465379,-25.8024992],[22.7481124,-25.8037669],[22.7510306,-25.8061986],[22.752538,-25.8065366],[22.7546301,-25.8069061],[22.7557459,-25.8074687],[22.7580258,-25.8086857],[22.760708,-25.8102069],[22.7618131,-25.8104436],[22.7677118,-25.8113916],[22.7712089,-25.8122594],[22.7733171,-25.8131359],[22.7763078,-25.8144494],[22.7777803,-25.8153645],[22.7784777,-25.8160285],[22.7799395,-25.8182353],[22.7816614,-25.8232597],[22.7813239,-25.8277654],[22.7812511,-25.8287378],[22.780602,-25.8301791],[22.7779815,-25.834544],[22.7747548,-25.8381917],[22.7715871,-25.8412334],[22.767427,-25.8436498],[22.7653724,-25.8446395],[22.7622878,-25.8468023],[22.7593428,-25.8490231],[22.7564943,-25.8502928],[22.7528518,-25.8516735],[22.7481526,-25.8527983],[22.7445692,-25.8533728],[22.7417421,-25.8540438],[22.7388507,-25.8548741],[22.7370429,-25.8556079],[22.7360988,-25.8562547],[22.7352726,-25.857925],[22.7347791,-25.8597787],[22.7346772,-25.8606283],[22.7347362,-25.8623564],[22.7358627,-25.8654554],[22.7380997,-25.870123],[22.7402615,-25.8734004],[22.7408999,-25.8750221],[22.7408516,-25.8768611],[22.7398431,-25.8793612],[22.7381802,-25.8813207],[22.7370536,-25.8822281],[22.7326924,-25.8840042],[22.7265769,-25.8855292],[22.7237499,-25.8865138],[22.7179992,-25.8878458],[22.7151775,-25.889477],[22.7138364,-25.8905291],[22.7130425,-25.892083],[22.7124953,-25.8941485],[22.7125704,-25.8970247],[22.7140349,-25.9016332],[22.7151668,-25.9031484],[22.7183586,-25.9059326],[22.7230364,-25.9086638],[22.7266574,-25.9091077],[22.7283847,-25.9094068],[22.732805,-25.9108448],[22.7360129,-25.9118966],[22.7411413,-25.912852],[22.7455643,-25.9138629],[22.7474606,-25.9152549],[22.7489787,-25.9178748],[22.7491182,-25.9187819],[22.7486515,-25.920764900000003],[22.7481204,-25.9219276],[22.7473426,-25.9232062],[22.7456313,-25.9244606],[22.7438772,-25.9252856],[22.7386147,-25.9297434],[22.7350473,-25.9321121],[22.7315015,-25.9356193],[22.7266896,-25.9424743],[22.7249891,-25.9469411],[22.7243346,-25.9490683],[22.7233046,-25.9525798],[22.7228165,-25.955715],[22.7228755,-25.9575093],[22.7239484,-25.9603116],[22.7261692,-25.9640687],[22.7270704,-25.9673435],[22.7286315,-25.9711486],[22.7292699,-25.9758844],[22.7290821,-25.9787007],[22.7285778,-25.9801185],[22.7278939,-25.9820739],[22.727336,-25.98347],[22.7268183,-25.9847527],[22.7262926,-25.9867779],[22.7257562,-25.9897097],[22.7244607,-26.0000523],[22.7245277,-26.0038998],[22.7245223,-26.0057006],[22.7246216,-26.0071132],[22.7253807,-26.0100179],[22.7255791,-26.0131853],[22.7255282,-26.0134312],[22.7251258,-26.0141447],[22.7240288,-26.0156778],[22.7217194,-26.0178447],[22.7205875,-26.0184329],[22.7179402,-26.018968],[22.7149281,-26.0194693],[22.7087107,-26.0201105],[22.7050281,-26.0195344],[22.7002644,-26.0192934],[22.6959515,-26.0182617],[22.6908982,-26.0167673],[22.6818645,-26.0141013],[22.6788551,-26.0130455],[22.6772511,-26.0128093],[22.6768219,-26.0128913],[22.6763016,-26.0132046],[22.6730078,-26.0130696],[22.6703846,-26.0134457],[22.6694512,-26.0136723],[22.6686037,-26.0141254],[22.6678848,-26.0151764],[22.6656532,-26.0178134],[22.6648861,-26.0202768],[22.6639742,-26.0248419],[22.6641083,-26.0254926],[22.665326,-26.0275943],[22.6662058,-26.0293393],[22.6677346,-26.0319037],[22.6680189,-26.0330268],[22.6683301,-26.0347162],[22.6692742,-26.0369937],[22.670449,-26.0399483],[22.6713207,-26.0419895],[22.6717177,-26.0436692],[22.6718706,-26.0445415],[22.6719832,-26.047414],[22.6716828,-26.0495033],[22.6707494,-26.0516214],[22.6702398,-26.0538913],[22.6701111,-26.0552889],[22.6708621,-26.0619778],[22.6711678,-26.0631103],[22.671833,-26.0654812],[22.6729757,-26.0698036],[22.6730508,-26.0707528],[22.6730025,-26.0725453],[22.6729381,-26.0732922],[22.6724231,-26.0738174],[22.6690757,-26.07627],[22.6669139,-26.077518],[22.6654226,-26.0782503],[22.6605785,-26.0799175],[22.6597685,-26.0803174],[22.6564693,-26.0825144],[22.6535404,-26.0845429],[22.6519686,-26.0853667],[22.6473445,-26.0875011],[22.6438469,-26.0886863],[22.6386917,-26.0902184],[22.6371735,-26.0904689],[22.6365352,-26.0907194],[22.6347488,-26.0923623],[22.6320827,-26.0939906],[22.6309079,-26.0950505],[22.6295614,-26.0968186],[22.6292396,-26.0972521],[22.6289231,-26.0992417],[22.6287514,-26.1020069],[22.6303017,-26.1054416],[22.6318413,-26.1076141],[22.6344216,-26.1105573],[22.6362401,-26.1123685],[22.6365244,-26.1131633],[22.6365995,-26.1145746],[22.6364332,-26.1153646],[22.6353389,-26.1176429],[22.6340729,-26.1192324],[22.6333541,-26.1199308],[22.6287138,-26.1227629],[22.6279521,-26.1230952],[22.6262945,-26.1233457],[22.6181406,-26.1236684],[22.6169711,-26.1240103],[22.6137632,-26.1250459],[22.6093376,-26.1270109],[22.608844,-26.1273577],[22.6074225,-26.1290097],[22.6064676,-26.130599],[22.6053786,-26.1328048],[22.6046759,-26.1349768],[22.6046812,-26.1355065],[22.6055664,-26.1385694],[22.606194,-26.1438956],[22.6060277,-26.1443819],[22.6052821,-26.1460481],[22.6051426,-26.1467753],[22.6045686,-26.1490289],[22.6040858,-26.1493563],[22.5998855,-26.1512054],[22.5985229,-26.1511428],[22.5972891,-26.1506805],[22.5956798,-26.1498282],[22.5942743,-26.1490048],[22.5924504,-26.1474879],[22.5916994,-26.1462648],[22.5898808,-26.1436066],[22.5884271,-26.1418586],[22.5876546,-26.1413144],[22.5842428,-26.1402501],[22.5819039,-26.1399178],[22.5812656,-26.1399708],[22.5809437,-26.1401586],[22.578063,-26.1418875],[22.5776982,-26.1423546],[22.576974,-26.1437704],[22.5762874,-26.1458699],[22.575885,-26.1470112],[22.575767,-26.1475987],[22.5757939,-26.1481043],[22.5759387,-26.1486485],[22.5779396,-26.1551202],[22.5781488,-26.1663437],[22.5777036,-26.1721837],[22.5778377,-26.1867994],[22.5772905,-26.1899596],[22.5771028,-26.1916179],[22.5758743,-26.1934278],[22.5729507,-26.1975337],[22.5683856,-26.2011605],[22.5681402,-26.2014192],[22.5662988,-26.202886],[22.5637615,-26.2051097],[22.5631338,-26.2057258],[22.5616103,-26.2083633],[22.5603765,-26.2113232],[22.5591856,-26.2154765],[22.5582147,-26.2185855],[22.556895,-26.221035],[22.5516057,-26.2247357],[22.5490951,-26.2256019],[22.5416279,-26.2263718],[22.5385165,-26.2269493],[22.5333023,-26.226853],[22.5295257,-26.2260446],[22.5262856,-26.2246972],[22.5228739,-26.2222718],[22.5187111,-26.2184603],[22.5153422,-26.2162754],[22.5106323,-26.2142349],[22.5058579,-26.2127718],[22.5013626,-26.2116071],[22.4957621,-26.2104424],[22.4941635,-26.209836],[22.4871415,-26.2063153],[22.4847007,-26.2046476],[22.4823403,-26.2027609],[22.4800444,-26.201548],[22.4775123,-26.2006142],[22.4753451,-26.199873],[22.4745136,-26.1997093],[22.4734783,-26.1997911],[22.4701202,-26.2011725],[22.4684465,-26.2022988],[22.4676204,-26.2029293],[22.4656409,-26.205591],[22.4635059,-26.2110248],[22.4602175,-26.2217135],[22.4578679,-26.2240427],[22.4540377,-26.2273102],[22.4520796,-26.2278155],[22.4438667,-26.2288212],[22.4418282,-26.2286624],[22.4341357,-26.2268723],[22.4283099,-26.2241101],[22.4261534,-26.2230514],[22.4244046,-26.22283],[22.4225914,-26.2227915],[22.4217117,-26.222984],[22.419523,-26.2240235],[22.4187934,-26.2246491],[22.4180531,-26.2257655],[22.4166155,-26.2298462],[22.415092,-26.236169],[22.4140835,-26.2378531],[22.4129033,-26.2390175],[22.4108219,-26.2404322],[22.4027967,-26.2432613],[22.4016166,-26.2437329],[22.4011445,-26.2441082],[22.3983657,-26.2471008],[22.397722,-26.2480727],[22.3976254,-26.2492178],[22.3976576,-26.2515849],[22.3982263,-26.2540097],[22.3993528,-26.2564344],[22.4012625,-26.2587148],[22.4044812,-26.2626789],[22.4054253,-26.2648148],[22.4054468,-26.2665369],[22.4050391,-26.26849],[22.4028182,-26.271838],[22.4004257,-26.2737044],[22.3949754,-26.2780528],[22.3862851,-26.2844499],[22.3851907,-26.2848828],[22.3810816,-26.2857486],[22.3802769,-26.285787],[22.3684323,-26.2836996],[22.3673379,-26.2838247],[22.3653746,-26.284296],[22.3628747,-26.2854215],[22.3621988,-26.2859698],[22.3617375,-26.2876724],[22.3614371,-26.2896155],[22.3624349,-26.2932226],[22.3650849,-26.2992631],[22.3658466,-26.3023794],[22.3660397,-26.305159],[22.3665011,-26.3156804],[22.366029,-26.319931],[22.364012,-26.3231814],[22.3626602,-26.3250565],[22.3611367,-26.3258451],[22.3588407,-26.3270567],[22.3568344,-26.3274125],[22.3524785,-26.3270759],[22.3513734,-26.3267105],[22.3420715,-26.3209023],[22.340194,-26.3200849],[22.3391747,-26.3199406],[22.33513,-26.3203637],[22.326386,-26.3218351],[22.3244655,-26.3223063],[22.3229527,-26.3228736],[22.320807,-26.3238641],[22.32041,-26.3242969],[22.317599,-26.3278452],[22.3172879,-26.3288356],[22.313168,-26.3389415],[22.3120952,-26.3408933],[22.3113656,-26.341499],[22.3093057,-26.342422],[22.3061299,-26.3435374],[22.3049927,-26.3438546],[22.3025036,-26.3438835],[22.3006797,-26.3434604],[22.2915172,-26.3405472],[22.2901761,-26.3399222],[22.2890174,-26.3394511],[22.2879445,-26.339403],[22.2845864,-26.3395953],[22.2800261,-26.3397],[22.2779073,-26.3400309],[22.2758603,-26.3405226],[22.2734153,-26.3412054],[22.2727431,-26.3413127],[22.2677864,-26.3426004],[22.2655115,-26.3432711],[22.2631535,-26.3437466],[22.2613211,-26.3443195],[22.2601153,-26.3442495],[22.2583709,-26.3446529],[22.2501576,-26.3479792],[22.2467458,-26.3487003],[22.2444928,-26.3498348],[22.2426045,-26.3513346],[22.2405231,-26.3540937],[22.2394717,-26.3559973],[22.2391927,-26.3578238]]},"properties":{"intermittent":"yes","name":"Molopo","waterway":"river"}},
{"type":"Feature","geometry":{"type":"LineString","coordinates":[[22.2391927,-26.3578238],[22.2391391,-26.3617557],[22.2388708,-26.365697],[22.2402227,-26.3686096],[22.2396111,-26.3705994],[22.2376585,-26.3723488],[22.2305131,-26.375838],[22.228724,-26.3766224],[22.2265541,-26.3774144],[22.2254598,-26.378068],[22.2146451,-26.3861608],[22.2126174,-26.3871796],[22.1995282,-26.3919369],[22.194035,-26.3951564],[22.1911061,-26.4001537],[22.1908164,-26.4011628],[22.1911704,-26.4032385],[22.1921682,-26.4054102],[22.1984661,-26.4118388],[22.1996999,-26.4140873],[22.2015774,-26.4203616],[22.2007406,-26.4246949],[22.1985733,-26.4278462],[22.1967816,-26.4299791],[22.1942389,-26.4313722],[22.1840143,-26.4362046],[22.1823299,-26.4385678],[22.1814072,-26.443227],[22.1820187,-26.4488754],[22.18454,-26.4545427],[22.1858597,-26.4582792],[22.1857631,-26.4613912],[22.1849584,-26.4652907],[22.18408,-26.4668338],[22.1819758,-26.4701504],[22.1808815,-26.4713509],[22.1793473,-26.4723786],[22.1730709,-26.4747891],[22.1677172,-26.4774301],[22.1605933,-26.4830768],[22.15922,-26.486169],[22.1588445,-26.487811],[22.1592629,-26.4900676],[22.1605289,-26.4929003],[22.1649063,-26.4978549],[22.1656573,-26.4993048],[22.1662366,-26.5024733],[22.1656465,-26.5075331],[22.1626317,-26.5107302],[22.1580613,-26.5134664],[22.1492529,-26.5171817],[22.1430838,-26.5202057],[22.13449,-26.5251495],[22.1333313,-26.5269734],[22.1325803,-26.5332992],[22.1337497,-26.5366492],[22.1342969,-26.5394231],[22.1341896,-26.5434063],[22.1335351,-26.5446349],[22.1319044,-26.5461225],[22.1301234,-26.5471495],[22.1285999,-26.5474566],[22.1246087,-26.5478501],[22.1198022,-26.546564],[22.116251,-26.5464489],[22.1127319,-26.5469767],[22.1074319,-26.5502111],[22.1044117,-26.5535845],[22.1038699,-26.5556239],[22.1013969,-26.5650189],[22.1002972,-26.5675331],[22.0978349,-26.570906],[22.0958179,-26.5721199],[22.0946592,-26.572734],[22.0937741,-26.573089],[22.0868459,-26.574406],[22.0838338,-26.5754927],[22.0814145,-26.576836],[22.0805025,-26.577666],[22.0778096,-26.5805061],[22.07708,-26.5815951],[22.0764792,-26.5829912],[22.0758301,-26.5847758],[22.0747733,-26.5888438],[22.0730352,-26.5967203],[22.0719838,-26.6002794],[22.0706052,-26.6049081],[22.0696127,-26.6074309],[22.0685399,-26.6092535],[22.0668125,-26.6121936],[22.0643449,-26.6168169],[22.0598334,-26.6225767],[22.0524573,-26.6311942],[22.0504993,-26.6329253],[22.0481068,-26.6344597],[22.0459771,-26.634968],[22.044754,-26.6350351],[22.0375496,-26.6337261],[22.0313376,-26.6337021],[22.0295191,-26.6338987],[22.0253617,-26.6341001],[22.0239052,-26.6344813],[22.0220143,-26.6347378],[22.0200106,-26.6354835],[22.0174625,-26.6363802],[22.0145443,-26.6376629],[22.0132863,-26.6382886],[22.0116368,-26.6389431],[22.0105103,-26.6392428],[22.0103788,-26.6394298],[22.0103064,-26.6399093],[22.010124,-26.6406022],[22.0096707,-26.6413286],[22.0088875,-26.6416858],[22.0078656,-26.6421126],[22.0077342,-26.6424554],[22.0074445,-26.6434599],[22.0068303,-26.6439658],[22.006039,-26.6442726],[22.0054597,-26.6445196],[22.0050412,-26.6448959],[22.0041963,-26.6453802],[22.0038047,-26.6454905],[22.0036438,-26.645584],[22.0034963,-26.6457806],[22.0027158,-26.6459724],[22.0024905,-26.6461953],[22.0016858,-26.6463703],[22.0008221,-26.6467227],[22.0007148,-26.6468905],[22.0004573,-26.6469289],[22.0000577,-26.6469289],[21.9999987,-26.6474899],[21.9996607,-26.6474443],[21.9994126,-26.6476529],[21.9985516,-26.6475186],[21.9981171,-26.6474383],[21.9978476,-26.6474947],[21.9973232,-26.6476013],[21.9968069,-26.6478027],[21.9961511,-26.6477967],[21.9960196,-26.6478674],[21.9959177,-26.6480233],[21.9956964,-26.6481311],[21.9942427,-26.6483337],[21.9935399,-26.6483745],[21.9903481,-26.6490121],[21.9867647,-26.6493717],[21.9851339,-26.6495731],[21.9829452,-26.6504649],[21.9803971,-26.651606],[21.9785732,-26.6526416],[21.9725811,-26.6568222],[21.9705749,-26.6580064],[21.9663745,-26.660648],[21.9583949,-26.6651327],[21.9546559,-26.6673738],[21.9535616,-26.6680977],[21.9507723,-26.6690412],[21.9487363,-26.6697348],[21.9441175,-26.66973],[21.9425029,-26.6693968],[21.9393218,-26.6683014],[21.9383347,-26.6677933],[21.9367281,-26.6665325],[21.9356739,-26.6661346],[21.9347942,-26.6660292],[21.9339788,-26.6661802],[21.9330319,-26.6661873],[21.9325351,-26.6662238],[21.932001,-26.6660397],[21.9290301,-26.6648283],[21.9272089,-26.6647252],[21.9262755,-26.6648139],[21.9246018,-26.6653173],[21.9227377,-26.6658614],[21.9196558,-26.6664271],[21.9145033,-26.6674362],[21.9094044,-26.6684908],[21.9080687,-26.6689078],[21.9068144,-26.6693503],[21.9061965,-26.6695502],[21.9036806,-26.6700439],[21.902023,-26.6700871],[21.8980426,-26.6694783],[21.8967431,-26.6692197],[21.8945289,-26.6687688],[21.8941587,-26.6687473],[21.8932468,-26.6688144],[21.8914014,-26.6690804],[21.8886924,-26.6696509],[21.8849105,-26.6705089],[21.8826444,-26.6706927],[21.881091,-26.670437],[21.8776256,-26.6694735],[21.86827,-26.6687976],[21.8652123,-26.6680641],[21.862978,-26.6676327],[21.8611917,-26.6672324],[21.8594214,-26.6668249],[21.8576351,-26.6659692],[21.8567955,-26.6656529],[21.8558273,-26.665394],[21.8548,-26.6654875],[21.8533087,-26.6652142],[21.8510985,-26.6649458],[21.8495321,-26.6646078],[21.8476814,-26.6642171],[21.8444058,-26.6634797],[21.8437354,-26.663378],[21.8434168,-26.6633606],[21.843256,-26.6633806],[21.8427617,-26.66351],[21.8424959,-26.6636059],[21.8418676,-26.6639754],[21.8413015,-26.6641864],[21.8410848,-26.6642475],[21.8408988,-26.6641916],[21.8398842,-26.6637545],[21.839675,-26.6637281],[21.8394631,-26.6638647],[21.8392271,-26.6642962],[21.8390608,-26.664718],[21.8389294,-26.6648547]]},"properties":{"intermittent":"yes","name":"Molopo","waterway":"river"}},
{"type":"Feature","geometry":{"type":"LineString","coordinates":[[20.6841615,-26.9077427],[20.6839594,-26.907907],[20.6835126,-26.9088622],[20.6823752,-26.9103505],[20.6817969,-26.9113906],[20.6809777,-26.912548],[20.6770749,-26.9171281],[20.6735948,-26.9224485],[20.6666318,-26.9291262],[20.6636594,-26.9324192],[20.6627632,-26.9328211],[20.6603971,-26.9354983],[20.6581456,-26.9376097],[20.6574224,-26.9383597],[20.6566845,-26.938706]]},"properties":{"intermittent":"yes","name":"Molopo","waterway":"river"}},
{"type":"Feature","geometry":{"type":"LineString","coordinates":[[20.6132896,-26.4759881],[20.6132997,-26.4761381],[20.6132094,-26.476814],[20.6132747,-26.4773716],[20.6132648,-26.4778816],[20.6128988,-26.4793252],[20.6120397,-26.4827241],[20.611456,-26.485219],[20.6113285,-26.4859519],[20.6112429,-26.4866285],[20.611164,-26.4882685],[20.6110332,-26.4926137],[20.6109222,-26.4981308],[20.610956,-26.4987052],[20.610904,-26.4993242],[20.610835,-26.4997881],[20.6106641,-26.5003862],[20.6104641,-26.500897],[20.6082277,-26.5054977],[20.6066102,-26.5092755],[20.6050196,-26.5139601],[20.6047847,-26.514975],[20.6045498,-26.5170049],[20.6042177,-26.5201055],[20.6042285,-26.5209542],[20.6053082,-26.5244516],[20.6075297,-26.5312313],[20.6088776,-26.5350337],[20.609409,-26.5383948],[20.6095738,-26.5397474],[20.60969,-26.5414818],[20.609456,-26.5481636],[20.609409,-26.5539993],[20.6094224,-26.5566529],[20.6098385,-26.5587781],[20.6104627,-26.5601709],[20.6135468,-26.5651047],[20.6168656,-26.5682151],[20.6201073,-26.5714806],[20.6224765,-26.5740077],[20.6269465,-26.5789598],[20.6278858,-26.5802536],[20.6289264,-26.5820869],[20.6301949,-26.5846198],[20.6310088,-26.5879644],[20.6314231,-26.5919841],[20.6314001,-26.5950058],[20.6314393,-26.5957692],[20.6318205,-26.5978347],[20.6321328,-26.6002817],[20.6320742,-26.6015912],[20.6322755,-26.6033986],[20.632446,-26.6052806],[20.6327587,-26.6109477],[20.6326245,-26.6193123],[20.6322755,-26.6216164],[20.6320376,-26.6224833],[20.631093,-26.6248176],[20.6306296,-26.6260761],[20.6302544,-26.6271372],[20.6299454,-26.62812],[20.6297385,-26.6289723],[20.6295803,-26.6304805],[20.6294562,-26.6330534],[20.6293519,-26.6352202],[20.6292619,-26.6381373],[20.6293556,-26.6390401],[20.6297323,-26.6431965],[20.6307036,-26.6467425],[20.6327185,-26.6529446],[20.6341145,-26.6594227],[20.6347071,-26.6623654],[20.6349137,-26.6634798],[20.6350335,-26.6642104],[20.635043,-26.6647409],[20.6347625,-26.6661304],[20.6343064,-26.6674787],[20.6341354,-26.6679401],[20.633924,-26.6682859],[20.6336471,-26.6685687],[20.6333493,-26.6688008],[20.6317122,-26.6697418],[20.6278139,-26.6717904],[20.6217826,-26.674146],[20.6207872,-26.6747091],[20.6186906,-26.6763052],[20.6177205,-26.6772677],[20.6169152,-26.6784046],[20.6164895,-26.6795115],[20.6159268,-26.6814449],[20.6153942,-26.6837428],[20.6151474,-26.6858114],[20.6151498,-26.6882781],[20.6158645,-26.6929974],[20.6169115,-26.7005275],[20.6185061,-26.7065817],[20.6198067,-26.7097906],[20.6217529,-26.712872],[20.6257957,-26.7176549],[20.6320792,-26.7250477],[20.6329066,-26.7260526],[20.6335118,-26.72704],[20.6342243,-26.7293543],[20.6342822,-26.7302121],[20.6342047,-26.7312683],[20.6336358,-26.7333725],[20.6307883,-26.7399506],[20.6279219,-26.7473758],[20.6276878,-26.7488701],[20.6278269,-26.7497491],[20.6298582,-26.7539361],[20.6340725,-26.7589027],[20.6374895,-26.7636487],[20.6383821,-26.7652845],[20.6384605,-26.7663664],[20.6383627,-26.7676318],[20.637634,-26.769769],[20.6356971,-26.773814],[20.6350596,-26.7749028],[20.6328385,-26.777733],[20.6294026,-26.780004],[20.6255679,-26.7842068],[20.6245837,-26.7849743],[20.6234987,-26.7861048],[20.6232734,-26.7865191],[20.623214,-26.7870199],[20.6231917,-26.7875884],[20.6233469,-26.788257],[20.6237165,-26.7888591],[20.6240493,-26.7891382],[20.6259096,-26.790138],[20.6320982,-26.7920867],[20.6358759,-26.7943744],[20.6407166,-26.7984242],[20.6426789,-26.8006431],[20.6444951,-26.8031693],[20.6476076,-26.8075738],[20.6485922,-26.8087414],[20.6489554,-26.8100814],[20.6489744,-26.8115893],[20.6485568,-26.8128938],[20.6453296,-26.8178917],[20.6442564,-26.8194388],[20.643697,-26.8205685],[20.6433695,-26.8213032],[20.6432604,-26.8221609],[20.6432794,-26.8235331],[20.6441336,-26.8255491],[20.6465635,-26.828395],[20.6490124,-26.8300721],[20.6520877,-26.8324097],[20.6546694,-26.8335108],[20.6586939,-26.8346457],[20.6626234,-26.8352217],[20.6682425,-26.8367123],[20.6725707,-26.8373898],[20.6760727,-26.8379025],[20.6783329,-26.8383353],[20.6810734,-26.8388966],[20.6827458,-26.839558],[20.6843973,-26.8407944],[20.6854559,-26.8421412],[20.6864465,-26.843711],[20.686915,-26.8452386],[20.6866809,-26.8461915],[20.6850428,-26.8484164],[20.6814119,-26.8518591],[20.6807335,-26.8528949],[20.6799399,-26.8544717],[20.6793288,-26.8567999],[20.6789919,-26.8599882],[20.679101,-26.8620837],[20.6804884,-26.8671209],[20.6807905,-26.8718548],[20.680677,-26.8755072],[20.6806842,-26.8769733],[20.6807905,-26.8798302],[20.6819295,-26.8841817],[20.683548300000003,-26.8879071],[20.6854604,-26.891479],[20.6872133,-26.8965798],[20.6877832,-26.8983226],[20.6880801,-26.8997916],[20.6879501,-26.9013739],[20.6876552,-26.9028869],[20.6874439,-26.9034973],[20.6868936,-26.9045476],[20.6852618,-26.9070073]]},"properties":{"boat":"no","intermittent":"yes","name":"Nossob","waterway":"river"}},
{"type":"Feature","geometry":{"type":"LineString","coordinates":[[20.6135084,-26.4747364],[20.6134208,-26.4749982]]},"properties":{"boat":"no","intermittent":"yes","layer":"-1","name":"Nossob","tunnel":"culvert","waterway":"river"}},
{"type":"Feature","geometry":{"type":"LineString","coordinates":[[20.6134208,-26.4749982],[20.6133397,-26.4753642],[20.6133028,-26.4756369]]},"properties":{"boat":"no","intermittent":"yes","name":"Nossob","waterway":"river"}},
{"type":"Feature","geometry":{"type":"LineString","coordinates":[[20.6133028,-26.4756369],[20.6132896,-26.4759881]]},"properties":{"boat":"no","intermittent":"yes","layer":"-1","name":"Nossob","tunnel":"culvert","waterway":"river"}},
{"type":"Feature","geometry":{"type":"LineString","coordinates":[[20.6850205,-26.9072972],[20.6846059,-26.9076886],[20.6845022,-26.90777],[20.6843626,-26.9078074]]},"properties":{"intermittent":"yes","name":"Molopo","waterway":"river"}},
{"type":"Feature","geometry":{"type":"LineString","coordinates":[[20.6843626,-26.9078074],[20.6842827,-26.9077622],[20.6841615,-26.9077427]]},"properties":{"intermittent":"yes","layer":"-1","name":"Molopo","tunnel":"culvert","waterway":"river"}}
]}
