{"type": "FeatureCollection", "features": [{"type": "Feature", "properties": {"kind": "TANGO", "staff": 5, "zone_uids": [280], "urgency": 1.0, "place": "Aluk (1930s village)", "site_people": 721, "road_km": 2.0, "reach": {"share": 0.285, "median_min": 339, "car_share": 0.96, "n_cells": 847}, "water": "settlement of 211 people (water implied by residence); no mapped river/well/JRC water within 3 km \u2014 verify", "season": "from month 09 (bundle onset) through the dry season", "why": "corridor zone 280 ranks 1/11 on herd \u00d7 people \u00d7 gold: bundles [4, 11, 15, 8] (2,137 fitted fronts), herd utilisation in band 550.16 of which 94% within 25 km of residents; 36 gold-target cells in the band; 5,426 people on corridor land. Site (adjudicated): 721 people, road 2.0 km, reaches 28% of targets within 4 h (96% by car/motorbike).", "towns": [], "alternatives": [{"name": "Bisellia", "people": 211, "road_km": 0.1, "reach": {"share": 0.362, "median_min": 300, "car_share": 0.99, "n_cells": 847}, "score": 1.527, "lon": 27.7252, "lat": 7.7155}, {"name": "Abang", "people": 305, "road_km": 5.7, "reach": {"share": 0.344, "median_min": 305, "car_share": 1.0, "n_cells": 847}, "score": 1.098, "lon": 28.0303, "lat": 7.6296}, {"name": "Aluk (1930s village)", "people": 721, "road_km": 2.0, "reach": {"share": 0.285, "median_min": 339, "car_share": 0.96, "n_cells": 847}, "score": 1.039, "lon": 27.5076, "lat": 8.457}], "adjudication": "muse-glimmer chose #3 (Aluk (1930s village)): Bisellia 211 has larger Abang 305 within 0.018 of its 0.362 reach share, and Abang 305 has larger Aluk 721 within 0.059 of its 0.344 reach share, so the only under-1000 hamlet with no larger site within 0.15 is Aluk 721 with reach share 0.285 and median 339 min.", "year": 1, "id": "T1", "footprint_km2": 26927, "brief": "Team is based at Aluk 1930s village, 721 people with 2 km road, chosen for access to corridor zone 280 that covers 5,426 people and 36 gold-target cells with 2,137 fitted fronts. The zone is bounded by tertiary road on the E/W, unnamed river order 4 on the E/NW and Low hill J. ABU RASEIN \u2013 J. NGAYA ridge on the NW/W. Scouts move with transhumant herders from month 09 onset through dry season, accompanying four bundles as they cross the corridor. Work is to monitor herd movement near communities, where 94% of utilisation lies within 25 km of residents, and watch for activity around gold-target cells while verifying water near the settlement of 211 people.", "first_season": "Verify water availability within 3 km of Aluk, as no mapped river, well or JRC water is recorded. Establish contact with herders of the month 09 onset bundle and map movement routes to gold-target cells reachable within 4 h on foot and 96% by car or motorbike.", "short": "Based at Aluk 1930s village, team travels with transhumant herders across corridor zone 280 to monitor herd movement and gold-target cells."}, "geometry": {"type": "Point", "coordinates": [27.5076, 8.457]}}, {"type": "Feature", "properties": {"kind": "ECHO", "staff": 5, "zone_uids": [273], "urgency": 0.919, "place": "Bandasi", "site_people": 25446, "road_km": 0.3, "reach": {"share": 0.818, "median_min": 95, "car_share": 1.0, "n_cells": 49}, "water": "Mbomou (HydroRIVERS) 2.6 km", "season": "year-round; village outreach in the rains, boundary walks Dec\u2013Feb", "why": "community zone 273 ranks 1/131 on gold-rush urgency: 11 top-5% gold-target cells, 0 model candidates, 0 abandoned-village-on-gold watchlist places, 2 reported workings; 29,158 people, people\u00d7threat 1,487, 1 settlements founded since 2015; shields core/corridor on 95% of its edge; budget rank C19. Site: 25,446 people, road 0.3 km, reaches 82% of the zone's targets within 4 h (100% of those trips by car/motorbike; median 95 min; OSRM car/foot/bush).", "towns": ["Bandasi", "Mboufo", "Mboufo"], "alternatives": [{"name": "Bandasi", "people": 25446, "road_km": 0.3, "reach": {"share": 0.818, "median_min": 95, "car_share": 1.0, "n_cells": 49}, "score": 8.298, "lon": 25.1492, "lat": 5.0537}, {"name": "Mboufo", "people": 2265, "road_km": 0.4, "reach": {"share": 0.818, "median_min": 99, "car_share": 0.95, "n_cells": 49}, "score": 6.162, "lon": 25.1019, "lat": 5.0135}, {"name": "Mboufo", "people": 1345, "road_km": 0.5, "reach": {"share": 0.727, "median_min": 106, "car_share": 0.91, "n_cells": 49}, "score": 5.002, "lon": 25.1469, "lat": 4.9765}], "adjudication": "muse-glimmer chose #1 (Bandasi): Bandasi has reach share 0.818 with median 95 min, tying the 0.818 reach share of the second site but beating its 99 min median. The site has 25,446 people and road 0.3 km, satisfying the settlement requirement.", "year": 1, "id": "E1", "footprint_km2": 2748, "brief": "Based in Bandasi, 25,446 people, road 0.3 km, Mbomou 2.6 km away, the team covers community zone 273 with 29,158 people including Bandasi and Mboufo. Ground is bounded by unnamed river on E/NE, Asa on SW/W and Mbomou on W/NW, with Gambara village marked on the west. Work is year-round with village outreach in the rains and boundary walks Dec\u2013Feb, reaching 82% of targets within 4 h by car or motorbike with median 95 min. The team meets residents to watch 11 top-5% gold-target cells, 0 model candidates, 0 abandoned-village-on-gold watchlist places and 2 reported workings, amid 20 km2 clearing since 2020 and 94% transhumance share.", "first_season": "Begin village outreach in the rains in Bandasi and Mboufo to map gold-target cells and reported workings. Conduct boundary walks Dec\u2013Feb along Asa and Mbomou to check shields core/corridor edge and mark the 6 km geological contact.", "short": "Based in Bandasi, team covers community zone 273 along Mbomou and Asa to monitor gold rush pressure and community exposure."}, "geometry": {"type": "Point", "coordinates": [25.1492, 5.0537]}}, {"type": "Feature", "properties": {"kind": "ECHO", "staff": 5, "zone_uids": [145], "urgency": 0.896, "place": "Songo", "site_people": 34320, "road_km": 3.8, "reach": {"share": 0.779, "median_min": 145, "car_share": 0.94, "n_cells": 45}, "water": "Umbelasha (HydroRIVERS) 1.4 km", "season": "year-round; village outreach in the rains, boundary walks Dec\u2013Feb", "why": "community zone 145 ranks 2/131 on gold-rush urgency: 6 top-5% gold-target cells, 0 model candidates, 0 abandoned-village-on-gold watchlist places, 6 reported workings; 37,847 people, people\u00d7threat 1,438, 1 settlements founded since 2015; shields core/corridor on 58% of its edge; budget rank C20. Site: 34,320 people, road 3.8 km, reaches 78% of the zone's targets within 4 h (94% of those trips by car/motorbike; median 145 min; OSRM car/foot/bush).", "towns": ["Songo", "Songo"], "alternatives": [{"name": "Songo", "people": 34320, "road_km": 3.8, "reach": {"share": 0.779, "median_min": 145, "car_share": 0.94, "n_cells": 45}, "score": 7.891, "lon": 24.3539, "lat": 9.7814}, {"name": "\u0623\u0645 \u062d\u062c\u0627\u0631", "people": 579, "road_km": 0.1, "reach": {"share": 0.779, "median_min": 235, "car_share": 1.0, "n_cells": 45}, "score": 4.957, "lon": 24.5197, "lat": 9.4923}, {"name": "Songo", "people": 1157, "road_km": 7.4, "reach": {"share": 0.779, "median_min": 138, "car_share": 1.0, "n_cells": 45}, "score": 3.847, "lon": 24.3099, "lat": 9.7904}], "adjudication": "muse-glimmer chose #1 (Songo): First entry has 34,320 people, reach share 0.779 and median 145 min. The 579-person hamlet shares reach 0.779 with larger sites within 0.15, so it is disqualified under rule 1.", "year": 1, "id": "E2", "footprint_km2": 2511, "brief": "Team is based in Songo with 34,320 people, 3.8 km road and Umbelasha 1.4 km away, covering community zone 145 with 37,847 people and 1 settlement founded since 2015. Ground is bounded on the N/NE by Umbelasha, on the SW by J. KOAYA \u2013 J. NOAYA 4428 \u2013 J. HELISI ridge and on the S/SE by Adda, with shields core/corridor on 58% of the edge. Work is year-round with village outreach in the rains and boundary walks Dec\u2013Feb, meeting residents in Songo. It watches for activity on 6 top-5% gold-target cells and 6 reported workings.", "first_season": "Begin village outreach in Songo during the rains and start boundary walks Dec\u2013Feb along Umbelasha and the ridge. Place beacons for the 34 km geological contact stretch that is not visible on the ground.", "short": "Based in Songo, team covers community zone 145 to monitor gold-target cells and reported workings along Umbelasha and ridge boundaries."}, "geometry": {"type": "Point", "coordinates": [24.3539, 9.7814]}}, {"type": "Feature", "properties": {"kind": "ECHO", "staff": 5, "zone_uids": [248], "urgency": 0.895, "place": "Tambura", "site_people": 31951, "road_km": 1.6, "reach": {"share": 1.0, "median_min": 74, "car_share": 1.0, "n_cells": 39}, "water": "settlement of 31,951 people (water implied by residence); no mapped river/well/JRC water within 3 km \u2014 verify", "season": "year-round; village outreach in the rains, boundary walks Dec\u2013Feb", "why": "community zone 248 ranks 3/131 on gold-rush urgency: 8 top-5% gold-target cells, 1 model candidates, 2 abandoned-village-on-gold watchlist places, 0 reported workings; 35,817 people, people\u00d7threat 2,579, 0 settlements founded since 2015; shields core/corridor on 49% of its edge; budget rank C18. Site: 31,951 people, road 1.6 km, reaches 100% of the zone's targets within 4 h (100% of those trips by car/motorbike; median 74 min; OSRM car/foot/bush).", "towns": ["Tambura", "Yubo"], "alternatives": [{"name": "Tambura", "people": 31951, "road_km": 1.6, "reach": {"share": 1.0, "median_min": 74, "car_share": 1.0, "n_cells": 39}, "score": 10.372, "lon": 27.5063, "lat": 5.5828}, {"name": "Yubo", "people": 2911, "road_km": 2.0, "reach": {"share": 1.0, "median_min": 99, "car_share": 1.0, "n_cells": 39}, "score": 7.977, "lon": 27.2867, "lat": 5.3994}, {"name": "Yubo* (nearest_place, unverified)", "people": 391, "road_km": 0.2, "reach": {"share": 1.0, "median_min": 117, "car_share": 1.0, "n_cells": 39}, "score": 5.971, "lon": 27.3015, "lat": 5.2797}], "adjudication": "muse-glimmer chose #1 (Tambura): Tambura has reach share 1.0 with median 74 min, shorter than Yubo 99 min and Yubo* 117 min, both also at reach share 1.0. It has 31951 people and road 1.6 km, satisfying the preference rules.", "year": 2, "id": "E3", "footprint_km2": 2243, "brief": "Team is based in Tambura, about 32,000 people with 2 km road access, to cover community zone 248 because it holds 8 gold-target cells, 1 model candidate and 2 abandoned-village watchlist places with no reported workings. The zone around Tambura and Yubo is bounded by unnamed river order 4 on the east and south for 40 km, Tambura-Yubo Road on the west and north-west for 26 km, and Yambio-Tambura road on the east and north for 6 km. Village outreach happens in the rains and boundary walks run December to February, with all targets reachable within 4 hours by car or motorbike, median about 74 minutes. The team watches for new gold rush activity and pressure on shields core corridor along 49% of the edge.", "first_season": "First verify water access within 3 km of the Tambura base as no mapped river, well or JRC water is recorded nearby. Then start village outreach in the rains and plan boundary walks December to February along the river and road edges.", "short": "Based in Tambura, team covers community zone 248 on unnamed river, Tambura-Yubo Road and Yambio-Tambura road to monitor gold-target cells and abandoned villages."}, "geometry": {"type": "Point", "coordinates": [27.5063, 5.5828]}}, {"type": "Feature", "properties": {"kind": "ECHO", "staff": 5, "zone_uids": [195], "urgency": 0.891, "place": "Cueibet", "site_people": 5455, "road_km": 0.8, "reach": {"share": 0.883, "median_min": 90, "car_share": 1.0, "n_cells": 30}, "water": "Wahko (HydroRIVERS) 2.7 km", "season": "year-round; village outreach in the rains, boundary walks Dec\u2013Feb", "why": "community zone 195 ranks 4/131 on gold-rush urgency: 15 top-5% gold-target cells, 1 model candidates, 1 abandoned-village-on-gold watchlist places, 0 reported workings; 43,227 people, people\u00d7threat 3,588, 6 settlements founded since 2015; shields core/corridor on 37% of its edge; budget rank C1. Site: 5,455 people, road 0.8 km, reaches 88% of the zone's targets within 4 h (100% of those trips by car/motorbike; median 90 min; OSRM car/foot/bush).", "towns": ["Cueibet", "River Gulnam", "Cueibet"], "alternatives": [{"name": "Cueibet", "people": 5455, "road_km": 0.8, "reach": {"share": 0.883, "median_min": 90, "car_share": 1.0, "n_cells": 30}, "score": 7.598, "lon": 29.3108, "lat": 7.0026}, {"name": "Cueibet", "people": 14319, "road_km": 2.2, "reach": {"share": 0.883, "median_min": 96, "car_share": 0.63, "n_cells": 30}, "score": 6.887, "lon": 29.2108, "lat": 7.0034}, {"name": "River Gulnam* (nearest_place, unverified)", "people": 10872, "road_km": 3.2, "reach": {"share": 0.825, "median_min": 109, "car_share": 0.56, "n_cells": 30}, "score": 5.981, "lon": 29.3962, "lat": 6.9206}], "adjudication": "muse-glimmer chose #1 (Cueibet): First and second sites tie on reach share 0.883, but first has shorter median 90 min versus 96 min. Third site is lower at reach share 0.825 with median 109 min.", "year": 2, "id": "E4", "footprint_km2": 2168, "brief": "Based in Cueibet with 5,455 people and 0.8 km road access, water Wahko 2.7 km away, the community scouts serve zone 195 year-round with village outreach in rains and boundary walks Dec\u2013Feb. The zone is bounded by Wahko on NW/SW for 44 km, River Gulnam on E/NE for 44 km and Rumbek-Tonj Road on N/NW for 10 km. The team reaches 88% of the zone's targets within 4 h by car or motorbike, median 90 min. It meets settled communities across 43,227 people with six settlements founded since 2015 and watches for 15 gold-target cells, one model candidate, one abandoned-village-on-gold watchlist place and zero reported workings.", "first_season": "First walk the Wahko and River Gulnam edges in Dec\u2013Feb to place beacons along the 4 km geological contact. Then run village outreach in the rains to check the 15 gold-target cells and the watchlist place near Cueibet.", "short": "Based in Cueibet, team covers community zone 195 along Wahko and River Gulnam to monitor gold-target cells and community exposure."}, "geometry": {"type": "Point", "coordinates": [29.3108, 7.0026]}}, {"type": "Feature", "properties": {"kind": "ECHO", "staff": 5, "zone_uids": [170], "urgency": 0.874, "place": "Wau", "site_people": 104260, "road_km": 0.3, "reach": {"share": 1.0, "median_min": 17, "car_share": 1.0, "n_cells": 28}, "water": "Nahr al Jur (HydroRIVERS) 2.6 km", "season": "year-round; village outreach in the rains, boundary walks Dec\u2013Feb", "why": "community zone 170 ranks 5/131 on gold-rush urgency: 8 top-5% gold-target cells, 1 model candidates, 1 abandoned-village-on-gold watchlist places, 0 reported workings; 117,344 people, people\u00d7threat 8,566, 3 settlements founded since 2015; shields core/corridor on 46% of its edge; budget rank C2. Site: 104,260 people, road 0.3 km, reaches 100% of the zone's targets within 4 h (100% of those trips by car/motorbike; median 17 min; OSRM car/foot/bush).", "towns": ["Wau", "Akej", "Nyin Akok"], "alternatives": [{"name": "Wau", "people": 104260, "road_km": 0.3, "reach": {"share": 1.0, "median_min": 17, "car_share": 1.0, "n_cells": 28}, "score": 11.555, "lon": 27.9834, "lat": 7.7111}, {"name": "Akej (1930s village)", "people": 3816, "road_km": 1.9, "reach": {"share": 1.0, "median_min": 34, "car_share": 1.0, "n_cells": 28}, "score": 8.247, "lon": 27.9375, "lat": 7.7977}, {"name": "Alelchok (1930s village)", "people": 3072, "road_km": 3.0, "reach": {"share": 1.0, "median_min": 39, "car_share": 1.0, "n_cells": 28}, "score": 8.03, "lon": 28.0047, "lat": 7.7909}], "adjudication": "muse-glimmer chose #1 (Wau): Wau has reach share 1.0 with median 17 min, the shortest median among the three sites with equal reach share 1.0. Its people 104260 exceeds 1,000 so rule 1 does not apply.", "year": 2, "id": "E5", "footprint_km2": 2193, "brief": "Team is based in Wau with 104,260 people and 0.3 km road access, reaching all targets within 4 h with median 17 min by car or motorbike. Zone 170 spans 84,800 ha with 117,344 people, including Wau, Akej and Nyin Akok, and three settlements founded since 2015. Ground is bounded by Nahr al Jur on NE/E, Wau - Raja road on SW/S and R. Asetti on N, with a 12 km geological contact needing beacons. Work is year-round with village outreach in rains and boundary walks Dec\u2013Feb with community members. Watch for eight top-5% gold-target cells, one model candidate and one abandoned-village-on-gold watchlist place with zero reported workings.", "first_season": "Start village outreach in rains with Wau, Akej and Nyin Akok to map local knowledge of gold-target cells and watchlist sites. Begin Dec\u2013Feb boundary walks along Nahr al Jur and Wau - Raja road and place beacons on the 12 km geological contact.", "short": "Based in Wau, community scouts cover zone 170 to monitor gold rush pressure around settled farmland and mining-exposed villages."}, "geometry": {"type": "Point", "coordinates": [27.9834, 7.7111]}}, {"type": "Feature", "properties": {"kind": "TANGO", "staff": 5, "zone_uids": [280], "urgency": 0.85, "place": "Busseri* (nearest_place, unverified)", "site_people": 158, "road_km": 0.2, "reach": {"share": 0.345, "median_min": 303, "car_share": 1.0, "n_cells": 847}, "water": "settlement of 721 people (water implied by residence); no mapped river/well/JRC water within 3 km \u2014 verify", "season": "from month 09 (bundle onset) through the dry season", "why": "corridor zone 280 ranks 1/11 on herd \u00d7 people \u00d7 gold: bundles [4, 11, 15, 8] (2,137 fitted fronts), herd utilisation in band 550.16 of which 94% within 25 km of residents; 36 gold-target cells in the band; 5,426 people on corridor land. Second team: the zone spans 4 bundles and 2.6 M ha; this site is > 50 km from the first. Site: 721 people, road 2.0 km, reaches 28% of the zone's targets within 4 h (96% of those trips by car/motorbike; median 339 min; OSRM car/foot/bush).", "towns": [], "alternatives": [{"name": "Aluk (1930s village)", "people": 721, "road_km": 2.0, "reach": {"share": 0.285, "median_min": 339, "car_share": 0.96, "n_cells": 847}, "score": 1.039, "lon": 27.5076, "lat": 8.457}, {"name": "Busseri River* (nearest_place, unverified)", "people": 599, "road_km": 0.7, "reach": {"share": 0.289, "median_min": 338, "car_share": 0.99, "n_cells": 847}, "score": 0.707, "lon": 27.506, "lat": 8.5516}, {"name": "Busseri* (nearest_place, unverified)", "people": 158, "road_km": 0.2, "reach": {"share": 0.345, "median_min": 303, "car_share": 1.0, "n_cells": 847}, "score": 0.655, "lon": 26.6985, "lat": 7.7258}], "adjudication": "muse-glimmer chose #1 (Aluk (1930s village)): Aluk is 721 people with reach share 0.285 and median 339 min. No larger site exists in the shortlist, so the under-1,000 hamlet condition is met and the first entry is retained. \u2192 moved to Busseri* (nearest_place, unverified): the chosen site was within 50 km of a higher-urgency TANGO site", "year": 1, "id": "T2", "footprint_km2": 26329, "brief": "The team is based at Busseri near a settlement of 721 people with road 0.2 km away and water to verify within 3 km, covering corridor zone 280 of about 2.6 M ha in SSD with 5,426 people. Ground is bounded by tertiary road on the E/W, unnamed river order 4 on the E/NW, and Low hill J. ABU RASEIN J. NGAYA ridge on the NW/W, with 36 gold-target cells across four bundles. Scouts travel with transhumant herders from month 09 onset through the dry season, meeting herders moving along fronts. They watch for herd movement, use of land near residents, and activity around gold-target cells and reported workings.", "first_season": "Verify water sources within 3 km of Busseri and confirm road access for car and motorbike trips with median 339 min. Establish contact with herders on bundle 4 as onset month 09 begins and map current front lines near Abu Ras and Rihan.", "short": "Based at Busseri, scouts travel with transhumant herders across corridor zone 280 to monitor herd movement and gold-target cells."}, "geometry": {"type": "Point", "coordinates": [26.6985, 7.7258]}}, {"type": "Feature", "properties": {"kind": "TANGO", "staff": 5, "zone_uids": [292], "urgency": 0.85, "place": "Maridi", "site_people": 4344, "road_km": 0.1, "reach": {"share": 0.256, "median_min": 333, "car_share": 1.0, "n_cells": 393}, "water": "settlement of 430 people (water implied by residence); no mapped river/well/JRC water within 3 km \u2014 verify", "season": "from month 10 (bundle onset) through the dry season", "why": "corridor zone 292 ranks 2/11 on herd \u00d7 people \u00d7 gold: bundles [5, 14, 7, 10] (2,225 fitted fronts), herd utilisation in band 391.88 of which 100% within 25 km of residents; 9 gold-target cells in the band; 3,345 people on corridor land. Site (adjudicated): 4,344 people, road 0.1 km, reaches 26% of targets within 4 h (100% by car/motorbike).", "towns": [], "alternatives": [{"name": "Kozi", "people": 430, "road_km": 0.1, "reach": {"share": 0.273, "median_min": 375, "car_share": 0.98, "n_cells": 393}, "score": 1.458, "lon": 29.6298, "lat": 5.3707}, {"name": "Makpandu* (nearest_place, unverified)", "people": 1714, "road_km": 0.0, "reach": {"share": 0.202, "median_min": 353, "car_share": 1.0, "n_cells": 393}, "score": 0.868, "lon": 28.6746, "lat": 4.738}, {"name": "Maridi", "people": 4344, "road_km": 0.1, "reach": {"share": 0.256, "median_min": 333, "car_share": 1.0, "n_cells": 393}, "score": 0.589, "lon": 29.4123, "lat": 4.9222}], "adjudication": "muse-glimmer chose #3 (Maridi): Kozi has 430 people <1,000 and larger sites Maridi with reach share 0.256 and Makpandu* with reach share 0.202 are within 0.15 of its reach share 0.273, so it is disqualified under rule 1. Maridi has higher reach share 0.256 than Makpandu* 0.202 with median 333 min versus 353 min.", "year": 2, "id": "T3", "footprint_km2": 13844, "brief": "Team is based in Maridi, a settlement of 4,344 people with 0.1 km road and implied water from 430 residents, but no mapped river/well within 3 km to verify. It covers corridor zone 292 in SSD, about 1,225,600 ha with 3,345 people on corridor land, bounded by Juba-Rumbek-Bentiu Highway road, Nahr al Jur, and Maridi-Yambio Highway road. Scouts travel with transhumant herders whose four bundles start in month 10 or 11 and use 2,225 fitted fronts across the zone, with 100% of utilisation within 25 km of residents. Ground has 9 gold-target cells and 3,256 km of fronts, with nearest unverified town Makpandu with 1,714 people.", "first_season": "Verify water sources within 3 km of the Maridi base and confirm car/motorbike access to reach targets within 4 h. Establish contact with herder groups as bundles onset in month 10 and map movement along the corridor edges.", "short": "Base Maridi with 4,344 people, travel corridor zone 292 with herders from month 10 through dry season to protect people and gold-target cells."}, "geometry": {"type": "Point", "coordinates": [29.4123, 4.9222]}}, {"type": "Feature", "properties": {"kind": "TANGO", "staff": 5, "zone_uids": [292], "urgency": 0.722, "place": "Makpandu* (nearest_place, unverified)", "site_people": 1714, "road_km": 0.0, "reach": {"share": 0.202, "median_min": 353, "car_share": 1.0, "n_cells": 393}, "water": "settlement of 1,714 people (water implied by residence); no mapped river/well/JRC water within 3 km \u2014 verify", "season": "from month 10 (bundle onset) through the dry season", "why": "corridor zone 292 ranks 2/11 on herd \u00d7 people \u00d7 gold: bundles [5, 14, 7, 10] (2,225 fitted fronts), herd utilisation in band 391.88 of which 100% within 25 km of residents; 9 gold-target cells in the band; 3,345 people on corridor land. Second team: the zone spans 4 bundles and 1.2 M ha; this site is > 50 km from the first. Site (adjudicated): 4,344 people, road 0.1 km, reaches 26% of targets within 4 h (100% by car/motorbike).", "towns": [], "alternatives": [{"name": "Makpandu* (nearest_place, unverified)", "people": 1714, "road_km": 0.0, "reach": {"share": 0.202, "median_min": 353, "car_share": 1.0, "n_cells": 393}, "score": 0.868, "lon": 28.6746, "lat": 4.738}, {"name": "Maridi", "people": 4344, "road_km": 0.1, "reach": {"share": 0.256, "median_min": 333, "car_share": 1.0, "n_cells": 393}, "score": 0.589, "lon": 29.4123, "lat": 4.9222}, {"name": "Diabio", "people": 1854, "road_km": 0.4, "reach": {"share": 0.203, "median_min": 474, "car_share": 1.0, "n_cells": 393}, "score": 0.574, "lon": 28.0274, "lat": 4.9548}], "adjudication": "muse-glimmer chose #2 (Maridi): Maridi has the highest reach share 0.256 versus Makpandu 0.202 and Diabio 0.203, with median 333 min shorter than Makpandu 353 min. \u2192 moved to Makpandu* (nearest_place, unverified): the chosen site was within 50 km of a higher-urgency TANGO site", "year": 2, "id": "T4", "footprint_km2": 13474, "brief": "Team is based at Makpandu*, an unverified settlement of 1,714 people with road access 0 km and water implied by residence but no mapped river or well within 3 km to verify. It operates from month 10 bundle onset through the dry season across corridor zone 292, about 1.2 M ha in SSD with 3,345 people, bounded east-northeast by Juba-Rumbek-Bentiu Highway road, west-southwest by Nahr al Jur and southwest-southeast by Maridi-Yambio Highway road. The zone holds four herd bundles with 2,225 fitted fronts and 9 gold-target cells, with 100% of herd utilisation within 25 km of residents. Scouts travel with transhumant herders as bundles onset in month 10 and month 11, meeting herders along the corridor and watching for new gold-target activity and pressure near villages such as Sungu, Tumburu and Mkareni.", "first_season": "First verify water access near Makpandu* and confirm the 64 km geological contact boundary that needs beacons. Second establish contact with herders of the month 10 onset bundles and record movement and gold-target observations along the corridor.", "short": "Base at Makpandu*, scouts travel with herders across corridor zone 292 to monitor herd movement and gold-target cells."}, "geometry": {"type": "Point", "coordinates": [28.6746, 4.738]}}, {"type": "Feature", "properties": {"kind": "TANGO", "staff": 5, "zone_uids": [289], "urgency": 0.7, "place": "Tambura", "site_people": 31951, "road_km": 1.6, "reach": {"share": 0.386, "median_min": 346, "car_share": 1.0, "n_cells": 260}, "water": "settlement of 748 people (water implied by residence); no mapped river/well/JRC water within 3 km \u2014 verify", "season": "from month 10 (bundle onset) through the dry season", "why": "corridor zone 289 ranks 3/11 on herd \u00d7 people \u00d7 gold: bundles [10, 9] (909 fitted fronts), herd utilisation in band 106.79 of which 83% within 25 km of residents; 5 gold-target cells in the band; 330 people on corridor land. Site (adjudicated): 31,951 people, road 1.6 km, reaches 39% of targets within 4 h (100% by car/motorbike).", "towns": [], "alternatives": [{"name": "Karsing R.H. (1930s)", "people": 748, "road_km": 1.3, "reach": {"share": 0.386, "median_min": 355, "car_share": 0.97, "n_cells": 260}, "score": 1.272, "lon": 27.5011, "lat": 5.6729}, {"name": "Yubo", "people": 2911, "road_km": 2.0, "reach": {"share": 0.324, "median_min": 381, "car_share": 1.0, "n_cells": 260}, "score": 0.448, "lon": 27.2867, "lat": 5.3994}, {"name": "Tambura", "people": 31951, "road_km": 1.6, "reach": {"share": 0.386, "median_min": 346, "car_share": 1.0, "n_cells": 260}, "score": 0.424, "lon": 27.5063, "lat": 5.5828}], "adjudication": "muse-glimmer chose #3 (Tambura): Karsing R.H. has 748 people with reach share 0.386 and median 355 min, while larger Yubo is 0.062 below its reach share. Tambura has reach share 0.386 with median 346 min, shorter than Karsing\u2019s 355 min.", "year": 2, "id": "T5", "footprint_km2": 9489, "brief": "Team is based at Tambura, a settlement of 748 people with 32,000 people in the adjudicated site and 2 km of road that reaches 39% of targets within 4 hours. It serves corridor zone 289 in CAF, about 791,000 ha with 330 people, bounded on the NW/SE by the CAF border, on the NE by R. Imatima and on the W/SW by Mokoutou. Work runs from month 10 onset through the dry season with transhumant herders moving on bundles 10 and 9 with 909 fitted fronts. The band contains 5 gold-target cells and herd use is 83% within 25 km of residents, so watch for new workings, clearing and pressure along the 138 km geological contact that needs beacons.", "first_season": "Verify water access for the Tambura settlement as no mapped river, well or JRC water is within 3 km. At month 10 onset meet herders on bundles 10 and 9 and begin beacons on the 138 km geological contact.", "short": "Base at Tambura, ground corridor zone 289 along CAF border and R. Imatima, purpose monitor transhumant herds and gold-target cells from month 10 through dry season."}, "geometry": {"type": "Point", "coordinates": [27.5063, 5.5828]}}, {"type": "Feature", "properties": {"kind": "FP", "staff": 1, "zone_uids": [273], "urgency": 0.462, "place": "Z\u00e9mio", "site_people": 29065, "road_km": 0.0, "water": "town (supplies itself)", "season": "year-round", "why": "town of 29,065 people; 1 of this year's team sites within 120 km (Bandasi), 1 of them not held by an earlier focal point; county and traditional authorities are seated here", "towns": ["Z\u00e9mio"], "serves": ["Bandasi"], "year": 1, "id": "F1", "footprint_km2": 11248, "brief": "One-person focal point is based year-round in Z\u00e9mio, town of 29,065 people where county and traditional authorities are seated, with one team site within 120 km at Bandasi and a new site not held before. It serves community zone 273 in COD, 144,400 ha bounded on E/NE by an unnamed river, on SW/W by Asa and on W/NW by Mbomou, with secondary road on SE and primary road on W/NW. Meetings happen year-round in town with authorities and communities from Bandasi and Mboufo. The zone has 11 gold-target cells and 2 reported workings, about 20 km2 clearing since 2020, 6% unattributed land and 314 km long fronts, with Gambara on the western stretch and a 6 km geological contact needing beacons.", "first_season": "First, confirm contacts with county and traditional authorities in Z\u00e9mio and register representatives from Bandasi and Mboufo. Second, walk the Asa, Mbomou and unnamed river edges to verify Gambara and mark the 6 km geological contact needing beacons.", "short": "Focal point based in Z\u00e9mio monitors a 144,400 ha community zone around Bandasi and Mboufo, linking county authorities to early reporting."}, "geometry": {"type": "Point", "coordinates": [25.1293, 5.0248]}}, {"type": "Feature", "properties": {"kind": "FP", "staff": 1, "zone_uids": [248, 289], "urgency": 0.32, "place": "Tambura", "site_people": 35520, "road_km": 0.6, "water": "town (supplies itself)", "season": "year-round", "why": "town of 35,520 people; 2 of this year's team sites within 120 km (Tambura, Tambura), 2 of them not held by an earlier focal point; county and traditional authorities are seated here", "towns": ["Tambura"], "serves": ["Tambura", "Tambura"], "year": 2, "id": "F2", "footprint_km2": 11237, "brief": "The one-person focal point is based in Tambura year-round in year two, a town of about 36,000 people with town water and short road access, because county and traditional authorities are seated here. It covers a SSD community zone of about 126,000 ha around Tambura and Yubo bounded by an unnamed river on the E/S and Tambura - Yubo Road on the W/NW, with 8 gold-target cells, 1 candidate site and 2 watchlist sites and no reported workings. It also covers a CAF corridor of about 791,000 ha bounded by the CAF border on the NW/SE and R. Imatima on the NE, with 5 gold-target cells and 1 watchlist site and transhumance bundles with onset 10. The focal point meets county and traditional authorities in Tambura regularly and engages communities in Tambura and Yubo and herders moving through the corridor at onset. It watches for new mining exposure along long fronts, clearing since 2020, and unattributed land.", "first_season": "First, confirm contact protocols with county and traditional authorities in Tambura and map the geological contact sections that need beacons on both zone boundaries. Second, visit Tambura and Yubo to ground-truth gold-target cells and watchlist sites and record any new workings.", "short": "Focal point based in Tambura year-round to coordinate community and corridor zones and link county authorities with local and transhumant groups."}, "geometry": {"type": "Point", "coordinates": [27.4683, 5.6096]}}, {"type": "Feature", "properties": {"kind": "FP", "staff": 1, "zone_uids": [170, 280], "urgency": 0.276, "place": "Wau", "site_people": 119818, "road_km": 0.2, "water": "town (supplies itself)", "season": "year-round", "why": "town of 119,818 people; 2 of this year's team sites within 120 km (Aluk (1930s village), Wau), 2 of them not held by an earlier focal point; county and traditional authorities are seated here", "towns": ["Wau"], "serves": ["Aluk (1930s village)", "Wau"], "year": 2, "id": "F3", "footprint_km2": 11189, "brief": "Based in Wau the focal point works from a town of 119,818 people where county and traditional authorities are seated. It serves the zone around Wau bounded by Nahr al Jur on the NE/E, Wau - Raja road on the SW/S and R. Asetti on the N, and the western zone bounded by Wau - Raja road on the SE/W, Raja-Kosho Road on the W/NW and Low hill \u2013 J. ABU RASEIN \u2013 J. NGAYA ridge on the NW/W. It meets county and traditional authorities and liaises with communities near Akej, Nyin Akok and Alelchok and with transhumant groups moving in September and October. It watches for gold-target cells, candidate and watchlist sites and reported workings across both zones.", "first_season": "Confirm weekly reporting links with county and traditional authorities in Wau and with community contacts near Akej, Nyin Akok and Alelchok. Flag the 12 km geological contact needing beacons on the community zone boundary and the 312 km geological contact needing beacons on the corridor zone boundary.", "short": "Based in Wau, the focal point covers the community area around Wau and the western corridor, coordinating reporting and liaison year-round."}, "geometry": {"type": "Point", "coordinates": [27.9909, 7.7001]}}]}