<?xml version="1.0" encoding="UTF-8"?>
<kml xmlns="http://www.opengis.net/kml/2.2" xmlns:gx="http://www.google.com/kml/ext/2.2" xmlns:kml="http://www.opengis.net/kml/2.2" xmlns:atom="http://www.w3.org/2005/Atom">
<Document>
	<name>South-Sudan_Boro-Wau-Sue-Tonj-Wilderness_91&apos;711sqkm.kml</name>
	<StyleMap id="msn_ylw-pushpin4112">
		<Pair>
			<key>normal</key>
			<styleUrl>#sn_ylw-pushpin0261</styleUrl>
		</Pair>
		<Pair>
			<key>highlight</key>
			<styleUrl>#sh_ylw-pushpin015</styleUrl>
		</Pair>
	</StyleMap>
	<Style id="sh_ylw-pushpin015">
		<IconStyle>
			<scale>1.3</scale>
			<Icon>
				<href>http://maps.google.com/mapfiles/kml/pushpin/ylw-pushpin.png</href>
			</Icon>
			<hotSpot x="20" y="2" xunits="pixels" yunits="pixels"/>
		</IconStyle>
		<LineStyle>
			<color>5403ffc4</color>
		</LineStyle>
		<PolyStyle>
			<color>8000ffc8</color>
		</PolyStyle>
	</Style>
	<Style id="sn_ylw-pushpin0261">
		<IconStyle>
			<scale>1.1</scale>
			<Icon>
				<href>http://maps.google.com/mapfiles/kml/pushpin/ylw-pushpin.png</href>
			</Icon>
			<hotSpot x="20" y="2" xunits="pixels" yunits="pixels"/>
		</IconStyle>
		<LineStyle>
			<color>5403ffc4</color>
		</LineStyle>
		<PolyStyle>
			<color>8000ffc8</color>
		</PolyStyle>
	</Style>
	<Folder>
		<name>South-Sudan_Boro-Wau-Sue-Tonj-Wilderness_91&apos;711sqkm</name>
		<open>1</open>
		<Placemark>
			<name>Boro_Wilderness_3,180km2</name>
			<styleUrl>#msn_ylw-pushpin4112</styleUrl>
			<Polygon>
				<tessellate>1</tessellate>
				<outerBoundaryIs>
					<LinearRing>
						<coordinates>
							24.25811006668667,8.583572079493651,0 24.24929932774628,8.570312674327866,0 24.23169079339761,8.556450766048574,0 24.21951715047661,8.539981077591037,0 24.17207460543753,8.479958932291623,0 24.15968033859646,8.436793805433728,0 24.15943795123933,8.406220641918896,0 24.15416809767065,8.381605507102259,0 24.15993694422546,8.363690264736331,0 24.17351780000057,8.345459203000745,0 24.1824542691248,8.333548389992428,0 24.19102743807182,8.32234627030223,0 24.19460847663025,8.315702316815507,0 24.20957458413396,8.300328701080073,0 24.22624173526334,8.289465100963374,0 24.23666798740385,8.286261124700802,0 24.2407182932301,8.284327727055222,0 24.25043011728079,8.282637429042694,0 24.25586568853744,8.280821928543245,0 24.25956223081538,8.281174219955821,0 24.26233809097337,8.280037943424654,0 24.26985156063465,8.278570522995821,0 24.28430195181047,8.274719277758498,0 24.2999046964096,8.27178462563721,0 24.30463751050527,8.27328206873414,0 24.31261200776576,8.272043262521983,0 24.31654039484964,8.27193807707614,0 24.32035562521153,8.270917940589662,0 24.3209372443031,8.269318668926624,0 24.32394103613974,8.269439863383164,0 24.32694353778395,8.27013267960089,0 24.33064674981708,8.267854364134678,0 24.33284679310681,8.266029893493618,0 24.33816459762288,8.265241264377396,0 24.33920724684193,8.264214464292508,0 24.34591515257108,8.262399421932997,0 24.3501961704898,8.260693227619592,0 24.35447874379375,8.258529369265169,0 24.35794699076668,8.258536499316742,0 24.36087115479959,8.258370716747036,0 24.36352946758239,8.257919555334823,0 24.36618570119071,8.25838305660093,0 24.36837849860662,8.259417125807701,0 24.3719568174044,8.260797298452903,0 24.37414952053752,8.261831252121116,0 24.37634448344529,8.261836189803367,0 24.37784781054721,8.26115356788913,0 24.37922976469645,8.263100274501845,0 24.38523154497068,8.265514439433762,0 24.38799895591784,8.267807017487538,0 24.39641880842051,8.273770050839644,0 24.40068080481144,8.279380914309602,0 24.40298780324813,8.280986328491132,0 24.40806930999177,8.28179738504471,0 24.41626556732975,8.284901408118442,0 24.41949826366463,8.28605145217416,0 24.42446921762591,8.284918598574906,0 24.42735997229071,8.284009985001322,0 24.43059556279252,8.284016677953622,0 24.43302576212896,8.282421039458988,0 24.43603120895945,8.28208418325171,0 24.43938450224809,8.281290648947127,0 24.44100427784496,8.280493560829527,0 24.44273628750983,8.281297415057514,0 24.44539814905731,8.279701993345508,0 24.44632871686575,8.276959637981514,0 24.44806972908534,8.273647074599626,0 24.45061458579396,8.272851575076128,0 24.45373292491838,8.274229769326977,0 24.45800843360361,8.275267148592706,0 24.46622098783242,8.274024792965415,0 24.46774629789905,8.270617879062616,0 24.47006192556379,8.268107274832273,0 24.47375539595868,8.269715019960561,0 24.48000176812377,8.265611602774177,0 24.48058551503958,8.262526091100982,0 24.47990153073752,8.257951991566216,0 24.48337993308048,8.251442612068418,0 24.48800682045936,8.248250638063501,0 24.4928676654052,8.243572823901644,0 24.4940271006447,8.241402909574562,0 24.50062284011226,8.235699055837321,0 24.50951872926615,8.235372430190701,0 24.51056391982042,8.232630352876363,0 24.51218451089064,8.231032582082753,0 24.51277201339115,8.22611708226318,0 24.51324291838143,8.221772849436938,0 24.51417159805775,8.219601851678814,0 24.51775344405179,8.219493679549373,0 24.52329972023711,8.219388724995444,0 24.52665019513386,8.219623018815732,0 24.53358755220957,8.217804549949914,0 24.53694677361774,8.21415008021166,0 24.53962254511275,8.207679342688323,0 24.54239600994171,8.206998342740064,0 24.54955793428229,8.206668085003383,0 24.55833649307592,8.206454929003126,0 24.56607288639163,8.207726018915565,0 24.57701643161652,8.209915959373252,0 24.59493806901777,8.215779223994499,0 24.60821751770385,8.221062256648151,0 24.61895717509607,8.22691359188507,0 24.63580002723766,8.230349909649995,0 24.64770088785549,8.228995680426342,0 24.65602501777611,8.224435030831511,0 24.690396610955,8.30304245610373,0 24.67665306766787,8.345896868486511,0 24.67549495347159,8.369813051102804,0 24.67060345145875,8.384892195419539,0 24.67348623010401,8.402256122045904,0 24.68357372020388,8.414234944786074,0 24.68454217741057,8.437092043894495,0 24.69005072569135,8.454470735328892,0 24.68110920694519,8.465022858522023,0 24.67909405853623,8.473007863409272,0 24.66784472459284,8.482698939831543,0 24.67129853377655,8.492100238160033,0 24.67332076937558,8.501227078379577,0 24.66812681990377,8.506347658706268,0 24.66033721890792,8.509171539596649,0 24.65515694897109,8.516882837938171,0 24.65054437840979,8.519139477109874,0 24.64939358530214,8.526560668631728,0 24.65198531749604,8.529969635948664,0 24.64823820064447,8.539038994212412,0 24.64327457395828,8.541089299266117,0 24.64011918505791,8.545653315433809,0 24.63665681555591,8.552192238352134,0 24.63837977357738,8.560438943858026,0 24.63751944805788,8.566707912176689,0 24.63147452797408,8.571831958593608,0 24.63089820081165,8.577237845907471,0 24.6306075392663,8.587750096841756,0 24.62874015123377,8.592064542162946,0 24.62896269748662,8.595378955095267,0 24.6313033206848,8.600122473969879,0 24.6321907324449,8.604640085213061,0 24.63107377071031,8.608598227320568,0 24.63240282250437,8.613423868223036,0 24.63273229359208,8.617696373629792,0 24.6333953312272,8.621418137089954,0 24.63550542402647,8.623178751188298,0 24.6355017764166,8.627995270632676,0 24.63794590527256,8.62997941170933,0 24.63893786292618,8.635006717761078,0 24.64017527246092,8.636998610048794,0 24.64483567839402,8.639632132023191,0 24.64494710222274,8.639632590284593,0 24.64739907153639,8.641727151419875,0 24.64750648584801,8.645564695755453,0 24.64359404911009,8.652452876539449,0 24.64246849906025,8.658682474043426,0 24.64361081649322,8.665393250384774,0 24.64406676823032,8.669906811350025,0 24.64371549213519,8.672036287331245,0 24.64666248826857,8.681539704091582,0 24.64564081725656,8.683519855506773,0 24.64041204514815,8.694606111141402,0 24.63924231632741,8.698222369100661,0 24.63589472399775,8.701729107057167,0 24.63042258420116,8.702477401855621,0 24.61313126331357,8.714915971912838,0 24.61003437668749,8.716774247998757,0 24.60693660727373,8.718091411849684,0 24.60131041150913,8.736000598210873,0 24.59539376864009,8.755778068742254,0 24.58556557263054,8.779946691346636,0 24.56921841752031,8.806559596339905,0 24.55546878390349,8.836575765629235,0 24.55614489643201,8.848008173328822,0 24.55743076762288,8.860119623632768,0 24.55633919206016,8.870842214882435,0 24.53932274630493,8.876493791349441,0 24.5352670768982,8.890044433805734,0 24.52931630169346,8.908421780788395,0 24.51030201682105,8.942181136505083,0 24.51125418518644,8.95181918038244,0 24.51064119216956,8.956935899801246,0 24.51461504493651,8.959114299628704,0 24.51958698908953,8.961692280350981,0 24.52277005529657,8.964265151983703,0 24.52775966943851,8.963687606585442,0 24.52955352559592,8.964483974145205,0 24.53194827174326,8.964686731345308,0 24.5321432242965,8.966461221847599,0 24.53493661755467,8.966663969724147,0 24.53752912850699,8.967657245565013,0 24.5407223943641,8.969050414337952,0 24.5421144495556,8.971619230034985,0 24.54270579101924,8.974380774153156,0 24.54047123771177,8.980428156952767,0 24.53209541122299,8.984171260372118,0 24.52808427364648,8.993590429819612,0 24.52368242505027,9.000660213008073,0 24.51531993242227,9.002371734836016,0 24.5031750415621,9.000773115872205,0 24.49896426315992,9.000807568803667,0 24.49232167628996,9.006766450921489,0 24.48791215846315,9.017004221242146,0 24.48571010999888,9.020350579071536,0 24.48570980016236,9.020547910000372,0 24.48549768203244,9.028048846377157,0 24.48489127919276,9.032789722688834,0 24.47888547001486,9.039095180782189,0 24.47207761985557,9.044796308429124,0 24.46729364710425,9.041036290072723,0 24.46349890855384,9.041019619486587,0 24.458524747635,9.035078975212436,0 24.45194034496157,9.033090679659336,0 24.446549062732,9.035235299467361,0 24.44195964503269,9.033845174336115,0 24.43897798785646,9.029498754784287,0 24.43659853577713,9.025741643172962,0 24.43641421577237,9.022386048000099,0 24.43163154883605,9.022368755748392,0 24.42684740063343,9.020239057520001,0 24.42503712788815,9.020225152016424,0 24.40951660498327,9.012950337852578,0 24.39548686664882,9.005670462958827,0 24.38034336510989,8.995596720659053,0 24.36255707919338,8.991264563330803,0 24.35426422091406,8.979430865151011,0 24.34885014760341,8.973683721204813,0 24.35287710251028,8.970120797548507,0 24.34925753583924,8.965457157390013,0 24.35219160644038,8.961534399035395,0 24.35442182867025,8.956178672461997,0 24.34898127957625,8.952577204458841,0 24.34722699141677,8.943628373222824,0 24.34618130860895,8.936113947859944,0 24.3495214039836,8.924694023188827,0 24.35531073535967,8.924721880047009,0 24.36042474150632,8.918675682267585,0 24.36302997247714,8.906183871598202,0 24.36885585008047,8.903009072217239,0 24.36995758327147,8.899082502025861,0 24.37612045088842,8.900915541346169,0 24.37685106085691,8.896263778497142,0 24.38265488021763,8.893796069816469,0 24.38737872714901,8.889534695985889,0 24.39141392844898,8.878126290700491,0 24.39402996210642,8.867476250189243,0 24.39875710902502,8.861432355677959,0 24.39764374314459,8.849177009821192,0 24.4012618166842,8.84705870068559,0 24.40602116488812,8.835292991830036,0 24.40540569287624,8.825577945308074,0 24.41049966174374,8.823054415205389,0 24.40602341566353,8.808687935436888,0 24.39860018459924,8.796585951661879,0 24.40512336351843,8.78210592377112,0 24.40230248054376,8.766514156299115,0 24.39079450247228,8.74996938272472,0 24.38402977960116,8.733073172690235,0 24.37160687344638,8.719952750027606,0 24.34997401436075,8.701428930270158,0 24.32726971473562,8.688518539477979,0 24.30109734691274,8.693798193743614,0 24.25560404158198,8.688018943010885,0 24.24649688082621,8.67356119984739,0 24.24653842576095,8.660625123678992,0 24.23963015923063,8.653817048456528,0 24.23517796396912,8.647560098228283,0 24.23320268371144,8.642706899751452,0 24.22976337881416,8.629521548842128,0 24.2311759917488,8.619724498384141,0 24.23580867909338,8.614521644146143,0 24.24336633754293,8.611323994948528,0 24.24481390782134,8.609012877641963,0 24.25700824146447,8.600596907188542,0 24.26139097223711,8.596291207489672,0 24.26223954661334,8.592523289340436,0 24.26192224818694,8.587322168555971,0 24.25811006668667,8.583572079493651,0 
						</coordinates>
					</LinearRing>
				</outerBoundaryIs>
			</Polygon>
		</Placemark>
		<Placemark>
			<name>Boro-Biri-headwaters_13,111km2</name>
			<open>1</open>
			<styleUrl>#msn_ylw-pushpin4112</styleUrl>
			<Polygon>
				<tessellate>1</tessellate>
				<outerBoundaryIs>
					<LinearRing>
						<coordinates>
							24.69120564340821,8.303389929241,0 24.65707501034701,8.226505327776525,0 24.69431197056908,8.210080674752726,0 24.73154633861843,8.207996151231658,0 24.75017862143815,8.191581558903358,0 24.76155598310264,8.187470687395379,0 24.78638949750741,8.181296190225304,0 24.80606807803133,8.196635302091909,0 24.82572006705265,8.18328820522596,0 24.86089603555473,8.179145385717209,0 24.89394322022871,8.115558578316479,0 24.90423773077681,8.059137445394532,0 24.95805394668513,8.015933211888656,0 24.97858520178206,7.980805262953337,0 25.0602590254182,7.926309801140288,0 25.0881407192793,7.88628567480676,0 25.11712100909243,7.886234938167618,0 25.12645252735737,7.894419153171094,0 25.1575026451729,7.894339242251408,0 25.17407941816158,7.903539162674891,0 25.18338476875015,7.898388940486807,0 25.2030076056428,7.876804620334486,0 25.21748782939026,7.874728236306126,0 25.23092577983789,7.863407091727972,0 25.23919084628529,7.846952004686842,0 25.26293675258503,7.820230390806765,0 25.26913616973714,7.796563740468274,0 25.27639865249889,7.796527634094285,0 25.28263509166006,7.802659175070336,0 25.29088423454104,7.798564952088576,0 25.29696636067122,7.744167496717253,0 25.28106620392971,7.722841668101686,0 25.28207400284733,7.709518852769262,0 25.28514792780866,7.695160934041929,0 25.30891291631823,7.678695742737267,0 25.30371303386227,7.668454703557259,0 25.28819125230803,7.668494225440733,0 25.29643373380782,7.654117393818719,0 25.29019171810213,7.643888098308061,0 25.27257502679126,7.632662771604076,0 25.25084989809345,7.629631938927344,0 25.23946745869373,7.627610886929189,0 25.23324700036684,7.62046447374706,0 25.22394196890527,7.619475360215926,0 25.21459311265121,7.605117882359744,0 25.17833627833943,7.580589617494013,0 25.17624644507331,7.572387396501653,0 25.19378623162077,7.556950725517192,0 25.19891122385186,7.540502454966228,0 25.19675949786266,7.508675844633874,0 25.20189706283243,7.494290729410896,0 25.22409798858297,7.492383434533184,0 25.23524186971792,7.481634411338092,0 25.23703994073275,7.478409926061191,0 25.24711335393209,7.474460390371211,0 25.27530447973998,7.473284308477603,0 25.28108649908103,7.471825832207722,0 25.29542285668225,7.450006626373068,0 25.30190079023982,7.443553441981548,0 25.30908122263669,7.431380207990105,0 25.31700322999286,7.427783561908092,0 25.3285494854526,7.430972964252307,0 25.33789999959141,7.428814732870755,0 25.34077387170963,7.425950157227104,0 25.34437151486848,7.420217696438882,0 25.34472615380499,7.414848583412673,0 25.34471377165037,7.407332709452391,0 25.35082904502142,7.39477498564177,0 25.35080473605458,7.386191430975122,0 25.35039608270544,7.37406307902732,0 25.35752829404382,7.354798055170216,0 25.36691059870661,7.344683356694099,0 25.38131325553734,7.342171772082794,0 25.39061211070024,7.32749651690708,0 25.39563584607032,7.330706579586896,0 25.39892417229123,7.333909720610328,0 25.40398006439611,7.334609257958975,0 25.41695740858679,7.327062392872736,0 25.43453689073741,7.308780115612513,0 25.43814235763396,7.308055879187616,0 25.44860911744385,7.310178262290952,0 25.45185025711514,7.309454880916286,0 25.45436269531901,7.306228795114653,0 25.45359225146651,7.289417276277466,0 25.45862718014885,7.285486769157567,0 25.47233401275804,7.285776073438631,0 25.47915970083355,7.276094085597019,0 25.48419496460329,7.273226919237053,0 25.49647446648594,7.276399244690987,0 25.50727482211512,7.276026266651707,0 25.51124711649863,7.280669397916461,0 25.51773638887588,7.281724777677659,0 25.52638094884201,7.279912014290308,0 25.53539761869181,7.280598747252291,0 25.53827798142068,7.276293953267011,0 25.54461627977041,7.25585240291936,0 25.54908651284262,7.255593806737674,0 25.54975646751364,7.258243119992155,0 25.55258429321854,7.260839583234797,0 25.55541092953957,7.262009142659989,0 25.55818568825518,7.262669139759672,0 25.56095915567337,7.261800384975936,0 25.56511978873261,7.261338106592634,0 25.57066153311438,7.254250571255586,0 25.57168419202137,7.248848669005442,0 25.57060166215476,7.244365707840197,0 25.57162858200049,7.243957218683234,0 25.57255232357999,7.24303927851002,0 25.57188415373668,7.242530303219052,0 25.57111387797583,7.242734762946295,0 25.56998387248233,7.24273570538259,0 25.56875023845258,7.241717645204892,0 25.56741314430304,7.239884370018732,0 25.56699892663891,7.236164917796615,0 25.56617570911294,7.234636851415433,0 25.56622579124366,7.233209979805674,0 25.56725204818076,7.232037111796613,0 25.57017816136721,7.23014926043467,0 25.57598117053662,7.22887045004039,0 25.57901225116023,7.229581298249179,0 25.58219887432152,7.231973593034267,0 25.58708276812479,7.236963006966526,0 25.58857621254169,7.241394758210495,0 25.59042716020699,7.243431252540167,0 25.5927897855926,7.243174321740762,0 25.59372285136596,7.242407589428265,0 25.5955154256387,7.239899313694602,0 25.59693806218385,7.234531155749759,0 25.5979865331948,7.23098446444006,0 25.59823977681351,7.22649951283145,0 25.59787793888514,7.223849935328335,0 25.59648903285889,7.221761950878363,0 25.59710258107032,7.218347130959323,0 25.59879599972984,7.216205322124013,0 25.60018201421638,7.215082983672177,0 25.60330923027961,7.208353942573567,0 25.60484919879575,7.207282493369244,0 25.61003869630803,7.209061200545193,0 25.61332614205839,7.20936387977249,0 25.61758745094125,7.207729379854977,0 25.61953969536991,7.208338973319368,0 25.62061992109961,7.210070345849976,0 25.62057148588413,7.213076603082323,0 25.62160278126197,7.217304699206532,0 25.62283715297407,7.21908687636909,0 25.62448192269222,7.220359132484541,0 25.62581744111792,7.220510707291147,0 25.62802533222015,7.219897132388903,0 25.62915429720121,7.2189279217152,0 25.63110257859347,7.215512159765022,0 25.63181765785383,7.211537123324975,0 25.63284037019345,7.207001263500901,0 25.63540465214754,7.203177096556523,0 25.63771563270948,7.2028689996536,0 25.63961615855862,7.20296894874769,0 25.64079922002645,7.204700225134151,0 25.64080112737854,7.206636532295962,0 25.64152159712331,7.208011583525339,0 25.6430637830866,7.209232931199526,0 25.64499806761788,7.212842992462198,0 25.64720710256577,7.213401232363998,0 25.64843957132756,7.213247115758646,0 25.64915744333721,7.212125411394598,0 25.64889943723811,7.210953753819666,0 25.64792251521848,7.209884738167005,0 25.64843268302603,7.206572294314818,0 25.65007419398939,7.204685373873011,0 25.65264061772271,7.203256065740171,0 25.65407811808156,7.202745053155911,0 25.65566980579156,7.202335777703428,0 25.65715772484242,7.200907527843103,0 25.6595721460942,7.201414527565461,0 25.6607033995508,7.202687178874428,0 25.66147589685693,7.204673558433132,0 25.66373693292756,7.20574120611194,0 25.66558528247239,7.205076846806695,0 25.66691766022914,7.202171006085843,0 25.66994403895749,7.198193138102972,0 25.67143367080903,7.198191480303458,0 25.67353897962334,7.197424749307756,0 25.67559258903436,7.196250358446338,0 25.68012277674002,7.195369508908584,0 25.68293954066185,7.196496602084622,0 25.68710876696565,7.196482945169245,0 25.69044757607114,7.196937821253819,0 25.70071912304947,7.196416413965861,0 25.7060030892255,7.190243865858333,0 25.71059387244225,7.181996933579525,0 25.71346562316393,7.178054309612079,0 25.71890483618172,7.174787768457466,0 25.72867729993594,7.176878182181691,0 25.73012790899843,7.17973480792406,0 25.73766451298764,7.181157432634642,0 25.74144490613202,7.179818622853026,0 25.743736933915,7.176102666545733,0 25.74521715335273,7.169392500512313,0 25.74856724292397,7.162047549960649,0 25.75128651302566,7.160441051415358,0 25.75302747203,7.158582619095292,0 25.75740563133278,7.157522452722711,0 25.75821243137533,7.156677666172539,0 25.75850793126375,7.154989734454357,0 25.75939977562751,7.154144818304189,0 25.75965436097597,7.153722598636028,0 25.75995157318068,7.153384702201446,0 25.76075955712977,7.153468053940105,0 25.76110040903772,7.154016087538046,0 25.76186619688758,7.154352626859866,0 25.76305660678425,7.154224531785552,0 25.76645957442013,7.155232691924607,0 25.76951986956829,7.154173930514493,0 25.77079426012883,7.153117466292506,0 25.77470686878084,7.15332318666526,0 25.77670582969809,7.153447059051387,0 25.7783225205665,7.153908981246052,0 25.77925797936693,7.153738930462012,0 25.78129908976013,7.153398570929438,0 25.78270270259855,7.153396625116888,0 25.78329918611351,7.154197497006908,0 25.78330034814942,7.155125774565501,0 25.78542988713593,7.157274767453799,0 25.78632459435776,7.158370607808167,0 25.78700253836269,7.158535423817487,0 25.78823538920597,7.158365036938581,0 25.79048924205146,7.158572980890906,0 25.79176402281048,7.157938441808424,0 25.79546178603258,7.15670995332735,0 25.79911970997714,7.15737999399599,0 25.80201033793374,7.15653218301995,0 25.80519871456419,7.155599496357851,0 25.80869677759497,7.155892062850389,0 25.81700262650372,7.152563960138137,0 25.82313957938631,7.149239645757977,0 25.83008762741354,7.145376982832725,0 25.83161782003407,7.141791255995318,0 25.82836151962604,7.137495818306267,0 25.82284648507296,7.132307671136681,0 25.81778463855486,7.128641643492371,0 25.81624108044651,7.122551789745034,0 25.81930508513126,7.118068365158206,0 25.82598376162714,7.115819899880004,0 25.83139781023336,7.113573077872776,0 25.8353607125638,7.107028051915713,0 25.83941657066611,7.102453619611947,0 25.85006861944993,7.102080654775823,0 25.85359418464713,7.105158070358952,0 25.85427239132239,7.105924975402668,0 25.85593539933303,7.105867079243875,0 25.85913197642179,7.105270106285617,0 25.86348451639557,7.105143855342375,0 25.86834683211055,7.104981675972286,0 25.87146380987517,7.104340393817355,0 25.87306888993257,7.10607349089821,0 25.87907542321638,7.108551309659312,0 25.88391301695776,7.108602001386084,0 25.89428239591678,7.104169336311649,0 25.89666682885422,7.100811490413275,0 25.90243820875065,7.095587559440776,0 25.90389072907001,7.092809546730712,0 25.90493069844431,7.087082960508341,0 25.90358419059797,7.083094890957685,0 25.900722075979,7.078762111860183,0 25.89961156285081,7.076624094310864,0 25.90013259129435,7.074425719433055,0 25.90379532014096,7.068983770200419,0 25.90806709319472,7.067334001595885,0 25.91441822203893,7.06697720971177,0 25.92047644633087,7.065753334612163,0 25.92671040567719,7.065107340097806,0 25.93078407688007,7.061746676495637,0 25.9335159363913,7.057347019425498,0 25.93385747879236,7.052199178059699,0 25.93662452234642,7.04835520023027,0 25.93970864179683,7.0458056788343,0 25.94325872166664,7.043197620091908,0 25.94849995661044,7.041454252597236,0 25.96009471580586,7.040799175036552,0 25.96568841305234,7.040327309246153,0 25.97571151031246,7.039327468020971,0 25.98153697699797,7.0370619912373,0 25.98358994495896,7.032616713374504,0 25.98393115137306,7.027758523305961,0 25.98088896724985,7.020592775190703,0 25.98163839585764,7.015906975110702,0 25.98524613306146,7.013066735379845,0 25.99037000720024,7.01080194630878,0 26.0061314412891,7.009254028365518,0 26.0313882192732,7.011999532957462,0 26.03860910996544,7.008024759028818,0 26.0418809134084,7.005851084839096,0 26.0436787295655,7.002978503867682,0 26.04844840898175,7.002927058738936,0 26.05413407663897,6.99139754036,0 26.05365089515065,6.996283420915083,0 26.05757366962864,6.999562732156623,0 26.05756967425921,7.000219029332921,0 26.05952660838363,7.005145224528187,0 26.06250474232015,7.010070102007304,0 26.06254366481602,7.018912063966877,0 26.06141453982451,7.02815794276627,0 26.07559327745982,7.053053773587417,0 26.08812039178063,7.060235003249863,0 26.09638262684658,7.070405721488125,0 26.10366371181113,7.07960465280969,0 26.12225734594568,7.086388785821988,0 26.12349132274123,7.087001352693079,0 26.12647121899325,7.09928687637729,0 26.13308353724318,7.10486602334743,0 26.13903586354875,7.117007813681082,0 26.13110265800658,7.131789379550326,0 26.13334629117989,7.155542943186506,0 26.13266345506172,7.169139878201851,0 26.13994898812606,7.176683722459984,0 26.13993673156457,7.187870959807566,0 26.13828047332742,7.204613954883981,0 26.14424308056061,7.222668489645965,0 26.15450281293359,7.240400358670072,0 26.15022203862516,7.253851970251059,0 26.14057259031927,7.266143885125278,0 26.13413005577809,7.273886530022945,0 26.13917664472542,7.281182311184088,0 26.14773497675565,7.288100188084676,0 26.14450709542768,7.29995217045264,0 26.1532281245552,7.311806847777753,0 26.16518322018575,7.314543263290854,0 26.16655377055281,7.326854208131754,0 26.17114468921402,7.343274350926221,0 26.17113366997352,7.356956665032723,0 26.17226128739823,7.36281581305569,0 26.17269341738177,7.3929286109265,0 26.18098232028079,7.397479182175184,0 26.18922888359732,7.41073763774501,0 26.19520385788108,7.41940531355078,0 26.19105206988171,7.436276554757355,0 26.181847569629,7.455881677253809,0 26.18044425297148,7.47549228946807,0 26.18137163590227,7.492388596772297,0 26.18457856536667,7.497399906488355,0 26.19268573400088,7.505162022067995,0 26.19037669363322,7.515638848248924,0 26.18530262265358,7.531147712457441,0 26.1820642228963,7.549391575049056,0 26.16687475092563,7.557594144835684,0 26.16088286560122,7.566257301683002,0 26.16041357698708,7.574013706432942,0 26.16592416184196,7.584972222332979,0 26.16590543142291,7.595481614358228,0 26.16037026980803,7.601416396961348,0 26.15666710447943,7.611471879588952,0 26.15942423556934,7.615590842671486,0 26.15528306047528,7.618314416050541,0 26.14700219301146,7.61829210984803,0 26.14068024909686,7.624088239121551,0 26.14067624811197,7.63412974090201,0 26.13837240557159,7.642805055146565,0 26.13145980458561,7.649198213063732,0 26.13328902157639,7.659698129064447,0 26.13558516401014,7.669292122676016,0 26.12820776737723,7.678438670784426,0 26.1286616879535,7.691258145386178,0 26.12219989954776,7.695821011707698,0 26.11804274929939,7.702222442718204,0 26.12034473841001,7.706792091964885,0 26.11341619627849,7.716842336930218,0 26.10373503416268,7.706798843328276,0 26.0972790738146,7.705868506448759,0 26.09173258327808,7.716377567950412,0 26.08481195731265,7.720019245712512,0 26.08433842088402,7.729169602568585,0 26.08110394265716,7.736929526776997,0 26.07834014191303,7.744663381452351,0 26.06966505523626,7.769803019407759,0 26.07546869368544,7.781994843417561,0 26.06937937596167,7.791686724790701,0 26.06196919578468,7.801103000968062,0 26.05271096064037,7.804244200429404,0 26.03950262477137,7.803957600366139,0 26.0331532328153,7.812330646104726,0 26.04024327316095,7.827036624189671,0 26.0508143389846,7.83647684340428,0 26.05081028156582,7.843557109855476,0 26.05001405724794,7.845389139359949,0 26.04974914780496,7.845650528642839,0 26.03309429770101,7.847717130765294,0 26.03203819577102,7.847715278867545,0 26.02700865215598,7.855566669375959,0 26.01602818292579,7.849975217141251,0 26.01302532235199,7.85581428648795,0 26.01614331900991,7.868352372774435,0 26.01879611929957,7.873166485414575,0 26.02765144861542,7.876421103348648,0 26.03083891372691,7.881507710617292,0 26.0308159659867,7.886570884027702,0 26.03749636615381,7.893279642700048,0 26.04017310257508,7.897553944652327,0 26.0489957983214,7.9050817111461,0 26.05245324425496,7.911767152048306,0 26.05211033904067,7.923230794711715,0 26.05174451804827,7.937114255173391,0 26.05710308410789,7.944346069976885,0 26.05650310482336,7.955809199352169,0 26.05161025415103,7.963786114335614,0 26.04621095641293,7.965623007395335,0 26.03540698316021,7.969030320063966,0 26.02837645561281,7.971926690195075,0 26.02267439168325,7.976976799495808,0 26.0228963196149,7.984723138362845,0 26.02124434013477,7.990053666114567,0 26.01742811048808,7.99617415526888,0 26.01742230175672,7.996977228767659,0 26.01092410666796,8.001466369958193,0 25.9995746243603,8.00698124228874,0 25.99642111664556,8.013667286127051,0 25.99036164243419,8.016437156904098,0 25.98659687383016,8.014926407037501,0 25.98225561652751,8.015654681130664,0 25.9775250455907,8.01804665076318,0 25.96492537212594,8.041679248646002,0 25.95821059006608,8.056402822805747,0 25.95930248847636,8.061091643775406,0 25.95609196792572,8.062000665277253,0 25.94122072936836,8.074470067112687,0 25.92979326244723,8.07302076054019,0 25.92225127422894,8.075178805633771,0 25.92029404668005,8.075721891080583,0 25.91716347973517,8.08481618163604,0 25.91069752599062,8.092780639413366,0 25.90234439062178,8.091621574205439,0 25.90206384438351,8.09189561662189,0 25.89420349676551,8.100676098282008,0 25.88576994810225,8.112205639179733,0 25.87741905245102,8.112425126173923,0 25.87262337609671,8.121491728510479,0 25.87261874495974,8.122318418663326,0 25.8700784228119,8.127539029088465,0 25.86979936207458,8.127537481342163,0 25.86112763833264,8.134916268890525,0 25.8507838485346,8.143106724960376,0 25.84769546540465,8.151329763600767,0 25.84207386946965,8.160923833124626,0 25.83285032007062,8.163634706670249,0 25.82080130050276,8.167998538753174,0 25.80313727679389,8.174817999745979,0 25.80034696744261,8.187614955058935,0 25.79722005410629,8.193377696861504,0 25.79740440869025,8.204685994285285,0 25.79256923076485,8.217620134326292,0 25.78077215176923,8.229404950486787,0 25.78286933482019,8.246534294835572,0 25.78196523764081,8.254336913647133,0 25.78525312243671,8.262913308120662,0 25.77630671252538,8.266160328795369,0 25.74445427233676,8.275323787341684,0 25.72411516327901,8.27600248802047,0 25.71877513393086,8.283683436806657,0 25.71231167513528,8.291633655229752,0 25.70416471869715,8.300401782747631,0 25.69087779997077,8.30451756525129,0 25.67948438286874,8.305736855980399,0 25.6748247396316,8.304001675929593,0 25.66933048599721,8.303646220395985,0 25.6660860263781,8.309349390770919,0 25.66383876654568,8.316482208340794,0 25.66005824411173,8.318442287219121,0 25.65762639223802,8.317640865977651,0 25.65150323608712,8.315414058406308,0 25.63789425722853,8.313290710081704,0 25.63303195363984,8.315984244545051,0 25.63113631539844,8.317513487102085,0 25.62824297781438,8.316805608711533,0 25.62381437163674,8.319845996960771,0 25.61855008455893,8.32193058879545,0 25.61474167105317,8.322294734650779,0 25.61154431408578,8.324203474292371,0 25.60376285098906,8.32742439057138,0 25.59700922191434,8.32344501754657,0 25.59064156226032,8.318434329297789,0 25.57932971281945,8.31972942522523,0 25.57776747289441,8.317156108224635,0 25.57685646022721,8.315097053083139,0 25.57009559311547,8.310080742412074,0 25.56684328601048,8.310338832551325,0 25.56437408777299,8.307637861890464,0 25.55800113569405,8.309183546485778,0 25.55331580480806,8.306353227366547,0 25.55188802116702,8.302751641011753,0 25.54675471817635,8.298159666998609,0 25.54206791083252,8.295716718962103,0 25.53685926036513,8.29713327650439,0 25.53087637836053,8.297263520638726,0 25.52295380498601,8.297907352602479,0 25.51259363020304,8.295859325294066,0 25.50119503871044,8.294066574427623,0 25.48593788811198,8.299162082406198,0 25.46232281758367,8.30009541549439,0 25.44546188481267,8.299967624055899,0 25.4312793200545,8.315429387923215,0 25.40928098716834,8.324732011666786,0 25.40362431361596,8.328594598688612,0 25.40133353455944,8.333590114231725,0 25.38892799265881,8.338476841829257,0 25.36306387794556,8.337168636030578,0 25.34781372938292,8.344288857889921,0 25.34330750492962,8.344811458949842,0 25.34109508845254,8.340893249812828,0 25.26312858161451,8.352834955964465,0 25.14406002010024,8.347329571746291,0 25.08897871885367,8.342373881321285,0 25.07623956526098,8.34848842285491,0 25.06932416670345,8.348476854109148,0 25.06079671992871,8.355972507709167,0 25.05549528968893,8.3570159115582,0 25.04967617394443,8.354220074364365,0 25.03994739825046,8.35332322351044,0 25.03482803678623,8.351921543276505,0 25.0318273872109,8.351047529149708,0 25.02229886581693,8.343342432438986,0 25.01163349673185,8.343129732799694,0 25.00599389895534,8.341903489060595,0 24.99821298109346,8.347826876683634,0 24.99291323618885,8.348863214646002,0 24.99079031835115,8.347456174684718,0 24.96521126029243,8.360328425740914,0 24.94738017504481,8.36294937022911,0 24.91788288574975,8.365818954446969,0 24.91593766490262,8.36616620363003,0 24.91434226496004,8.369311617329659,0 24.90356506005692,8.369468611158165,0 24.89509053773641,8.368932886151031,0 24.87920426626728,8.371529172681322,0 24.87494569143475,8.371015538194783,0 24.87157386330876,8.363977099910024,0 24.86820229402136,8.358737501932337,0 24.86805871042932,8.358186683469585,0 24.84042545101274,8.357047498256794,0 24.83681164158176,8.357731836767858,0 24.83249765127454,8.354141617474246,0 24.82408017006688,8.351682636658367,0 24.82283798379642,8.35172260765691,0 24.82156733230249,8.35084648012327,0 24.82118491832711,8.351605461888424,0 24.8200327199803,8.352249479384296,0 24.81975273997166,8.353888392211806,0 24.81884608820609,8.353845490750398,0 24.81671233035676,8.354530839591384,0 24.81467282399955,8.355858885175694,0 24.81109846513999,8.35642323314115,0 24.80732934094408,8.355732957528932,0 24.80790987403088,8.353605797894966,0 24.80576042062356,8.35166169815605,0 24.80521055622823,8.350105484848251,0 24.80063660689498,8.346248739159007,0 24.79659600287493,8.345825910714998,0 24.79437526621442,8.344033799108335,0 24.79062952585604,8.337006683195073,0 24.78869409874992,8.333704645344692,0 24.78681522427539,8.331293385330948,0 24.78543228576886,8.333070587162444,0 24.78252080376454,8.333066937090619,0 24.77906405033839,8.330320587924685,0 24.77657163993821,8.327715560649448,0 24.77366235332439,8.326206525607413,0 24.76950855326909,8.323190928563855,0 24.76616052539705,8.326080050254602,0 24.76144303416424,8.327863143066596,0 24.75410463328366,8.327462605218212,0 24.7473240804612,8.331978272930627,0 24.72832081162875,8.335379838488903,0 24.72034969524562,8.338097233275885,0 24.71952087833565,8.338505576315596,0 24.70804799487031,8.343127541257687,0 24.69700757719484,8.346258477137173,0 24.69077837157593,8.352125469210614,0 24.68855883969313,8.35692312724799,0 24.6873075639024,8.360218982614349,0 24.68385377176262,8.358285623614808,0 24.68096248401518,8.353208450042951,0 24.67695960933158,8.349645758034278,0 24.67719860859378,8.345307029376016,0 24.69120564340821,8.303389929241,0 
						</coordinates>
					</LinearRing>
				</outerBoundaryIs>
			</Polygon>
		</Placemark>
		<Placemark>
			<name>Wau-Wilderness_30,329km2</name>
			<styleUrl>#msn_ylw-pushpin4112</styleUrl>
			<Polygon>
				<tessellate>1</tessellate>
				<outerBoundaryIs>
					<LinearRing>
						<coordinates>
							26.21747494123609,7.505737833645668,0 26.22070335840989,7.490052499914493,0 26.22178146169839,7.481799435021363,0 26.21581340818125,7.463839694925889,0 26.19482886224416,7.417843638222494,0 26.17970039515619,7.397797379507852,0 26.17297366160504,7.389447694460523,0 26.17129126997379,7.361912380369681,0 26.17046349159926,7.335201505354851,0 26.1662608448242,7.322677132883908,0 26.16458170908438,7.31349300877271,0 26.15450660050041,7.310986263099778,0 26.14360536928471,7.300971504926584,0 26.14866959828576,7.286792749989504,0 26.13942469037289,7.280112435051841,0 26.13606416314464,7.275103910902768,0 26.14869604758249,7.255924038823544,0 26.1545851362851,7.243406831044075,0 26.14789549650216,7.228408521622167,0 26.1399044894414,7.206662863818824,0 26.13991609210374,7.1766525941279,0 26.133190033424,7.167479603762636,0 26.13489501179736,7.154116945277915,0 26.13240689840556,7.129912098384269,0 26.13914847119927,7.115734571302063,0 26.13158484674522,7.104892021180729,0 26.12737828295502,7.097386604442032,0 26.1231976680301,7.083201394679441,0 26.1055737154484,7.079014530144844,0 26.0912851152144,7.059823488845449,0 26.07782183840211,7.053972240940094,0 26.06110634921504,7.027282662071551,0 26.06440999525811,7.007246950490816,0 26.05684299725138,6.998059169457905,0 26.05686147179975,6.97887243634256,0 26.04848698123682,6.967196836727243,0 26.0577373420162,6.952185952580686,0 26.05185925352058,6.938827165204225,0 26.04345070338548,6.932971622116394,0 26.04347192118924,6.920465735972082,0 26.05272558355663,6.923822812270733,0 26.06111732099023,6.930499673569663,0 26.0625571345354,6.923707374170584,0 26.067593816474,6.920384867463749,0 26.06344277012649,6.906992854967251,0 26.06848541291472,6.903662363218769,0 26.07434801204553,6.907020441994282,0 26.08188837207942,6.912053136155434,0 26.09282212037213,6.907882880625317,0 26.09538538062994,6.892832350906516,0 26.09122447528816,6.854465377282356,0 26.09462188268825,6.836942398218974,0 26.11730928969363,6.818618695733542,0 26.17103607162086,6.81616631607614,0 26.17944978201663,6.787827319014646,0 26.20633761967743,6.77199832016871,0 26.20802850742841,6.756983991815917,0 26.220636734843,6.751982638919644,0 26.24834350637674,6.749502858321638,0 26.26010891211498,6.736997614236965,0 26.26431742216031,6.721151556305299,0 26.28784353676141,6.706146494809325,0 26.32144571152358,6.70615590455175,0 26.33909641907094,6.70031761786166,0 26.35925380278771,6.693651827389441,0 26.3675839556842,6.683684843111192,0 26.37945671731668,6.672242684034366,0 26.38845083250696,6.664921848230074,0 26.40217542732984,6.659298089016781,0 26.41403346269905,6.652005883259601,0 26.41855526534813,6.645626747169015,0 26.41810328204568,6.635520664623312,0 26.40824885766927,6.62014509836445,0 26.38253055725928,6.607257861047406,0 26.38257877223433,6.590201291440118,0 26.36112573816012,6.587998934292405,0 26.35475003196241,6.566658208556326,0 26.32789353312888,6.537803827805105,0 26.32245661675447,6.522998213630322,0 26.33011496696192,6.509962783336777,0 26.32196486199853,6.499646883909584,0 26.31383544880364,6.501454207895364,0 26.307058108246,6.502361908154692,0 26.2975579415164,6.49698423457818,0 26.2871420746198,6.485783107130866,0 26.28577756701103,6.479946694245935,0 26.28636707287634,6.472652291661833,0 26.28531074857527,6.470068736637421,0 26.28711489888054,6.467822957048569,0 26.30293939959888,6.471833704722509,0 26.31107371463208,6.466867950475646,0 26.30970458297024,6.461039373072597,0 26.30471890458902,6.454321488641147,0 26.3015465318285,6.448941201883624,0 26.30741854169674,6.44397490481179,0 26.3173639878767,6.438544674334459,0 26.31418336747749,6.428214738350271,0 26.30512182059302,6.41972194269908,0 26.29558678540221,6.4141302490098,0 26.29603465252864,6.400198551044348,0 26.30190933984091,6.394795625759214,0 26.32991211765084,6.371831458409161,0 26.36008597857531,6.350706250246995,0 26.38448641310952,6.316946296622805,0 26.39629537331941,6.310142776401403,0 26.42146239438816,6.306356856426689,0 26.46343198408902,6.289224841584212,0 26.47379500340276,6.280685450598553,0 26.47385733819337,6.280479130201639,0 26.47427172610443,6.258486807946497,0 26.4741898379118,6.240087193346564,0 26.4809165915231,6.226174027854548,0 26.49439860523562,6.222123895505407,0 26.50162604726388,6.224349357802242,0 26.5124917738146,6.231048560344475,0 26.52246570726292,6.230125993670106,0 26.53673248258809,6.214878702003611,0 26.53960884141944,6.199119718051276,0 26.5283132884902,6.178930055486052,0 26.5066841016866,6.156231085146687,0 26.49492443350457,6.148180977528365,0 26.46787849766716,6.134326819947968,0 26.45070010409122,6.115965673573389,0 26.44961840812772,6.111266032557009,0 26.449491414283,6.097329925639382,0 26.4411750471989,6.072108602959783,0 26.44590966899629,6.067669413423585,0 26.45536966306583,6.070115275697385,0 26.46479933738497,6.079590644176551,0 26.47127635489081,6.086590216765711,0 26.47908839343104,6.098000338230118,0 26.48851124050498,6.105795452757354,0 26.51180240164023,6.115493855510403,0 26.52180803183778,6.114140386929871,0 26.52816545298106,6.108821930256684,0 26.53651203103146,6.096467718233708,0 26.54235099687135,6.079841386040399,0 26.5387121956919,6.071771321799093,0 26.54185509962107,6.063234522998677,0 26.55048449760417,6.060041875986457,0 26.56039804286027,6.039348022837084,0 26.57214458465429,6.032930982422105,0 26.58163096901134,6.027521865431184,0 26.58973204031316,6.027957855569803,0 26.59881689174224,6.033322173125948,0 26.60652467604913,6.030608198955534,0 26.63591710771161,6.01616203399545,0 26.65400411026812,6.008478547598557,0 26.6698006775954,6.007548246211254,0 26.69073568613318,6.019206821194667,0 26.70340161947276,6.018260485073808,0 26.71739942565128,6.008782208741757,0 26.72961160379813,6.008744186835936,0 26.74955310348685,6.014064280763285,0 26.75721968222434,6.014054239657055,0 26.77389653420241,5.998737564117469,0 26.79241814992541,5.991046155308188,0 26.7991713206693,5.982492646398276,0 26.80459398596523,5.982479392509397,0 26.81141998801593,5.988289652366878,0 26.81767135324372,5.98756647996139,0 26.83008352951154,5.971577658515564,0 26.83562416158512,5.945496132559141,0 26.83644422623505,5.907331712228037,0 26.84857918089641,5.897995641895402,0 26.87944212136869,5.890472030358308,0 26.89166265252096,5.896954367188711,0 26.90831480643382,5.899926995851739,0 26.92442492568257,5.887557641402492,0 26.93001770630602,5.871712363258332,0 26.95341838501113,5.856743513180879,0 26.96180986071685,5.850205005207018,0 26.96878607190004,5.852813162659803,0 26.98170637399418,5.859207807080717,0 27.00031723864444,5.863124040344978,0 27.00403581547446,5.857526007983928,0 27.00751057081819,5.880570170034468,0 26.98571487876843,5.968255883657012,0 26.99254518220529,6.000497860530864,0 27.00504068977681,6.02775772240232,0 27.01143115761331,6.034502869533236,0 27.02726362855431,6.039626222326642,0 27.05870484042791,6.0400505732786,0 27.06626365372876,6.04597868545504,0 27.07645448279904,6.051153465673746,0 27.08244415780266,6.050890351033218,0 27.09293026103815,6.057050384514559,0 27.10893040635285,6.061688209185099,0 27.1292952741486,6.062884076340046,0 27.13923767015295,6.06211955972429,0 27.15358275549707,6.057278103946778,0 27.19013338080189,6.062586845806489,0 27.19414029517885,6.072224296239945,0 27.20339044600181,6.081869263351917,0 27.21113080941331,6.085821024358112,0 27.222342802408,6.083321845608638,0 27.23283932812964,6.088260329753716,0 27.23959034596638,6.091719111715434,0 27.24159340084584,6.100130523761891,0 27.24163997821676,6.105607686871521,0 27.2446468319064,6.108332513100106,0 27.2476348495192,6.109805306256223,0 27.25761001791135,6.110026537504134,0 27.26060588371617,6.109773368039387,0 27.26608527635954,6.106784054452037,0 27.27026347864072,6.099314452170939,0 27.27572010500321,6.092852057616512,0 27.28221136372709,6.084170782330268,0 27.29707293780117,6.079710694271673,0 27.31309112201085,6.075649849467322,0 27.32194405464301,6.066849196599307,0 27.33449294168151,6.064666280811079,0 27.34692102618115,6.044769691166555,0 27.37226657160499,6.039597395104459,0 27.37930932960306,6.031148608713473,0 27.38443937871581,6.019717303468418,0 27.3868346561639,6.007758782750696,0 27.38763099997919,6.000190715906268,0 27.38281210588127,5.98946605651363,0 27.3959921560571,5.975501592223488,0 27.43952398410926,5.952307337328085,0 27.45743683629166,5.939544273927551,0 27.46979046051219,5.932354434696337,0 27.48808280677104,5.907263456525897,0 27.49765282838829,5.902065522486136,0 27.51602986842398,5.902003578352193,0 27.53319920884066,5.89916688339902,0 27.54882676718273,5.905057174316246,0 27.55724690609505,5.909796126780526,0 27.54410038823875,5.930125723988652,0 27.54378617923582,5.95318600570862,0 27.54664388985626,5.964720804419508,0 27.54986273501187,5.968692333388505,0 27.55110606368163,5.979040304386395,0 27.55513311922537,5.984604999750654,0 27.56795901745293,5.989739149307246,0 27.57558141312258,5.994095147032999,0 27.57961745408666,6.001254470121031,0 27.58062874380748,6.004643002652745,0 27.57188493504411,6.010164964341957,0 27.57445136346625,6.020231587175464,0 27.57616641982326,6.028206727248495,0 27.57619857926389,6.037864927706586,0 27.59014708150621,6.047892621907667,0 27.60278976337549,6.04617330306398,0 27.60869803126758,6.046151646780761,0 27.61587291479191,6.045705967241503,0 27.63150492852499,6.051524261316629,0 27.62019716671962,6.074635523468869,0 27.62275974541526,6.085111411797391,0 27.62278750137885,6.093499573646412,0 27.6202830964178,6.099386395486456,0 27.62327618790979,6.113210560028498,0 27.62345924083397,6.129992711455439,0 27.63788541996814,6.156774744165745,0 27.64810238200664,6.188174187781176,0 27.64846238873002,6.202923739542806,0 27.65002102710415,6.212678032889603,0 27.65019138788149,6.21301389198005,0 27.65427984858478,6.223413764792313,0 27.66055973696425,6.230951230087038,0 27.66107358307819,6.231795578485539,0 27.66381367487487,6.242036846110864,0 27.6658357041064,6.260939790696523,0 27.66791796847087,6.275585080126103,0 27.66862957589042,6.28384792748825,0 27.67117071118597,6.286007971645188,0 27.67516888000277,6.302278485425211,0 27.67680279621494,6.30566200723072,0 27.67933192571251,6.306047119677104,0 27.68306160416842,6.305323579977578,0 27.68729007998604,6.303190517047996,0 27.68960053065199,6.301068553865238,0 27.69212395833334,6.300651693459923,0 27.69403933918572,6.299736092613799,0 27.69453764151346,6.298527712310065,0 27.6993879618177,6.297995478470089,0 27.70231547671927,6.297173778561814,0 27.70141855275665,6.299490256154363,0 27.70213401920778,6.300892506808629,0 27.70145738354845,6.306821892198228,0 27.70248531840377,6.310528507807301,0 27.69998016789631,6.31445496080012,0 27.69787446515632,6.317373733527041,0 27.69719406860906,6.3215930017648,0 27.69528797310023,6.323610638369627,0 27.69359598953361,6.327633223929619,0 27.69096909811676,6.329525390392361,0 27.6844440742269,6.362496749696037,0 27.69456274733914,6.403747431222977,0 27.72206923802561,6.438273735218128,0 27.73696254655263,6.440411622048862,0 27.74908908670309,6.45940442990142,0 27.75115875275475,6.473047544430153,0 27.75076466869363,6.474039258303134,0 27.74645440625352,6.494871886693205,0 27.75203641874569,6.493449066966122,0 27.75884793600284,6.495783092389344,0 27.75984787112639,6.495974681066903,0 27.77024814337754,6.498874150387774,0 27.77701072215542,6.496253265702543,0 27.78518006299463,6.49659418547132,0 27.78577803470915,6.49659112079132,0 27.79557441344291,6.500498351140085,0 27.80023212609124,6.509990644485952,0 27.80705281932775,6.516879660977422,0 27.81003624667173,6.534342459613113,0 27.8156622670623,6.542645542839612,0 27.81566538321591,6.543041811302777,0 27.81969696351679,6.548765495209382,0 27.8280563129435,6.550102678498315,0 27.82985682039331,6.551280148875023,0 27.83045896443328,6.5516725845964,0 27.83504844954383,6.551643802011484,0 27.8353809595102,6.54292612277504,0 27.83557255101775,6.54213316681741,0 27.83873566513962,6.538350718174759,0 27.83973442938741,6.538343906053895,0 27.84734360123602,6.538883591890309,0 27.84774647125483,6.539078640531359,0 27.85100707619291,6.544206322638946,0 27.85121982854275,6.545394182934555,0 27.85163197850231,6.54658103201524,0 27.85308794451217,6.553712151977964,0 27.85309057879002,6.554108883432908,0 27.85350597236364,6.556090208573434,0 27.85734295489824,6.563207296265784,0 27.85853950848406,6.568943004791124,0 27.85857977676033,6.575682723730417,0 27.85858723426059,6.576476559727702,0 27.8574207611113,6.581044722589771,0 27.85763156988419,6.582036910430952,0 27.85887194979947,6.585607935438353,0 27.86288946350327,6.589548855469273,0 27.86869500219161,6.591694661280946,0 27.86909714874229,6.591891245939445,0 27.87313817317951,6.595053407685189,0 27.87439753141184,6.596475083913503,0 27.88374746946644,6.592979491147797,0 27.88598164819872,6.59040803529479,0 27.88987916702507,6.588762757844323,0 27.89359925765985,6.596484706726962,0 27.8971036142267,6.602908555221325,0 27.9039990692219,6.613945324193387,0 27.90254012778757,6.61944000566386,0 27.90189834887036,6.621939950655166,0 27.89946436910491,6.624444080820029,0 27.89422488982423,6.630310184922516,0 27.8895809560801,6.640881146539827,0 27.87289458172881,6.649712004032271,0 27.86782336482503,6.653711269420135,0 27.8693155243077,6.657086406199977,0 27.87122421126825,6.658352309833707,0 27.86846059736389,6.662339055028535,0 27.87227452434486,6.664868545380902,0 27.87607753994677,6.672857838192705,0 27.88010225831709,6.673492748118687,0 27.88496169056878,6.672433641903586,0 27.89190473323296,6.666307906604814,0 27.89635963382194,6.660011899621004,0 27.90450263568325,6.65894698715897,0 27.91005366689416,6.654508242835694,0 27.91691045264481,6.658714896176224,0 27.92956452877974,6.664204436371856,0 27.92849690840564,6.673896576882013,0 27.92744220514988,6.687643892485019,0 27.92624922408948,6.700075276411036,0 27.92545709657682,6.706758748877689,0 27.92361331035907,6.721870897047709,0 27.92296909765785,6.7341754695927,0 27.92203911885159,6.743612260456981,0 27.92110046219728,6.751451382362202,0 27.90050894030836,6.752718675571834,0 27.89533708718792,6.750574553322003,0 27.88715884360938,6.750208960658599,0 27.87906489074672,6.750514674735268,0 27.87643239835589,6.752404666956306,0 27.87152771982128,6.751975824575048,0 27.86857088531855,6.760733614150624,0 27.86576906288105,6.766227254593839,0 27.86236540829456,6.771285178774644,0 27.86299857958191,6.777959216914827,0 27.86330240433493,6.778995444326602,0 27.86360514234416,6.779736257389465,0 27.86378142714807,6.784492007768793,0 27.86320676068576,6.78880483111226,0 27.86231157603802,6.78910757762671,0 27.85975792164966,6.786741620112526,0 27.8581167857032,6.787343418895374,0 27.85347973628064,6.786472048852982,0 27.85154249064903,6.787670560997483,0 27.84944521932692,6.786641522940661,0 27.84720874810644,6.787841389432097,0 27.84595786236819,6.787555558500677,0 27.84540234738915,6.795274145778389,0 27.84292862606199,6.806402154024351,0 27.84640233297043,6.813791450040993,0 27.84968823475647,6.814521299378493,0 27.85758247535533,6.810784346565113,0 27.86028152753936,6.812847680838182,0 27.86075866037678,6.819074307737502,0 27.86169522193547,6.82737343554491,0 27.85828310315783,6.831986937725563,0 27.85814943116903,6.834950157120184,0 27.8629306219233,6.837147216213435,0 27.86352825173879,6.837440244211573,0 27.86712323124866,6.840827001984251,0 27.86742501142222,6.841417967829119,0 27.86757770217227,6.842009717103748,0 27.87029028251332,6.846147094751732,0 27.87542489910031,6.853697453968314,0 27.8740809643713,6.858586378789329,0 27.87321362645413,6.8631836220125,0 27.87281416654003,6.871491262661569,0 27.87583690962316,6.877115826583772,0 27.87751037037577,6.882896604746418,0 27.88022706410224,6.887041060578245,0 27.88248568592978,6.894141999191107,0 27.88297641541551,6.901413363146523,0 27.88299318910093,6.907037591699276,0 27.8829303533809,6.90930920683256,0 27.88632281846753,6.913893817483454,0 27.89181881955776,6.919626798461898,0 27.90018879061143,6.926022517069179,0 27.9038305642256,6.929130135494697,0 27.90459927324676,6.931825845016252,0 27.90526865717286,6.933783045810013,0 27.906477831836,6.93722802645646,0 27.9081310136786,6.942466543238321,0 27.90533664507429,6.947711821447828,0 27.90298825837471,6.952359977555548,0 27.89827866338468,6.958633783761262,0 27.89625013797853,6.96716948527849,0 27.88985691114056,6.983398683162868,0 27.8827037040582,6.989241923336832,0 27.88164582703905,6.999505272451977,0 27.87476479935396,7.00671828056979,0 27.86843909366664,7.010483625562935,0 27.86661474978676,7.013563506172533,0 27.86412077298818,7.016573684653724,0 27.86235835969635,7.017881210345002,0 27.86456548147166,7.035525821978438,0 27.8587838374902,7.05014604865939,0 27.85558669492909,7.056695352816333,0 27.85501038253564,7.074333339922244,0 27.85567362181717,7.086822063238162,0 27.84862394494827,7.09199633657551,0 27.84862462250658,7.092906475105513,0 27.85140180049024,7.108376084414581,0 27.85599144786945,7.12475798625053,0 27.858923609092,7.128106448642244,0 27.86088209006857,7.132416060236268,0 27.85944680911548,7.13466570454459,0 27.84278409892717,7.139269960967037,0 27.83093120225179,7.159142023515542,0 27.8309900613368,7.185592254722413,0 27.8468077702435,7.227622642832944,0 27.85019812008839,7.250297877166125,0 27.8512013429154,7.270179441107693,0 27.83333880754842,7.285278073755265,0 27.8173721972567,7.295250395828347,0 27.80687281273536,7.305567905453899,0 27.80404853090969,7.312866856837723,0 27.79836581761326,7.311710888687719,0 27.78902229476519,7.30739809748001,0 27.77477177071401,7.308297121418429,0 27.77228310552817,7.314767748163525,0 27.7652703142056,7.318264717435246,0 27.76133473315664,7.326828113564879,0 27.76187699585629,7.331479127982158,0 27.7620500725317,7.335295821966215,0 27.75852944202222,7.342763343488921,0 27.75389971316789,7.349931051688277,0 27.751741861174,7.352600890139078,0 27.75157514837621,7.352601753559124,0 27.74469638260582,7.352772521881448,0 27.74184580893503,7.352774912119874,0 27.73648802544974,7.355932420719168,0 27.73231707105128,7.356619012413778,0 27.7277995845548,7.35663233383467,0 27.72511385326231,7.354310977261407,0 27.7215891469762,7.352318610237777,0 27.71841561483958,7.35333018249322,0 27.71674630199476,7.357310596135259,0 27.71625569985817,7.360808952538123,0 27.71257447319123,7.363461411125083,0 27.70956711641558,7.365467199679431,0 27.70621941244369,7.364825418662744,0 27.70252855803627,7.362483746753936,0 27.69851201656413,7.362826878978514,0 27.69515382784518,7.358359528924238,0 27.6978207058378,7.352536783952703,0 27.69647267105524,7.348390638236491,0 27.69629617372278,7.344074414673516,0 27.69713093152977,7.342401126189948,0 27.69712247175307,7.338756510752424,0 27.69343754612324,7.337268633681037,0 27.69092671792265,7.337608168152174,0 27.68925912082414,7.340599768748833,0 27.6862514376831,7.342262963470945,0 27.68274118763516,7.344594597711085,0 27.68190171261155,7.343601171884525,0 27.6807253349264,7.341945192133411,0 27.67622134165434,7.345553273767496,0 27.67131108938689,7.347195484613362,0 27.66785845731917,7.356540142521826,0 27.66440577183759,7.365884878567965,0 27.66564035474435,7.36831712421846,0 27.66236936325202,7.369747130949711,0 27.65930617753041,7.37320828237195,0 27.65606270405993,7.383564418855041,0 27.65444163403759,7.38945258681983,0 27.6505643585422,7.393113747723065,0 27.64627143279418,7.394546508395702,0 27.63951646973493,7.392126298652986,0 27.63236190259626,7.388893019328769,0 27.62745849257186,7.390528474811349,0 27.62131905570475,7.394404705236601,0 27.61827451492968,7.399883829782879,0 27.61889960603702,7.40617264614078,0 27.61973082326802,7.411851315094429,0 27.61425099640083,7.418939830455305,0 27.60443059352314,7.420597720711506,0 27.59992165198162,7.427562767014203,0 27.59561173732508,7.428001784673374,0 27.59195474769189,7.429783032307474,0 27.58918294114994,7.430676887988793,0 27.5864074166992,7.431129553457037,0 27.58496349151492,7.431026891295239,0 27.58374256817018,7.430431123751441,0 27.58312874762209,7.430432370887519,0 27.58190758315191,7.432866573841342,0 27.58320600613206,7.434560014723544,0 27.58455523775167,7.438077208608513,0 27.58414562554776,7.444350194435395,0 27.58216082584736,7.44788807107054,0 27.58118414673559,7.451739724696424,0 27.57686565371269,7.454516314748188,0 27.57623204476277,7.460013829247213,0 27.57593834691387,7.464901880994982,0 27.57710955990837,7.470731370319987,0 27.57425539628709,7.476466442097578,0 27.57249224895809,7.484558631782348,0 27.57231326701864,7.494075750405092,0 27.56885110934455,7.500152666129725,0 27.56495914187183,7.501563745734966,0 27.56053876537377,7.500460668710729,0 27.55579732684383,7.501344311491215,0 27.55106157005766,7.503659548386127,0 27.54845202938374,7.509266204172399,0 27.54582971348545,7.516976792862302,0 27.55140733684567,7.532986383743732,0 27.55627667213313,7.544560098644979,0 27.55731517140171,7.545919795850163,0 27.56939512217571,7.554052544996705,0 27.56461899154836,7.562263574709057,0 27.55502160984548,7.571182036864746,0 27.55369697290896,7.582789670303587,0 27.55370931814889,7.585520228544153,0 27.5499635722197,7.594754458168467,0 27.54962384693152,7.595780159177103,0 27.54798798850054,7.615264318965194,0 27.55425336445919,7.629592965452797,0 27.55359056063357,7.635416268008058,0 27.55160361250981,7.653189846738795,0 27.55302787617652,7.663426206899108,0 27.55032324685857,7.675395556760216,0 27.54521336598891,7.689430622905024,0 27.53665487264123,7.705203646460039,0 27.53184004948976,7.711229370767309,0 27.52841923174991,7.708932743965027,0 27.52482165326237,7.708658649496389,0 27.52123399130453,7.707715642454048,0 27.52016672949682,7.706760329257937,0 27.52092873408301,7.704352131233563,0 27.52101513969077,7.702332528996934,0 27.51646819862096,7.705333504836855,0 27.51560505583697,7.708219726815563,0 27.51230938168034,7.708523333031826,0 27.50746090604176,7.708832573162494,0 27.50581356556797,7.709127082541504,0 27.50349419010738,7.710869264039593,0 27.49963239671177,7.714440043331942,0 27.4904410789435,7.718998046823917,0 27.48434729489954,7.721906136329429,0 27.47960414785043,7.720414467972943,0 27.46370501815785,7.712283622508725,0 27.4616328615395,7.711612682973476,0 27.45096070729607,7.71473865648345,0 27.43820649529114,7.713770877338566,0 27.42895502653704,7.724740550193083,0 27.41278615241679,7.729929449002481,0 27.41244146484422,7.729930835362615,0 27.39628197963944,7.73443617249969,0 27.39559311372321,7.734438983006597,0 27.37768015120275,7.734170319107356,0 27.36831239912237,7.72362313273876,0 27.35516527643425,7.714453539882012,0 27.35341105297915,7.705242650377706,0 27.35306114453216,7.703878307959866,0 27.33549497397421,7.704567333738026,0 27.32032992857168,7.699846901833832,0 27.29656736276014,7.703012223264476,0 27.27591913398699,7.709236869918319,0 27.26007714530116,7.712370892209879,0 27.25006343271596,7.705578705427686,0 27.24038560923124,7.700834073450819,0 27.22759312768282,7.699171568516057,0 27.2196554585166,7.696467546560653,0 27.20895834048172,7.686603505935359,0 27.20068043151769,7.678783547909021,0 27.1901022988827,7.685043903925554,0 27.178806409285,7.701176308357693,0 27.17261123501369,7.704277395600257,0 27.16363150869035,7.700554974183591,0 27.15809385211858,7.695103914656389,0 27.15774562145975,7.694076913813941,0 27.1463492009714,7.688297757549685,0 27.13565376646086,7.685599830376274,0 27.13046885349918,7.682203387377389,0 27.12561105153615,7.67333717426478,0 27.11835417307996,7.669605735451587,0 27.11693987918784,7.665880608554212,0 27.1141858025682,7.673395602843174,0 27.10383802534208,7.674095158491171,0 27.0990256857941,7.659419183903669,0 27.08800201637893,7.663215273020579,0 27.07277159245934,7.66321734870892,0 27.05418397324264,7.64545901362885,0 27.03554044857401,7.622939234160251,0 27.01833167903002,7.620895370114726,0 26.99769811942108,7.625639819385772,0 26.98048225531232,7.627694965981648,0 26.97221602567617,7.639299721169914,0 26.96807741445896,7.653627581436472,0 26.96118662757117,7.659084510354259,0 26.94672476283116,7.660449944845302,0 26.93639994505834,7.667954816633432,0 26.92263534875252,7.676142876741052,0 26.90473733287755,7.670685352786426,0 26.8875346682478,7.678867866858749,0 26.8634532791241,7.674090996216402,0 26.82219468133893,7.659763190394295,0 26.79881083359986,7.649539010139505,0 26.76435347275358,7.64341438902265,0 26.74370538247775,7.652279121584152,0 26.72994389470085,7.658414897035467,0 26.70583623038401,7.661143079760893,0 26.70308394838998,7.66182442756527,0 26.68727057734418,7.665227646179171,0 26.66185612865653,7.659756807108502,0 26.66185468471292,7.659075185126036,0 26.63229706665641,7.659061035822015,0 26.60532122478103,7.654975644649637,0 26.58123659977043,7.644731781887542,0 26.56325413184081,7.626305179571031,0 26.55194363660945,7.643596878041675,0 26.5361326104749,7.642905488649507,0 26.52169033363132,7.645623023676431,0 26.50930620797134,7.649705329392114,0 26.50861780046496,7.65038655333611,0 26.49348002157775,7.657196264741455,0 26.47284965541625,7.650361606809182,0 26.46735163963052,7.647630519644444,0 26.46666460239644,7.646948333399182,0 26.42815613269918,7.630555727180093,0 26.36975348750667,7.605972380465096,0 26.32713441890416,7.619563306170823,0 26.30716597701781,7.624989765738808,0 26.29336065377136,7.627013446597165,0 26.28015595729027,7.642674210714529,0 26.26570786877074,7.631742980919424,0 26.24921776333349,7.613988733041031,0 26.23959321065255,7.608520256507473,0 26.24513474548338,7.597618564198031,0 26.23891763708744,7.58615462015408,0 26.21850394794825,7.574404103054215,0 26.20776262503625,7.572264919499561,0 26.20831695121788,7.554946846569581,0 26.20940750310442,7.53578579416596,0 26.20969223970656,7.520630388612792,0 26.21747494123609,7.505737833645668,0 
						</coordinates>
					</LinearRing>
				</outerBoundaryIs>
			</Polygon>
		</Placemark>
		<Placemark>
			<name>Southern-NP-Wilderness_41&apos;590km2</name>
			<styleUrl>#msn_ylw-pushpin4112</styleUrl>
			<Polygon>
				<tessellate>1</tessellate>
				<outerBoundaryIs>
					<LinearRing>
						<coordinates>
							27.9627608477687,7.014769310448498,0 27.93519024637093,6.928207104143202,0 27.92139174548114,6.751202227732247,0 27.92978133347675,6.665565061284112,0 27.93755276964219,6.627542692501804,0 27.90404070320576,6.614026200274026,0 27.89700273255405,6.602729296842371,0 27.88994861618855,6.588779503610973,0 27.89929005498489,6.563881651144145,0 27.88273042021893,6.477649305933041,0 27.86002045802164,6.447100602712852,0 27.87135324457886,6.409151415017291,0 27.85763222585143,6.376981546797968,0 27.84547851388612,6.356388325951785,0 27.8538684150272,6.336100234248082,0 27.86025934774224,6.32820559572351,0 27.85701097976956,6.309502443205426,0 27.87227518009531,6.30529180124731,0 27.84913188454609,6.274582468436775,0 27.85133266369983,6.250657105079275,0 27.85533952585496,6.224100846568651,0 27.82786976850069,6.211222221353054,0 27.81588405910955,6.181732193519795,0 27.81416123934266,6.178152271453653,0 27.7974309416973,6.164561990799172,0 27.79655340683496,6.163660308347652,0 27.75991330357527,6.114715612941439,0 27.73447814835121,6.089389547445728,0 27.71270107195576,6.063987145590719,0 27.70956064037314,6.035704974896018,0 27.71048603338826,6.033942008564984,0 27.72335996166038,6.011974127590199,0 27.73250902132789,5.997089344422053,0 27.70324258824159,5.934522589924496,0 27.69973661222526,5.930914315679776,0 27.698885597645,5.877695615223644,0 27.70790391907531,5.820218715927481,0 27.70798148056137,5.815789841054319,0 27.72609452974292,5.746910760113981,0 27.75270540785868,5.710307178567939,0 27.75540366625895,5.70947060394981,0 27.75810211313286,5.70863396215651,0 27.80160236723844,5.668528171125736,0 27.83913167844465,5.392215672052379,0 27.86908360329922,5.359890697004388,0 28.03309345805527,5.35638645779232,0 28.19397058112709,5.218133979772126,0 28.13409551090035,5.101158002481289,0 28.2125222244931,4.995846940995873,0 28.25132748655166,4.96783462157271,0 28.25396734589994,4.892805253596197,0 28.26245222023769,4.868765266571642,0 28.25601709884173,4.849853611094344,0 28.28659560541185,4.793951025066983,0 28.37371676191135,4.82356315038495,0 28.37326219749262,4.851756156599709,0 28.38254351120223,4.861305721452453,0 28.39601165618233,4.861525164033294,0 28.42098390836927,4.81760559137859,0 28.52449826018319,4.838035876074111,0 28.64612357170171,4.823817468736689,0 28.88421516090461,4.860754402920589,0 28.916273320755,4.894466802488202,0 28.88600151485613,4.944175726420531,0 28.82546476032508,5.020487728590928,0 28.79163649417669,5.066615219632076,0 28.73821730396011,5.155307690745722,0 28.67231146503423,5.208522990593154,0 28.65982642398031,5.284809098986307,0 28.70079333189383,5.362885887508909,0 28.76316099201866,5.35223119331855,0 28.7880956382351,5.258188560781319,0 28.82726816015239,5.169489314601634,0 28.88602110575839,5.071916706688939,0 28.99465639723224,4.976057847263822,0 29.05166782955311,4.910339520705294,0 29.13010170933704,4.896047900103695,0 29.1797544768574,4.938860468007147,0 29.22271590880575,4.958323377287622,0 29.41033172274911,5.099176770027387,0 29.47020422415918,5.261052572942337,0 29.52542603494032,5.317859912589158,0 29.74134952714284,5.686337896625556,0 29.73670938024437,5.84094961865663,0 29.75054070585482,5.990556880507492,0 29.5932238761552,6.079273629815028,0 29.54173216075753,6.174112633634739,0 29.46270747571238,6.180467282131622,0 29.43412160186536,6.20625269467965,0 29.45054366664811,6.254974106866035,0 29.45324665320326,6.438159379039897,0 29.1563741364022,6.636264743820366,0 28.88202798713609,6.928596348364272,0 28.64867608083656,7.041066645147715,0 28.57433630576622,7.048335774604878,0 28.57074634884327,7.017273358502123,0 28.54819015899281,7.001327736018714,0 28.54819161290571,7.000605795987746,0 28.51541032406464,7.004848310907115,0 28.51108244202286,6.98606969768564,0 28.56135523310127,6.976094187876589,0 28.56064991117421,6.965263426844492,0 28.53227206286225,6.952921689949304,0 28.52719881903137,6.94280420045999,0 28.53958445677127,6.939946731494896,0 28.52580439145207,6.917538625349144,0 28.51932705387672,6.888652717247259,0 28.49898675780731,6.874172951051056,0 28.45465040870629,6.858918753099904,0 28.29463195540134,6.895302916274619,0 28.26559064228436,6.888005973082116,0 28.23870839059217,6.887926475010043,0 28.1913037490595,6.944766212897211,0 28.19111824518104,7.003195408136347,0 28.18374445740448,7.035639272369967,0 28.03203288162869,7.044301639256562,0 27.9627608477687,7.014769310448498,0 
						</coordinates>
					</LinearRing>
				</outerBoundaryIs>
			</Polygon>
		</Placemark>
		<atom:link rel="app" href="https://www.google.com/earth/about/versions/#earth-pro" title="Google Earth Pro 7.3.7.1155"></atom:link>
	</Folder>
</Document>
</kml>
