<?xml version="1.0" encoding="UTF-8"?>
<kml xmlns="http://www.opengis.net/kml/2.2" xmlns:gx="http://www.google.com/kml/ext/2.2" xmlns:kml="http://www.opengis.net/kml/2.2" xmlns:atom="http://www.w3.org/2005/Atom">
<Document>
	<name>Southern NP.kml</name>
	<StyleMap id="msn_ylw-pushpin40021000">
		<Pair>
			<key>normal</key>
			<styleUrl>#sn_ylw-pushpin272201</styleUrl>
		</Pair>
		<Pair>
			<key>highlight</key>
			<styleUrl>#sh_ylw-pushpin151040</styleUrl>
		</Pair>
	</StyleMap>
	<Style id="sh_ylw-pushpin151040">
		<IconStyle>
			<scale>1.2</scale>
		</IconStyle>
		<LineStyle>
			<color>bf00aa00</color>
		</LineStyle>
		<PolyStyle>
			<color>8000aa00</color>
		</PolyStyle>
	</Style>
	<Style id="sn_ylw-pushpin272201">
		<LineStyle>
			<color>bf00aa00</color>
		</LineStyle>
		<PolyStyle>
			<color>8000aa00</color>
		</PolyStyle>
	</Style>
	<Placemark>
		<name>Southern NP</name>
		<styleUrl>#msn_ylw-pushpin40021000</styleUrl>
		<Polygon>
			<tessellate>1</tessellate>
			<outerBoundaryIs>
				<LinearRing>
					<coordinates>
						27.9627608477687,7.014769310448498,0 27.93519024637093,6.928207104143202,0 28.0311261392049,6.803950875472817,0 27.91851648852363,6.471884921471736,0 27.91702189750599,6.360708828590525,0 27.82739572481686,6.24107184984608,0 28.03471453687435,6.123685425465568,0 28.48726372853948,6.257021956247186,0 28.60213913920513,6.087902941541459,0 28.78907529993424,5.915376971181117,0 28.86455486077852,5.889593300758362,0 29.0037690926317,5.94198627484478,0 29.13525536903208,6.109553632074125,0 29.29455803906028,6.189818322485005,0 29.45043557192502,6.255090583953164,0 29.45338116090886,6.345502813899924,0 29.45324665320326,6.438159379039897,0 29.1553248188645,6.634985020392723,0 29.03857367342949,6.765597303170155,0 28.88202798713609,6.928596348364272,0 28.64867608083656,7.041066645147715,0 28.57176836371518,7.047734175121779,0 28.56946082235239,7.014682019483056,0 28.5447811831935,6.999814246603673,0 28.5149881692921,7.005727897584667,0 28.51256763324956,6.986331070598954,0 28.56267876685579,6.976466737554448,0 28.56029802667699,6.965138061987965,0 28.53118278984312,6.952410699425227,0 28.52764396021015,6.941471570514023,0 28.53944776198934,6.939487404408425,0 28.52987450305072,6.922040303504146,0 28.51940354800008,6.889827281458556,0 28.50015241895955,6.873203367131621,0 28.45363418743634,6.8607484862433,0 28.37551121402015,6.878218384985136,0 28.29475372848859,6.895149650354485,0 28.26490960708848,6.888361128897664,0 28.24032481046228,6.890002939008031,0 28.19259985200103,6.943558299316575,0 28.19302893583905,6.997175195543527,0 28.18698719121635,7.036129972315041,0 28.03203288162869,7.044301639256562,0 27.9627608477687,7.014769310448498,0 
					</coordinates>
				</LinearRing>
			</outerBoundaryIs>
		</Polygon>
		<atom:link rel="app" href="https://www.google.com/earth/about/versions/#earth-pro" title="Google Earth Pro 7.3.7.1155"></atom:link>
	</Placemark>
</Document>
</kml>
