<?xml version="1.0" encoding="UTF-8"?>
<kml xmlns="http://www.opengis.net/kml/2.2" xmlns:gx="http://www.google.com/kml/ext/2.2" xmlns:kml="http://www.opengis.net/kml/2.2" xmlns:atom="http://www.w3.org/2005/Atom">
<Document>
	<name>Zone-Pâturage_Couloir-à-bétail_Soudan-du-Sud.kml</name>
	<StyleMap id="msn_ylw-pushpin0311">
		<Pair>
			<key>normal</key>
			<styleUrl>#sn_ylw-pushpin501</styleUrl>
		</Pair>
		<Pair>
			<key>highlight</key>
			<styleUrl>#sh_ylw-pushpin2205</styleUrl>
		</Pair>
	</StyleMap>
	<Style id="sh_ylw-pushpin2205">
		<IconStyle>
			<scale>1.3</scale>
			<Icon>
				<href>http://maps.google.com/mapfiles/kml/pushpin/ylw-pushpin.png</href>
			</Icon>
			<hotSpot x="20" y="2" xunits="pixels" yunits="pixels"/>
		</IconStyle>
		<LineStyle>
			<color>ff00aaff</color>
		</LineStyle>
		<PolyStyle>
			<color>8c00aaff</color>
		</PolyStyle>
	</Style>
	<Style id="sn_ylw-pushpin501">
		<IconStyle>
			<scale>1.1</scale>
			<Icon>
				<href>http://maps.google.com/mapfiles/kml/pushpin/ylw-pushpin.png</href>
			</Icon>
			<hotSpot x="20" y="2" xunits="pixels" yunits="pixels"/>
		</IconStyle>
		<LineStyle>
			<color>ff00aaff</color>
		</LineStyle>
		<PolyStyle>
			<color>8c00aaff</color>
		</PolyStyle>
	</Style>
	<Folder>
		<name>Zone-Pâturage_Couloir-à-bétail_Soudan-du-Sud</name>
		<open>1</open>
		<Placemark>
			<name>zone-pâturage-durable_Numatina_15&apos;000km2</name>
			<styleUrl>#msn_ylw-pushpin0311</styleUrl>
			<Polygon>
				<tessellate>1</tessellate>
				<outerBoundaryIs>
					<LinearRing>
						<coordinates>
							26.4846215356602,6.640685452678014,0 26.489753290741,6.745308861478503,0 26.21737743927013,7.009361346484534,0 25.51398835577935,7.424872849566371,0 25.41944377709435,7.59988067688161,0 25.33578221438475,7.802276034524428,0 25.23570858149775,7.933397281861928,0 24.85774622868961,8.22246847544824,0 24.66326087747434,8.276547912890116,0 24.46277987383827,8.347101012586476,0 24.31249602203299,8.357459034409745,0 24.23963529485005,8.412125810572318,0 24.27795774236956,8.489272174711839,0 24.33747314006267,8.687616013452688,0 24.2703595911057,8.709425583257357,0 24.23189583544971,8.648708459138938,0 24.26024393266798,8.599255692462716,0 24.13858903816157,8.488725602171609,0 24.17363646428173,8.312883934642377,0 24.36905100318195,8.242334137336218,0 24.44663977591406,8.27562856805209,0 24.53601022795479,8.210134203294146,0 24.65259167082021,8.21064049556583,0 24.85818138631297,8.145674427474763,0 24.93650536433459,8.003441244021879,0 25.09192577855512,7.916393231807229,0 25.19158857246291,7.900350669893179,0 25.29718092062896,7.774741126831911,0 25.29766546071201,7.648741823706811,0 25.18192983228152,7.560626488132979,0 25.21533129051626,7.500492906403123,0 25.33168463245691,7.418756060461913,0 25.4315378938442,7.304025448815227,0 25.64732410677611,7.200527909247715,0 25.80218279725936,7.151542521285603,0 26.04589949607189,6.998263284755412,0 26.11281025823713,6.838993171574969,0 26.25147890108694,6.751019184634329,0 26.40146292688834,6.640807557378658,0 26.30146081359522,6.416672597406682,0 26.54060932996216,6.248117968981994,0 26.49264578427904,6.116567751219979,0 26.61458265174553,6.027089773572428,0 26.76835197680023,6.032302923226553,0 26.96921579633261,5.874345005124882,0 26.99609881169279,6.053144487200428,0 27.23953317425182,6.105338814692127,0 27.38728090277682,6.005171077523215,0 27.42944175714214,5.963022215107816,0 27.48214811270986,5.915581345124958,0 27.67748511878093,5.867726160491967,0 27.7298517601638,5.709752968888392,0 27.78788747977661,5.683245401936728,0 27.85033069128819,5.34054361807113,0 28.02480444792502,5.360901138044704,0 28.1672976674558,5.238782512919951,0 28.12461668128557,5.06987769546162,0 28.23558558258948,4.97925642230546,0 28.29361072175327,4.8251645726864,0 28.36782456382721,4.856478560403787,0 28.46852578962011,4.839813156704137,0 28.78175838997928,4.847723631510496,0 28.98527979313227,4.737800892537081,0 29.32741414753908,4.403732907766756,0 29.50254836085473,4.700788847467926,0 29.35316684431907,4.446531814269094,0 28.89877019156841,4.86781533094584,0 28.78950060482341,5.049994336407862,0 28.733193432006,5.146955134275531,0 28.66772541326837,5.201207193386268,0 28.65197841967313,5.282421927517793,0 28.7063371985924,5.361241174486184,0 28.75607833780774,5.347553795776408,0 28.83252425243068,5.112921349068979,0 29.02398577507835,4.930194138679533,0 29.11422851039873,4.916485860102794,0 29.20238724462439,4.952270491559491,0 29.46747061679787,4.652588618791926,0 29.49206305593458,4.692386763886912,0 29.2657507850314,4.988127696278076,0 28.97484146244901,5.132846189370046,0 28.857740437139,5.302155314309746,0 28.79012832947513,5.435528713788655,0 28.65434993880834,5.426899548040772,0 28.43923340464769,5.294384137909575,0 28.27338057921851,5.354333284477284,0 28.0094060599581,5.534939399884732,0 27.78847751640399,5.883146281422849,0 27.52466662326446,6.004842481770441,0 27.45124264540321,6.209975619751516,0 26.80566303544144,6.147992369204252,0 26.51953159612827,6.484917254869325,0 26.4846215356602,6.640685452678014,0 
						</coordinates>
					</LinearRing>
				</outerBoundaryIs>
			</Polygon>
		</Placemark>
		<Placemark>
			<name>zone-pâturage-durable_Garamba_2&apos;500km2</name>
			<styleUrl>#msn_ylw-pushpin0311</styleUrl>
			<Polygon>
				<tessellate>1</tessellate>
				<outerBoundaryIs>
					<LinearRing>
						<coordinates>
							29.32741414753908,4.403732907766756,0 29.21890672456779,4.358968277741453,0 29.07256993422069,4.467286356076721,0 29.01625506952518,4.498917246147811,0 28.83574924213141,4.481321724723423,0 28.78853409333303,4.571485985629296,0 28.71848492943234,4.517619161663009,0 28.67550533534517,4.45019873731969,0 28.94599413138737,4.359583659393171,0 29.19845732563042,4.311778016970456,0 29.37468222043567,4.356370158700669,0 29.50313610432201,4.497785462199136,0 29.77362282862432,4.46144639805155,0 29.80022732076226,4.328380811746503,0 30.11999390414138,4.011537526477354,0 30.20684648634668,4.013389159675849,0 30.1500552701469,4.122050470074337,0 29.89571744127461,4.339433689833997,0 29.84004725513539,4.558371617263955,0 29.64985297328967,4.65335982125092,0 29.50254836085473,4.700788847467926,0 29.35316684431907,4.446531814269094,0 29.32741414753908,4.403732907766756,0 
						</coordinates>
					</LinearRing>
				</outerBoundaryIs>
			</Polygon>
		</Placemark>
		<Placemark>
			<name>zone-pâturage-durable_Radom-Sudan</name>
			<styleUrl>#msn_ylw-pushpin0311</styleUrl>
			<Polygon>
				<tessellate>1</tessellate>
				<outerBoundaryIs>
					<LinearRing>
						<coordinates>
							23.61091071793942,10.00087403993474,0 23.64371337642279,9.944462849301912,0 23.72870406811286,9.927027974789185,0 23.89139902372942,9.68877499668659,0 23.86742048386721,9.5735131379927,0 23.8707120434833,9.472120624976306,0 23.9261536357706,9.402789832806416,0 23.97945744288761,9.313209695846069,0 23.88472002777644,9.204329168449885,0 23.81062089038537,9.08662663552324,0 23.84380960420592,8.951913867216616,0 23.93311330486035,8.903233223255922,0 24.12481119408066,8.86215871284023,0 24.28154469953212,8.915212585769273,0 24.32766949598261,8.852528103935848,0 24.26504023352298,8.719149661192194,0 24.3312992983642,8.699363407066361,0 24.40340351205133,8.794525456203193,0 24.3472583058233,8.960745204966978,0 24.22194991060762,8.955251169844729,0 24.11755719072812,8.909368642097064,0 24.05569746539096,8.949346614466078,0 23.92130942916481,8.948138822490437,0 23.89083358101155,9.040121821957065,0 23.89241320228528,9.114391323570503,0 23.95548893759161,9.193718992806044,0 24.07324461348493,9.280275851678997,0 24.04249118094855,9.403820558129349,0 23.93403052498246,9.533523680880645,0 23.9243545292164,9.589798194089999,0 23.96688726817187,9.680406998633263,0 23.89701461722447,9.813057743582968,0 23.7741559321549,9.959112747946525,0 23.72544285948146,10.01084897559272,0 23.61091071793942,10.00087403993474,0 
						</coordinates>
					</LinearRing>
				</outerBoundaryIs>
			</Polygon>
		</Placemark>
		<atom:link rel="app" href="https://www.google.com/earth/about/versions/#earth-pro" title="Google Earth Pro 7.3.7.1155"></atom:link>
	</Folder>
</Document>
</kml>
